<?xml version="1.0" encoding="UTF-8"?>
<gpx creator="Patrick Hooper" version="1.1" xmlns="http://www.topografix.com/GPX/1/1" xmlns:xsi="http://www.w3.org/2001/XMLSchema-instance" xsi:schemaLocation="http://www.topografix.com/GPX/1/1 http://www.topografix.com/GPX/1/1/gpx.xsd http://www.garmin.com/xmlschemas/GpxExtensions/v3 http://www.garmin.com/xmlschemas/GpxExtensionsv3.xsd http://www.garmin.com/xmlschemas/TrackPointExtension/v1 http://www.garmin.com/xmlschemas/TrackPointExtensionv1.xsd">
  <metadata>
    <name>Activity</name>
  </metadata>
  <trk>
    <name>a</name>
    <trkseg>
      <trkpt lat="31.84072" lon="34.994820000000004">
        <ele>260</ele>
        <time>2026-02-27T10:11:22.726Z</time>
      </trkpt>
      <trkpt lat="31.840650000000004" lon="34.99474">
        <ele>260</ele>
        <time>2026-02-27T10:11:23.726Z</time>
      </trkpt>
      <trkpt lat="31.840390000000003" lon="34.994350000000004">
        <ele>260</ele>
        <time>2026-02-27T10:11:24.726Z</time>
      </trkpt>
      <trkpt lat="31.840000000000003" lon="34.993880000000004">
        <ele>272</ele>
        <time>2026-02-27T10:11:25.726Z</time>
      </trkpt>
      <trkpt lat="31.83986" lon="34.99374">
        <ele>272</ele>
        <time>2026-02-27T10:11:26.726Z</time>
      </trkpt>
      <trkpt lat="31.839740000000003" lon="34.993640000000006">
        <ele>272</ele>
        <time>2026-02-27T10:11:27.726Z</time>
      </trkpt>
      <trkpt lat="31.8395" lon="34.99351">
        <ele>272</ele>
        <time>2026-02-27T10:11:28.726Z</time>
      </trkpt>
      <trkpt lat="31.839170000000003" lon="34.9934">
        <ele>281</ele>
        <time>2026-02-27T10:11:29.726Z</time>
      </trkpt>
      <trkpt lat="31.839090000000002" lon="34.99335">
        <ele>281</ele>
        <time>2026-02-27T10:11:30.726Z</time>
      </trkpt>
      <trkpt lat="31.83884" lon="34.99313">
        <ele>267</ele>
        <time>2026-02-27T10:11:31.726Z</time>
      </trkpt>
      <trkpt lat="31.83873" lon="34.99306">
        <ele>267</ele>
        <time>2026-02-27T10:11:32.726Z</time>
      </trkpt>
      <trkpt lat="31.83866" lon="34.993050000000004">
        <ele>267</ele>
        <time>2026-02-27T10:11:33.726Z</time>
      </trkpt>
      <trkpt lat="31.838520000000003" lon="34.99306">
        <ele>267</ele>
        <time>2026-02-27T10:11:34.726Z</time>
      </trkpt>
      <trkpt lat="31.838320000000003" lon="34.993120000000005">
        <ele>271</ele>
        <time>2026-02-27T10:11:35.726Z</time>
      </trkpt>
      <trkpt lat="31.83809" lon="34.99322">
        <ele>271</ele>
        <time>2026-02-27T10:11:36.726Z</time>
      </trkpt>
      <trkpt lat="31.837940000000003" lon="34.99325">
        <ele>271</ele>
        <time>2026-02-27T10:11:37.726Z</time>
      </trkpt>
      <trkpt lat="31.837850000000003" lon="34.99325">
        <ele>271</ele>
        <time>2026-02-27T10:11:38.726Z</time>
      </trkpt>
      <trkpt lat="31.837670000000003" lon="34.9932">
        <ele>271</ele>
        <time>2026-02-27T10:11:39.726Z</time>
      </trkpt>
      <trkpt lat="31.837560000000003" lon="34.99311">
        <ele>272</ele>
        <time>2026-02-27T10:11:40.726Z</time>
      </trkpt>
      <trkpt lat="31.837460000000004" lon="34.99298">
        <ele>272</ele>
        <time>2026-02-27T10:11:41.726Z</time>
      </trkpt>
      <trkpt lat="31.837370000000004" lon="34.992900000000006">
        <ele>272</ele>
        <time>2026-02-27T10:11:42.726Z</time>
      </trkpt>
      <trkpt lat="31.837300000000003" lon="34.992900000000006">
        <ele>272</ele>
        <time>2026-02-27T10:11:43.726Z</time>
      </trkpt>
      <trkpt lat="31.837030000000002" lon="34.993050000000004">
        <ele>272</ele>
        <time>2026-02-27T10:11:44.726Z</time>
      </trkpt>
      <trkpt lat="31.836910000000003" lon="34.99307">
        <ele>272</ele>
        <time>2026-02-27T10:11:45.726Z</time>
      </trkpt>
      <trkpt lat="31.836790000000004" lon="34.993050000000004">
        <ele>276</ele>
        <time>2026-02-27T10:11:46.726Z</time>
      </trkpt>
      <trkpt lat="31.836750000000002" lon="34.993">
        <ele>276</ele>
        <time>2026-02-27T10:11:47.726Z</time>
      </trkpt>
      <trkpt lat="31.836720000000003" lon="34.99291">
        <ele>276</ele>
        <time>2026-02-27T10:11:48.726Z</time>
      </trkpt>
      <trkpt lat="31.836710000000004" lon="34.99279">
        <ele>276</ele>
        <time>2026-02-27T10:11:49.726Z</time>
      </trkpt>
      <trkpt lat="31.836560000000002" lon="34.99293">
        <ele>276</ele>
        <time>2026-02-27T10:11:50.726Z</time>
      </trkpt>
      <trkpt lat="31.836560000000002" lon="34.99293">
        <ele>276</ele>
        <time>2026-02-27T10:11:51.726Z</time>
      </trkpt>
      <trkpt lat="31.836260000000003" lon="34.993210000000005">
        <ele>276</ele>
        <time>2026-02-27T10:11:52.726Z</time>
      </trkpt>
      <trkpt lat="31.836060000000003" lon="34.99347">
        <ele>287</ele>
        <time>2026-02-27T10:11:53.726Z</time>
      </trkpt>
      <trkpt lat="31.83601" lon="34.99365">
        <ele>287</ele>
        <time>2026-02-27T10:11:54.726Z</time>
      </trkpt>
      <trkpt lat="31.836000000000002" lon="34.9938">
        <ele>287</ele>
        <time>2026-02-27T10:11:55.726Z</time>
      </trkpt>
      <trkpt lat="31.836060000000003" lon="34.9941">
        <ele>287</ele>
        <time>2026-02-27T10:11:56.726Z</time>
      </trkpt>
      <trkpt lat="31.836140000000004" lon="34.99427">
        <ele>299</ele>
        <time>2026-02-27T10:11:57.726Z</time>
      </trkpt>
      <trkpt lat="31.836250000000003" lon="34.994400000000006">
        <ele>299</ele>
        <time>2026-02-27T10:11:58.726Z</time>
      </trkpt>
      <trkpt lat="31.83659" lon="34.9947">
        <ele>299</ele>
        <time>2026-02-27T10:11:59.726Z</time>
      </trkpt>
      <trkpt lat="31.83723" lon="34.99521">
        <ele>310</ele>
        <time>2026-02-27T10:12:00.726Z</time>
      </trkpt>
      <trkpt lat="31.837670000000003" lon="34.99551">
        <ele>305</ele>
        <time>2026-02-27T10:12:01.726Z</time>
      </trkpt>
      <trkpt lat="31.838030000000003" lon="34.9957">
        <ele>305</ele>
        <time>2026-02-27T10:12:02.726Z</time>
      </trkpt>
      <trkpt lat="31.838120000000004" lon="34.995830000000005">
        <ele>308</ele>
        <time>2026-02-27T10:12:03.726Z</time>
      </trkpt>
      <trkpt lat="31.838120000000004" lon="34.995900000000006">
        <ele>308</ele>
        <time>2026-02-27T10:12:04.726Z</time>
      </trkpt>
      <trkpt lat="31.838120000000004" lon="34.995900000000006">
        <ele>308</ele>
        <time>2026-02-27T10:12:05.726Z</time>
      </trkpt>
      <trkpt lat="31.838120000000004" lon="34.995830000000005">
        <ele>308</ele>
        <time>2026-02-27T10:12:06.726Z</time>
      </trkpt>
      <trkpt lat="31.838030000000003" lon="34.9957">
        <ele>305</ele>
        <time>2026-02-27T10:12:07.726Z</time>
      </trkpt>
      <trkpt lat="31.838300000000004" lon="34.995850000000004">
        <ele>308</ele>
        <time>2026-02-27T10:12:08.726Z</time>
      </trkpt>
      <trkpt lat="31.838400000000004" lon="34.99595">
        <ele>308</ele>
        <time>2026-02-27T10:12:09.726Z</time>
      </trkpt>
      <trkpt lat="31.83847" lon="34.996080000000006">
        <ele>292</ele>
        <time>2026-02-27T10:12:10.726Z</time>
      </trkpt>
      <trkpt lat="31.838500000000003" lon="34.99617">
        <ele>292</ele>
        <time>2026-02-27T10:12:11.726Z</time>
      </trkpt>
      <trkpt lat="31.838510000000003" lon="34.99626">
        <ele>292</ele>
        <time>2026-02-27T10:12:12.726Z</time>
      </trkpt>
      <trkpt lat="31.838510000000003" lon="34.99654">
        <ele>292</ele>
        <time>2026-02-27T10:12:13.726Z</time>
      </trkpt>
      <trkpt lat="31.838430000000002" lon="34.99705">
        <ele>302</ele>
        <time>2026-02-27T10:12:14.726Z</time>
      </trkpt>
      <trkpt lat="31.838230000000003" lon="34.997980000000005">
        <ele>296</ele>
        <time>2026-02-27T10:12:15.726Z</time>
      </trkpt>
      <trkpt lat="31.83818" lon="34.99837">
        <ele>302</ele>
        <time>2026-02-27T10:12:16.726Z</time>
      </trkpt>
      <trkpt lat="31.83819" lon="34.99853">
        <ele>302</ele>
        <time>2026-02-27T10:12:17.726Z</time>
      </trkpt>
      <trkpt lat="31.838260000000002" lon="34.99873">
        <ele>302</ele>
        <time>2026-02-27T10:12:18.726Z</time>
      </trkpt>
      <trkpt lat="31.83837" lon="34.998960000000004">
        <ele>302</ele>
        <time>2026-02-27T10:12:19.726Z</time>
      </trkpt>
      <trkpt lat="31.83864" lon="34.99926">
        <ele>295.5</ele>
        <time>2026-02-27T10:12:20.726Z</time>
      </trkpt>
      <trkpt lat="31.83864" lon="34.99926">
        <ele>295.5</ele>
        <time>2026-02-27T10:12:21.726Z</time>
      </trkpt>
      <trkpt lat="31.83875" lon="34.99938">
        <ele>289</ele>
        <time>2026-02-27T10:12:22.726Z</time>
      </trkpt>
      <trkpt lat="31.838480000000004" lon="35.00014">
        <ele>289</ele>
        <time>2026-02-27T10:12:23.726Z</time>
      </trkpt>
      <trkpt lat="31.838410000000003" lon="35.00029">
        <ele>306</ele>
        <time>2026-02-27T10:12:24.726Z</time>
      </trkpt>
      <trkpt lat="31.83828" lon="35.000490000000006">
        <ele>306</ele>
        <time>2026-02-27T10:12:25.726Z</time>
      </trkpt>
      <trkpt lat="31.83761" lon="35.00126">
        <ele>319</ele>
        <time>2026-02-27T10:12:26.726Z</time>
      </trkpt>
      <trkpt lat="31.83751" lon="35.00142">
        <ele>319</ele>
        <time>2026-02-27T10:12:27.726Z</time>
      </trkpt>
      <trkpt lat="31.83743" lon="35.001630000000006">
        <ele>319</ele>
        <time>2026-02-27T10:12:28.726Z</time>
      </trkpt>
      <trkpt lat="31.83743" lon="35.001630000000006">
        <ele>319</ele>
        <time>2026-02-27T10:12:29.726Z</time>
      </trkpt>
      <trkpt lat="31.837400000000002" lon="35.0018">
        <ele>315</ele>
        <time>2026-02-27T10:12:30.726Z</time>
      </trkpt>
      <trkpt lat="31.837400000000002" lon="35.002140000000004">
        <ele>315</ele>
        <time>2026-02-27T10:12:31.726Z</time>
      </trkpt>
      <trkpt lat="31.837460000000004" lon="35.00255">
        <ele>313</ele>
        <time>2026-02-27T10:12:32.726Z</time>
      </trkpt>
      <trkpt lat="31.837590000000002" lon="35.00311">
        <ele>313</ele>
        <time>2026-02-27T10:12:33.726Z</time>
      </trkpt>
      <trkpt lat="31.83762" lon="35.0033">
        <ele>313</ele>
        <time>2026-02-27T10:12:34.726Z</time>
      </trkpt>
      <trkpt lat="31.83761" lon="35.00357">
        <ele>315</ele>
        <time>2026-02-27T10:12:35.726Z</time>
      </trkpt>
      <trkpt lat="31.837590000000002" lon="35.003710000000005">
        <ele>315</ele>
        <time>2026-02-27T10:12:36.726Z</time>
      </trkpt>
      <trkpt lat="31.83753" lon="35.00385">
        <ele>315</ele>
        <time>2026-02-27T10:12:37.726Z</time>
      </trkpt>
      <trkpt lat="31.83733" lon="35.004250000000006">
        <ele>310</ele>
        <time>2026-02-27T10:12:38.726Z</time>
      </trkpt>
      <trkpt lat="31.83724" lon="35.00446">
        <ele>310</ele>
        <time>2026-02-27T10:12:39.726Z</time>
      </trkpt>
      <trkpt lat="31.837220000000002" lon="35.00457">
        <ele>310</ele>
        <time>2026-02-27T10:12:40.726Z</time>
      </trkpt>
      <trkpt lat="31.837210000000002" lon="35.00479">
        <ele>310</ele>
        <time>2026-02-27T10:12:41.726Z</time>
      </trkpt>
      <trkpt lat="31.83723" lon="35.00489">
        <ele>310</ele>
        <time>2026-02-27T10:12:42.726Z</time>
      </trkpt>
      <trkpt lat="31.83725" lon="35.004960000000004">
        <ele>310</ele>
        <time>2026-02-27T10:12:43.726Z</time>
      </trkpt>
      <trkpt lat="31.837320000000002" lon="35.00507">
        <ele>309.5</ele>
        <time>2026-02-27T10:12:44.726Z</time>
      </trkpt>
      <trkpt lat="31.837320000000002" lon="35.00507">
        <ele>309.5</ele>
        <time>2026-02-27T10:12:45.726Z</time>
      </trkpt>
      <trkpt lat="31.837360000000004" lon="35.005140000000004">
        <ele>309</ele>
        <time>2026-02-27T10:12:46.726Z</time>
      </trkpt>
      <trkpt lat="31.83789" lon="35.00582">
        <ele>299</ele>
        <time>2026-02-27T10:12:47.726Z</time>
      </trkpt>
      <trkpt lat="31.838050000000003" lon="35.00609">
        <ele>306</ele>
        <time>2026-02-27T10:12:48.726Z</time>
      </trkpt>
      <trkpt lat="31.838220000000003" lon="35.006530000000005">
        <ele>306</ele>
        <time>2026-02-27T10:12:49.726Z</time>
      </trkpt>
      <trkpt lat="31.83827" lon="35.00683">
        <ele>316</ele>
        <time>2026-02-27T10:12:50.726Z</time>
      </trkpt>
      <trkpt lat="31.838230000000003" lon="35.00726">
        <ele>316</ele>
        <time>2026-02-27T10:12:51.726Z</time>
      </trkpt>
      <trkpt lat="31.838140000000003" lon="35.00775">
        <ele>324</ele>
        <time>2026-02-27T10:12:52.726Z</time>
      </trkpt>
      <trkpt lat="31.838050000000003" lon="35.008030000000005">
        <ele>328</ele>
        <time>2026-02-27T10:12:53.726Z</time>
      </trkpt>
      <trkpt lat="31.838050000000003" lon="35.008030000000005">
        <ele>328</ele>
        <time>2026-02-27T10:12:54.726Z</time>
      </trkpt>
      <trkpt lat="31.83771" lon="35.00907">
        <ele>332</ele>
        <time>2026-02-27T10:12:55.726Z</time>
      </trkpt>
      <trkpt lat="31.837450000000004" lon="35.01001">
        <ele>344</ele>
        <time>2026-02-27T10:12:56.726Z</time>
      </trkpt>
      <trkpt lat="31.837400000000002" lon="35.01028">
        <ele>344</ele>
        <time>2026-02-27T10:12:57.726Z</time>
      </trkpt>
      <trkpt lat="31.837380000000003" lon="35.010740000000006">
        <ele>344</ele>
        <time>2026-02-27T10:12:58.726Z</time>
      </trkpt>
      <trkpt lat="31.837300000000003" lon="35.010780000000004">
        <ele>344</ele>
        <time>2026-02-27T10:12:59.726Z</time>
      </trkpt>
      <trkpt lat="31.837300000000003" lon="35.010780000000004">
        <ele>344</ele>
        <time>2026-02-27T10:13:00.726Z</time>
      </trkpt>
      <trkpt lat="31.837380000000003" lon="35.010740000000006">
        <ele>344</ele>
        <time>2026-02-27T10:13:01.726Z</time>
      </trkpt>
      <trkpt lat="31.837580000000003" lon="35.01301">
        <ele>357</ele>
        <time>2026-02-27T10:13:02.726Z</time>
      </trkpt>
      <trkpt lat="31.837650000000004" lon="35.014">
        <ele>365</ele>
        <time>2026-02-27T10:13:03.726Z</time>
      </trkpt>
      <trkpt lat="31.837650000000004" lon="35.014">
        <ele>365</ele>
        <time>2026-02-27T10:13:04.726Z</time>
      </trkpt>
      <trkpt lat="31.83772" lon="35.015150000000006">
        <ele>373</ele>
        <time>2026-02-27T10:13:05.726Z</time>
      </trkpt>
      <trkpt lat="31.837680000000002" lon="35.015750000000004">
        <ele>373</ele>
        <time>2026-02-27T10:13:06.726Z</time>
      </trkpt>
      <trkpt lat="31.837600000000002" lon="35.01603">
        <ele>376</ele>
        <time>2026-02-27T10:13:07.726Z</time>
      </trkpt>
      <trkpt lat="31.83751" lon="35.01599">
        <ele>376</ele>
        <time>2026-02-27T10:13:08.726Z</time>
      </trkpt>
      <trkpt lat="31.83751" lon="35.01599">
        <ele>376</ele>
        <time>2026-02-27T10:13:09.726Z</time>
      </trkpt>
      <trkpt lat="31.837600000000002" lon="35.01603">
        <ele>376</ele>
        <time>2026-02-27T10:13:10.726Z</time>
      </trkpt>
      <trkpt lat="31.837390000000003" lon="35.01646">
        <ele>376</ele>
        <time>2026-02-27T10:13:11.726Z</time>
      </trkpt>
      <trkpt lat="31.837290000000003" lon="35.016630000000006">
        <ele>376</ele>
        <time>2026-02-27T10:13:12.726Z</time>
      </trkpt>
      <trkpt lat="31.837100000000003" lon="35.01688">
        <ele>380</ele>
        <time>2026-02-27T10:13:13.726Z</time>
      </trkpt>
      <trkpt lat="31.837040000000002" lon="35.016960000000005">
        <ele>380</ele>
        <time>2026-02-27T10:13:14.726Z</time>
      </trkpt>
      <trkpt lat="31.836270000000003" lon="35.01764">
        <ele>381</ele>
        <time>2026-02-27T10:13:15.726Z</time>
      </trkpt>
      <trkpt lat="31.83612" lon="35.01784">
        <ele>381</ele>
        <time>2026-02-27T10:13:16.726Z</time>
      </trkpt>
      <trkpt lat="31.835990000000002" lon="35.018100000000004">
        <ele>381</ele>
        <time>2026-02-27T10:13:17.726Z</time>
      </trkpt>
      <trkpt lat="31.835960000000004" lon="35.018240000000006">
        <ele>379.5</ele>
        <time>2026-02-27T10:13:18.726Z</time>
      </trkpt>
      <trkpt lat="31.835960000000004" lon="35.018240000000006">
        <ele>379.5</ele>
        <time>2026-02-27T10:13:19.726Z</time>
      </trkpt>
      <trkpt lat="31.83584" lon="35.018730000000005">
        <ele>378</ele>
        <time>2026-02-27T10:13:20.726Z</time>
      </trkpt>
      <trkpt lat="31.835810000000002" lon="35.01897">
        <ele>378</ele>
        <time>2026-02-27T10:13:21.726Z</time>
      </trkpt>
      <trkpt lat="31.835700000000003" lon="35.01924">
        <ele>378</ele>
        <time>2026-02-27T10:13:22.726Z</time>
      </trkpt>
      <trkpt lat="31.83556" lon="35.01948">
        <ele>378</ele>
        <time>2026-02-27T10:13:23.726Z</time>
      </trkpt>
      <trkpt lat="31.835400000000003" lon="35.019650000000006">
        <ele>378</ele>
        <time>2026-02-27T10:13:24.726Z</time>
      </trkpt>
      <trkpt lat="31.834850000000003" lon="35.01999">
        <ele>382.5</ele>
        <time>2026-02-27T10:13:25.726Z</time>
      </trkpt>
      <trkpt lat="31.834850000000003" lon="35.01999">
        <ele>382.5</ele>
        <time>2026-02-27T10:13:26.726Z</time>
      </trkpt>
      <trkpt lat="31.834500000000002" lon="35.02024">
        <ele>387</ele>
        <time>2026-02-27T10:13:27.726Z</time>
      </trkpt>
      <trkpt lat="31.834300000000002" lon="35.02046">
        <ele>387</ele>
        <time>2026-02-27T10:13:28.726Z</time>
      </trkpt>
      <trkpt lat="31.834130000000002" lon="35.02074">
        <ele>393</ele>
        <time>2026-02-27T10:13:29.726Z</time>
      </trkpt>
      <trkpt lat="31.83404" lon="35.02091">
        <ele>396</ele>
        <time>2026-02-27T10:13:30.726Z</time>
      </trkpt>
      <trkpt lat="31.833980000000004" lon="35.02109">
        <ele>396</ele>
        <time>2026-02-27T10:13:31.726Z</time>
      </trkpt>
      <trkpt lat="31.833980000000004" lon="35.02109">
        <ele>396</ele>
        <time>2026-02-27T10:13:32.726Z</time>
      </trkpt>
      <trkpt lat="31.833920000000003" lon="35.021240000000006">
        <ele>396</ele>
        <time>2026-02-27T10:13:33.726Z</time>
      </trkpt>
      <trkpt lat="31.833820000000003" lon="35.02185">
        <ele>393</ele>
        <time>2026-02-27T10:13:34.726Z</time>
      </trkpt>
      <trkpt lat="31.833650000000002" lon="35.02322">
        <ele>394</ele>
        <time>2026-02-27T10:13:35.726Z</time>
      </trkpt>
      <trkpt lat="31.833540000000003" lon="35.023410000000005">
        <ele>394</ele>
        <time>2026-02-27T10:13:36.726Z</time>
      </trkpt>
      <trkpt lat="31.833440000000003" lon="35.02346">
        <ele>390</ele>
        <time>2026-02-27T10:13:37.726Z</time>
      </trkpt>
      <trkpt lat="31.833350000000003" lon="35.02371">
        <ele>390</ele>
        <time>2026-02-27T10:13:38.726Z</time>
      </trkpt>
      <trkpt lat="31.833260000000003" lon="35.02404">
        <ele>390</ele>
        <time>2026-02-27T10:13:39.726Z</time>
      </trkpt>
      <trkpt lat="31.833280000000002" lon="35.0242">
        <ele>392</ele>
        <time>2026-02-27T10:13:40.726Z</time>
      </trkpt>
      <trkpt lat="31.833280000000002" lon="35.0242">
        <ele>392</ele>
        <time>2026-02-27T10:13:41.726Z</time>
      </trkpt>
      <trkpt lat="31.8333" lon="35.02432">
        <ele>394</ele>
        <time>2026-02-27T10:13:42.726Z</time>
      </trkpt>
      <trkpt lat="31.833270000000002" lon="35.02441">
        <ele>394</ele>
        <time>2026-02-27T10:13:43.726Z</time>
      </trkpt>
      <trkpt lat="31.833170000000003" lon="35.024480000000004">
        <ele>394</ele>
        <time>2026-02-27T10:13:44.726Z</time>
      </trkpt>
      <trkpt lat="31.832770000000004" lon="35.024530000000006">
        <ele>394</ele>
        <time>2026-02-27T10:13:45.726Z</time>
      </trkpt>
      <trkpt lat="31.832680000000003" lon="35.024570000000004">
        <ele>394</ele>
        <time>2026-02-27T10:13:46.726Z</time>
      </trkpt>
      <trkpt lat="31.832530000000002" lon="35.0247">
        <ele>394</ele>
        <time>2026-02-27T10:13:47.726Z</time>
      </trkpt>
      <trkpt lat="31.83245" lon="35.02478">
        <ele>394</ele>
        <time>2026-02-27T10:13:48.726Z</time>
      </trkpt>
      <trkpt lat="31.83245" lon="35.02478">
        <ele>394</ele>
        <time>2026-02-27T10:13:49.726Z</time>
      </trkpt>
      <trkpt lat="31.832300000000004" lon="35.02496">
        <ele>394</ele>
        <time>2026-02-27T10:13:50.726Z</time>
      </trkpt>
      <trkpt lat="31.83207" lon="35.02537">
        <ele>394</ele>
        <time>2026-02-27T10:13:51.726Z</time>
      </trkpt>
      <trkpt lat="31.831970000000002" lon="35.025580000000005">
        <ele>394</ele>
        <time>2026-02-27T10:13:52.726Z</time>
      </trkpt>
      <trkpt lat="31.83188" lon="35.025580000000005">
        <ele>394</ele>
        <time>2026-02-27T10:13:53.726Z</time>
      </trkpt>
      <trkpt lat="31.831830000000004" lon="35.02553">
        <ele>389.5</ele>
        <time>2026-02-27T10:13:54.726Z</time>
      </trkpt>
      <trkpt lat="31.831830000000004" lon="35.02553">
        <ele>389.5</ele>
        <time>2026-02-27T10:13:55.726Z</time>
      </trkpt>
      <trkpt lat="31.831780000000002" lon="35.02544">
        <ele>385</ele>
        <time>2026-02-27T10:13:56.726Z</time>
      </trkpt>
      <trkpt lat="31.831720000000004" lon="35.025220000000004">
        <ele>385</ele>
        <time>2026-02-27T10:13:57.726Z</time>
      </trkpt>
      <trkpt lat="31.831530000000004" lon="35.024890000000006">
        <ele>389</ele>
        <time>2026-02-27T10:13:58.726Z</time>
      </trkpt>
      <trkpt lat="31.83152" lon="35.024770000000004">
        <ele>389</ele>
        <time>2026-02-27T10:13:59.726Z</time>
      </trkpt>
      <trkpt lat="31.831530000000004" lon="35.024640000000005">
        <ele>389</ele>
        <time>2026-02-27T10:14:00.726Z</time>
      </trkpt>
      <trkpt lat="31.831580000000002" lon="35.02429">
        <ele>389</ele>
        <time>2026-02-27T10:14:01.726Z</time>
      </trkpt>
      <trkpt lat="31.831550000000004" lon="35.023990000000005">
        <ele>388.5</ele>
        <time>2026-02-27T10:14:02.726Z</time>
      </trkpt>
      <trkpt lat="31.831550000000004" lon="35.023990000000005">
        <ele>388.5</ele>
        <time>2026-02-27T10:14:03.726Z</time>
      </trkpt>
      <trkpt lat="31.83151" lon="35.02371">
        <ele>388</ele>
        <time>2026-02-27T10:14:04.726Z</time>
      </trkpt>
      <trkpt lat="31.831490000000002" lon="35.02364">
        <ele>388</ele>
        <time>2026-02-27T10:14:05.726Z</time>
      </trkpt>
      <trkpt lat="31.831390000000003" lon="35.023480000000006">
        <ele>388</ele>
        <time>2026-02-27T10:14:06.726Z</time>
      </trkpt>
      <trkpt lat="31.831310000000002" lon="35.023300000000006">
        <ele>386</ele>
        <time>2026-02-27T10:14:07.726Z</time>
      </trkpt>
      <trkpt lat="31.831070000000004" lon="35.023">
        <ele>386</ele>
        <time>2026-02-27T10:14:08.726Z</time>
      </trkpt>
      <trkpt lat="31.831070000000004" lon="35.023">
        <ele>386</ele>
        <time>2026-02-27T10:14:09.726Z</time>
      </trkpt>
      <trkpt lat="31.831010000000003" lon="35.02293">
        <ele>386</ele>
        <time>2026-02-27T10:14:10.726Z</time>
      </trkpt>
      <trkpt lat="31.83096" lon="35.02279">
        <ele>371</ele>
        <time>2026-02-27T10:14:11.726Z</time>
      </trkpt>
      <trkpt lat="31.83086" lon="35.022400000000005">
        <ele>369</ele>
        <time>2026-02-27T10:14:12.726Z</time>
      </trkpt>
      <trkpt lat="31.830510000000004" lon="35.0216">
        <ele>363</ele>
        <time>2026-02-27T10:14:13.726Z</time>
      </trkpt>
      <trkpt lat="31.83049" lon="35.02147">
        <ele>363</ele>
        <time>2026-02-27T10:14:14.726Z</time>
      </trkpt>
      <trkpt lat="31.83049" lon="35.02147">
        <ele>363</ele>
        <time>2026-02-27T10:14:15.726Z</time>
      </trkpt>
      <trkpt lat="31.830450000000003" lon="35.0212">
        <ele>363</ele>
        <time>2026-02-27T10:14:16.726Z</time>
      </trkpt>
      <trkpt lat="31.830530000000003" lon="35.020970000000005">
        <ele>363</ele>
        <time>2026-02-27T10:14:17.726Z</time>
      </trkpt>
      <trkpt lat="31.830450000000003" lon="35.02065">
        <ele>346</ele>
        <time>2026-02-27T10:14:18.726Z</time>
      </trkpt>
      <trkpt lat="31.830460000000002" lon="35.02049">
        <ele>340.5</ele>
        <time>2026-02-27T10:14:19.726Z</time>
      </trkpt>
      <trkpt lat="31.830460000000002" lon="35.02049">
        <ele>340.5</ele>
        <time>2026-02-27T10:14:20.726Z</time>
      </trkpt>
      <trkpt lat="31.83048" lon="35.019890000000004">
        <ele>335</ele>
        <time>2026-02-27T10:14:21.726Z</time>
      </trkpt>
      <trkpt lat="31.83077" lon="35.019760000000005">
        <ele>335</ele>
        <time>2026-02-27T10:14:22.726Z</time>
      </trkpt>
      <trkpt lat="31.830980000000004" lon="35.01975">
        <ele>353</ele>
        <time>2026-02-27T10:14:23.726Z</time>
      </trkpt>
      <trkpt lat="31.831280000000003" lon="35.01995">
        <ele>353</ele>
        <time>2026-02-27T10:14:24.726Z</time>
      </trkpt>
      <trkpt lat="31.831560000000003" lon="35.0202">
        <ele>353</ele>
        <time>2026-02-27T10:14:25.726Z</time>
      </trkpt>
      <trkpt lat="31.831840000000003" lon="35.02049">
        <ele>371</ele>
        <time>2026-02-27T10:14:26.726Z</time>
      </trkpt>
      <trkpt lat="31.831910000000004" lon="35.020540000000004">
        <ele>371</ele>
        <time>2026-02-27T10:14:27.726Z</time>
      </trkpt>
      <trkpt lat="31.831910000000004" lon="35.020540000000004">
        <ele>371</ele>
        <time>2026-02-27T10:14:28.726Z</time>
      </trkpt>
      <trkpt lat="31.83207" lon="35.02066">
        <ele>371</ele>
        <time>2026-02-27T10:14:29.726Z</time>
      </trkpt>
      <trkpt lat="31.832250000000002" lon="35.020720000000004">
        <ele>371</ele>
        <time>2026-02-27T10:14:30.726Z</time>
      </trkpt>
      <trkpt lat="31.832420000000003" lon="35.020830000000004">
        <ele>364</ele>
        <time>2026-02-27T10:14:31.726Z</time>
      </trkpt>
      <trkpt lat="31.83188" lon="35.020250000000004">
        <ele>371</ele>
        <time>2026-02-27T10:14:32.726Z</time>
      </trkpt>
      <trkpt lat="31.83132" lon="35.019740000000006">
        <ele>353</ele>
        <time>2026-02-27T10:14:33.726Z</time>
      </trkpt>
      <trkpt lat="31.831000000000003" lon="35.019540000000006">
        <ele>353</ele>
        <time>2026-02-27T10:14:34.726Z</time>
      </trkpt>
      <trkpt lat="31.830780000000004" lon="35.01943">
        <ele>335</ele>
        <time>2026-02-27T10:14:35.726Z</time>
      </trkpt>
      <trkpt lat="31.83049" lon="35.01934">
        <ele>335</ele>
        <time>2026-02-27T10:14:36.726Z</time>
      </trkpt>
      <trkpt lat="31.83019" lon="35.01932">
        <ele>335</ele>
        <time>2026-02-27T10:14:37.726Z</time>
      </trkpt>
      <trkpt lat="31.829680000000003" lon="35.01939">
        <ele>324</ele>
        <time>2026-02-27T10:14:38.726Z</time>
      </trkpt>
      <trkpt lat="31.829680000000003" lon="35.01939">
        <ele>324</ele>
        <time>2026-02-27T10:14:39.726Z</time>
      </trkpt>
      <trkpt lat="31.829470000000004" lon="35.019400000000005">
        <ele>324</ele>
        <time>2026-02-27T10:14:40.726Z</time>
      </trkpt>
      <trkpt lat="31.829030000000003" lon="35.01935">
        <ele>314</ele>
        <time>2026-02-27T10:14:41.726Z</time>
      </trkpt>
      <trkpt lat="31.82852" lon="35.019270000000006">
        <ele>314</ele>
        <time>2026-02-27T10:14:42.726Z</time>
      </trkpt>
      <trkpt lat="31.82832" lon="35.019490000000005">
        <ele>311</ele>
        <time>2026-02-27T10:14:43.726Z</time>
      </trkpt>
      <trkpt lat="31.82832" lon="35.019490000000005">
        <ele>311</ele>
        <time>2026-02-27T10:14:44.726Z</time>
      </trkpt>
      <trkpt lat="31.828280000000003" lon="35.01953">
        <ele>308</ele>
        <time>2026-02-27T10:14:45.726Z</time>
      </trkpt>
      <trkpt lat="31.828180000000003" lon="35.0197">
        <ele>308</ele>
        <time>2026-02-27T10:14:46.726Z</time>
      </trkpt>
      <trkpt lat="31.82813" lon="35.01986">
        <ele>308</ele>
        <time>2026-02-27T10:14:47.726Z</time>
      </trkpt>
      <trkpt lat="31.828070000000004" lon="35.02037">
        <ele>313</ele>
        <time>2026-02-27T10:14:48.726Z</time>
      </trkpt>
      <trkpt lat="31.827990000000003" lon="35.02138">
        <ele>313</ele>
        <time>2026-02-27T10:14:49.726Z</time>
      </trkpt>
      <trkpt lat="31.82796" lon="35.02161">
        <ele>313</ele>
        <time>2026-02-27T10:14:50.726Z</time>
      </trkpt>
      <trkpt lat="31.827890000000004" lon="35.02194">
        <ele>319</ele>
        <time>2026-02-27T10:14:51.726Z</time>
      </trkpt>
      <trkpt lat="31.827830000000002" lon="35.02212">
        <ele>319</ele>
        <time>2026-02-27T10:14:52.726Z</time>
      </trkpt>
      <trkpt lat="31.827740000000002" lon="35.022310000000004">
        <ele>319</ele>
        <time>2026-02-27T10:14:53.726Z</time>
      </trkpt>
      <trkpt lat="31.827600000000004" lon="35.02252">
        <ele>331</ele>
        <time>2026-02-27T10:14:54.726Z</time>
      </trkpt>
      <trkpt lat="31.827240000000003" lon="35.022940000000006">
        <ele>331</ele>
        <time>2026-02-27T10:14:55.726Z</time>
      </trkpt>
      <trkpt lat="31.827140000000004" lon="35.023120000000006">
        <ele>331</ele>
        <time>2026-02-27T10:14:56.726Z</time>
      </trkpt>
      <trkpt lat="31.827090000000002" lon="35.02324">
        <ele>331</ele>
        <time>2026-02-27T10:14:57.726Z</time>
      </trkpt>
      <trkpt lat="31.827040000000004" lon="35.02346">
        <ele>328</ele>
        <time>2026-02-27T10:14:58.726Z</time>
      </trkpt>
      <trkpt lat="31.82702" lon="35.02364">
        <ele>328</ele>
        <time>2026-02-27T10:14:59.726Z</time>
      </trkpt>
      <trkpt lat="31.827040000000004" lon="35.02376">
        <ele>328</ele>
        <time>2026-02-27T10:15:00.726Z</time>
      </trkpt>
      <trkpt lat="31.827090000000002" lon="35.02391">
        <ele>328</ele>
        <time>2026-02-27T10:15:01.726Z</time>
      </trkpt>
      <trkpt lat="31.82693" lon="35.02387">
        <ele>328</ele>
        <time>2026-02-27T10:15:02.726Z</time>
      </trkpt>
      <trkpt lat="31.826900000000002" lon="35.023900000000005">
        <ele>333.5</ele>
        <time>2026-02-27T10:15:03.726Z</time>
      </trkpt>
      <trkpt lat="31.826900000000002" lon="35.023900000000005">
        <ele>333.5</ele>
        <time>2026-02-27T10:15:04.726Z</time>
      </trkpt>
      <trkpt lat="31.826750000000004" lon="35.02412">
        <ele>339</ele>
        <time>2026-02-27T10:15:05.726Z</time>
      </trkpt>
      <trkpt lat="31.826600000000003" lon="35.02409">
        <ele>339</ele>
        <time>2026-02-27T10:15:06.726Z</time>
      </trkpt>
      <trkpt lat="31.82644" lon="35.024">
        <ele>339</ele>
        <time>2026-02-27T10:15:07.726Z</time>
      </trkpt>
      <trkpt lat="31.826390000000004" lon="35.02389">
        <ele>339</ele>
        <time>2026-02-27T10:15:08.726Z</time>
      </trkpt>
      <trkpt lat="31.826390000000004" lon="35.02389">
        <ele>339</ele>
        <time>2026-02-27T10:15:09.726Z</time>
      </trkpt>
      <trkpt lat="31.82636" lon="35.023830000000004">
        <ele>339</ele>
        <time>2026-02-27T10:15:10.726Z</time>
      </trkpt>
      <trkpt lat="31.82625" lon="35.02328">
        <ele>337</ele>
        <time>2026-02-27T10:15:11.726Z</time>
      </trkpt>
      <trkpt lat="31.826300000000003" lon="35.02306">
        <ele>337</ele>
        <time>2026-02-27T10:15:12.726Z</time>
      </trkpt>
      <trkpt lat="31.826480000000004" lon="35.022870000000005">
        <ele>337</ele>
        <time>2026-02-27T10:15:13.726Z</time>
      </trkpt>
      <trkpt lat="31.82674" lon="35.02266">
        <ele>337</ele>
        <time>2026-02-27T10:15:14.726Z</time>
      </trkpt>
      <trkpt lat="31.826800000000002" lon="35.022400000000005">
        <ele>339</ele>
        <time>2026-02-27T10:15:15.726Z</time>
      </trkpt>
      <trkpt lat="31.826760000000004" lon="35.02212">
        <ele>339</ele>
        <time>2026-02-27T10:15:16.726Z</time>
      </trkpt>
      <trkpt lat="31.826660000000004" lon="35.02188">
        <ele>339</ele>
        <time>2026-02-27T10:15:17.726Z</time>
      </trkpt>
      <trkpt lat="31.82655" lon="35.02167">
        <ele>339</ele>
        <time>2026-02-27T10:15:18.726Z</time>
      </trkpt>
      <trkpt lat="31.82644" lon="35.021640000000005">
        <ele>339</ele>
        <time>2026-02-27T10:15:19.726Z</time>
      </trkpt>
      <trkpt lat="31.826340000000002" lon="35.021730000000005">
        <ele>339</ele>
        <time>2026-02-27T10:15:20.726Z</time>
      </trkpt>
      <trkpt lat="31.826340000000002" lon="35.021730000000005">
        <ele>339</ele>
        <time>2026-02-27T10:15:21.726Z</time>
      </trkpt>
      <trkpt lat="31.82644" lon="35.021640000000005">
        <ele>339</ele>
        <time>2026-02-27T10:15:22.726Z</time>
      </trkpt>
      <trkpt lat="31.826330000000002" lon="35.021530000000006">
        <ele>339</ele>
        <time>2026-02-27T10:15:23.726Z</time>
      </trkpt>
      <trkpt lat="31.826290000000004" lon="35.02127">
        <ele>339</ele>
        <time>2026-02-27T10:15:24.726Z</time>
      </trkpt>
      <trkpt lat="31.826240000000002" lon="35.02116">
        <ele>339</ele>
        <time>2026-02-27T10:15:25.726Z</time>
      </trkpt>
      <trkpt lat="31.826240000000002" lon="35.021080000000005">
        <ele>339</ele>
        <time>2026-02-27T10:15:26.726Z</time>
      </trkpt>
      <trkpt lat="31.826490000000003" lon="35.02065">
        <ele>330</ele>
        <time>2026-02-27T10:15:27.726Z</time>
      </trkpt>
      <trkpt lat="31.826560000000004" lon="35.020410000000005">
        <ele>330</ele>
        <time>2026-02-27T10:15:28.726Z</time>
      </trkpt>
      <trkpt lat="31.826610000000002" lon="35.020300000000006">
        <ele>330</ele>
        <time>2026-02-27T10:15:29.726Z</time>
      </trkpt>
      <trkpt lat="31.826750000000004" lon="35.0201">
        <ele>330</ele>
        <time>2026-02-27T10:15:30.726Z</time>
      </trkpt>
      <trkpt lat="31.826840000000004" lon="35.01991">
        <ele>320</ele>
        <time>2026-02-27T10:15:31.726Z</time>
      </trkpt>
      <trkpt lat="31.82702" lon="35.01944">
        <ele>320</ele>
        <time>2026-02-27T10:15:32.726Z</time>
      </trkpt>
      <trkpt lat="31.827030000000004" lon="35.019380000000005">
        <ele>320</ele>
        <time>2026-02-27T10:15:33.726Z</time>
      </trkpt>
      <trkpt lat="31.827030000000004" lon="35.019380000000005">
        <ele>320</ele>
        <time>2026-02-27T10:15:34.726Z</time>
      </trkpt>
      <trkpt lat="31.827080000000002" lon="35.01915">
        <ele>316</ele>
        <time>2026-02-27T10:15:35.726Z</time>
      </trkpt>
      <trkpt lat="31.827080000000002" lon="35.019020000000005">
        <ele>316</ele>
        <time>2026-02-27T10:15:36.726Z</time>
      </trkpt>
      <trkpt lat="31.827040000000004" lon="35.01894">
        <ele>316</ele>
        <time>2026-02-27T10:15:37.726Z</time>
      </trkpt>
      <trkpt lat="31.826840000000004" lon="35.018840000000004">
        <ele>316</ele>
        <time>2026-02-27T10:15:38.726Z</time>
      </trkpt>
      <trkpt lat="31.82683" lon="35.01874">
        <ele>316</ele>
        <time>2026-02-27T10:15:39.726Z</time>
      </trkpt>
      <trkpt lat="31.82683" lon="35.01874">
        <ele>316</ele>
        <time>2026-02-27T10:15:40.726Z</time>
      </trkpt>
      <trkpt lat="31.826810000000002" lon="35.01845">
        <ele>316</ele>
        <time>2026-02-27T10:15:41.726Z</time>
      </trkpt>
      <trkpt lat="31.826850000000004" lon="35.01802">
        <ele>311</ele>
        <time>2026-02-27T10:15:42.726Z</time>
      </trkpt>
      <trkpt lat="31.826840000000004" lon="35.01782">
        <ele>311</ele>
        <time>2026-02-27T10:15:43.726Z</time>
      </trkpt>
      <trkpt lat="31.826970000000003" lon="35.01756">
        <ele>311</ele>
        <time>2026-02-27T10:15:44.726Z</time>
      </trkpt>
      <trkpt lat="31.826990000000002" lon="35.017410000000005">
        <ele>297</ele>
        <time>2026-02-27T10:15:45.726Z</time>
      </trkpt>
      <trkpt lat="31.826960000000003" lon="35.017160000000004">
        <ele>297</ele>
        <time>2026-02-27T10:15:46.726Z</time>
      </trkpt>
      <trkpt lat="31.827090000000002" lon="35.0168">
        <ele>297</ele>
        <time>2026-02-27T10:15:47.726Z</time>
      </trkpt>
      <trkpt lat="31.82719" lon="35.01659">
        <ele>291</ele>
        <time>2026-02-27T10:15:48.726Z</time>
      </trkpt>
      <trkpt lat="31.82719" lon="35.01659">
        <ele>291</ele>
        <time>2026-02-27T10:15:49.726Z</time>
      </trkpt>
      <trkpt lat="31.827270000000002" lon="35.01644">
        <ele>285</ele>
        <time>2026-02-27T10:15:50.726Z</time>
      </trkpt>
      <trkpt lat="31.82749" lon="35.016600000000004">
        <ele>285</ele>
        <time>2026-02-27T10:15:51.726Z</time>
      </trkpt>
      <trkpt lat="31.827700000000004" lon="35.016690000000004">
        <ele>297</ele>
        <time>2026-02-27T10:15:52.726Z</time>
      </trkpt>
      <trkpt lat="31.827970000000004" lon="35.01675">
        <ele>297</ele>
        <time>2026-02-27T10:15:53.726Z</time>
      </trkpt>
      <trkpt lat="31.828010000000003" lon="35.01677">
        <ele>297</ele>
        <time>2026-02-27T10:15:54.726Z</time>
      </trkpt>
      <trkpt lat="31.828010000000003" lon="35.01677">
        <ele>297</ele>
        <time>2026-02-27T10:15:55.726Z</time>
      </trkpt>
      <trkpt lat="31.828100000000003" lon="35.01681">
        <ele>297</ele>
        <time>2026-02-27T10:15:56.726Z</time>
      </trkpt>
      <trkpt lat="31.828170000000004" lon="35.016690000000004">
        <ele>297</ele>
        <time>2026-02-27T10:15:57.726Z</time>
      </trkpt>
      <trkpt lat="31.828380000000003" lon="35.01657">
        <ele>296</ele>
        <time>2026-02-27T10:15:58.726Z</time>
      </trkpt>
      <trkpt lat="31.828440000000004" lon="35.0165">
        <ele>296</ele>
        <time>2026-02-27T10:15:59.726Z</time>
      </trkpt>
      <trkpt lat="31.828470000000003" lon="35.01639">
        <ele>296</ele>
        <time>2026-02-27T10:16:00.726Z</time>
      </trkpt>
      <trkpt lat="31.828470000000003" lon="35.01574">
        <ele>296</ele>
        <time>2026-02-27T10:16:01.726Z</time>
      </trkpt>
      <trkpt lat="31.828470000000003" lon="35.01574">
        <ele>296</ele>
        <time>2026-02-27T10:16:02.726Z</time>
      </trkpt>
      <trkpt lat="31.828470000000003" lon="35.01559">
        <ele>296</ele>
        <time>2026-02-27T10:16:03.726Z</time>
      </trkpt>
      <trkpt lat="31.828440000000004" lon="35.014390000000006">
        <ele>297</ele>
        <time>2026-02-27T10:16:04.726Z</time>
      </trkpt>
      <trkpt lat="31.828460000000003" lon="35.01413">
        <ele>305</ele>
        <time>2026-02-27T10:16:05.726Z</time>
      </trkpt>
      <trkpt lat="31.828260000000004" lon="35.013560000000005">
        <ele>305</ele>
        <time>2026-02-27T10:16:06.726Z</time>
      </trkpt>
      <trkpt lat="31.828250000000004" lon="35.01335">
        <ele>308.5</ele>
        <time>2026-02-27T10:16:07.726Z</time>
      </trkpt>
      <trkpt lat="31.828250000000004" lon="35.01335">
        <ele>308.5</ele>
        <time>2026-02-27T10:16:08.726Z</time>
      </trkpt>
      <trkpt lat="31.82824" lon="35.01328">
        <ele>312</ele>
        <time>2026-02-27T10:16:09.726Z</time>
      </trkpt>
      <trkpt lat="31.828500000000002" lon="35.01276">
        <ele>327</ele>
        <time>2026-02-27T10:16:10.726Z</time>
      </trkpt>
      <trkpt lat="31.828940000000003" lon="35.01214">
        <ele>326</ele>
        <time>2026-02-27T10:16:11.726Z</time>
      </trkpt>
      <trkpt lat="31.829060000000002" lon="35.01192">
        <ele>326</ele>
        <time>2026-02-27T10:16:12.726Z</time>
      </trkpt>
      <trkpt lat="31.829230000000003" lon="35.01155">
        <ele>327</ele>
        <time>2026-02-27T10:16:13.726Z</time>
      </trkpt>
      <trkpt lat="31.829430000000002" lon="35.011300000000006">
        <ele>344</ele>
        <time>2026-02-27T10:16:14.726Z</time>
      </trkpt>
      <trkpt lat="31.82946" lon="35.011210000000005">
        <ele>344</ele>
        <time>2026-02-27T10:16:15.726Z</time>
      </trkpt>
      <trkpt lat="31.82946" lon="35.011210000000005">
        <ele>344</ele>
        <time>2026-02-27T10:16:16.726Z</time>
      </trkpt>
      <trkpt lat="31.829490000000003" lon="35.01115">
        <ele>344</ele>
        <time>2026-02-27T10:16:17.726Z</time>
      </trkpt>
      <trkpt lat="31.829500000000003" lon="35.01098">
        <ele>344</ele>
        <time>2026-02-27T10:16:18.726Z</time>
      </trkpt>
      <trkpt lat="31.829480000000004" lon="35.010850000000005">
        <ele>344</ele>
        <time>2026-02-27T10:16:19.726Z</time>
      </trkpt>
      <trkpt lat="31.829330000000002" lon="35.010290000000005">
        <ele>343</ele>
        <time>2026-02-27T10:16:20.726Z</time>
      </trkpt>
      <trkpt lat="31.829280000000004" lon="35.009910000000005">
        <ele>322</ele>
        <time>2026-02-27T10:16:21.726Z</time>
      </trkpt>
      <trkpt lat="31.82927" lon="35.009570000000004">
        <ele>322</ele>
        <time>2026-02-27T10:16:22.726Z</time>
      </trkpt>
      <trkpt lat="31.829300000000003" lon="35.009080000000004">
        <ele>324.5</ele>
        <time>2026-02-27T10:16:23.726Z</time>
      </trkpt>
      <trkpt lat="31.829300000000003" lon="35.009080000000004">
        <ele>324.5</ele>
        <time>2026-02-27T10:16:24.726Z</time>
      </trkpt>
      <trkpt lat="31.829310000000003" lon="35.00885">
        <ele>327</ele>
        <time>2026-02-27T10:16:25.726Z</time>
      </trkpt>
      <trkpt lat="31.82936" lon="35.00851">
        <ele>327</ele>
        <time>2026-02-27T10:16:26.726Z</time>
      </trkpt>
      <trkpt lat="31.82937" lon="35.008300000000006">
        <ele>318</ele>
        <time>2026-02-27T10:16:27.726Z</time>
      </trkpt>
      <trkpt lat="31.829330000000002" lon="35.008050000000004">
        <ele>318</ele>
        <time>2026-02-27T10:16:28.726Z</time>
      </trkpt>
      <trkpt lat="31.829240000000002" lon="35.00773">
        <ele>306</ele>
        <time>2026-02-27T10:16:29.726Z</time>
      </trkpt>
      <trkpt lat="31.829230000000003" lon="35.007630000000006">
        <ele>306</ele>
        <time>2026-02-27T10:16:30.726Z</time>
      </trkpt>
      <trkpt lat="31.829230000000003" lon="35.007630000000006">
        <ele>306</ele>
        <time>2026-02-27T10:16:31.726Z</time>
      </trkpt>
      <trkpt lat="31.829250000000002" lon="35.007560000000005">
        <ele>306</ele>
        <time>2026-02-27T10:16:32.726Z</time>
      </trkpt>
      <trkpt lat="31.829320000000003" lon="35.00746">
        <ele>309</ele>
        <time>2026-02-27T10:16:33.726Z</time>
      </trkpt>
      <trkpt lat="31.829470000000004" lon="35.00735">
        <ele>309</ele>
        <time>2026-02-27T10:16:34.726Z</time>
      </trkpt>
      <trkpt lat="31.829580000000004" lon="35.00724">
        <ele>309</ele>
        <time>2026-02-27T10:16:35.726Z</time>
      </trkpt>
      <trkpt lat="31.82974" lon="35.00696">
        <ele>309</ele>
        <time>2026-02-27T10:16:36.726Z</time>
      </trkpt>
      <trkpt lat="31.82991" lon="35.00658">
        <ele>296</ele>
        <time>2026-02-27T10:16:37.726Z</time>
      </trkpt>
      <trkpt lat="31.82991" lon="35.00658">
        <ele>296</ele>
        <time>2026-02-27T10:16:38.726Z</time>
      </trkpt>
      <trkpt lat="31.83012" lon="35.00591">
        <ele>296</ele>
        <time>2026-02-27T10:16:39.726Z</time>
      </trkpt>
      <trkpt lat="31.830160000000003" lon="35.005840000000006">
        <ele>300</ele>
        <time>2026-02-27T10:16:40.726Z</time>
      </trkpt>
      <trkpt lat="31.830230000000004" lon="35.00574">
        <ele>287</ele>
        <time>2026-02-27T10:16:41.726Z</time>
      </trkpt>
      <trkpt lat="31.83029" lon="35.005700000000004">
        <ele>287</ele>
        <time>2026-02-27T10:16:42.726Z</time>
      </trkpt>
      <trkpt lat="31.830430000000003" lon="35.00564">
        <ele>287</ele>
        <time>2026-02-27T10:16:43.726Z</time>
      </trkpt>
      <trkpt lat="31.830790000000004" lon="35.005660000000006">
        <ele>287</ele>
        <time>2026-02-27T10:16:44.726Z</time>
      </trkpt>
      <trkpt lat="31.830790000000004" lon="35.005660000000006">
        <ele>287</ele>
        <time>2026-02-27T10:16:45.726Z</time>
      </trkpt>
      <trkpt lat="31.83086" lon="35.00565">
        <ele>287</ele>
        <time>2026-02-27T10:16:46.726Z</time>
      </trkpt>
      <trkpt lat="31.830880000000004" lon="35.00562">
        <ele>287</ele>
        <time>2026-02-27T10:16:47.726Z</time>
      </trkpt>
      <trkpt lat="31.830910000000003" lon="35.00554">
        <ele>287</ele>
        <time>2026-02-27T10:16:48.726Z</time>
      </trkpt>
      <trkpt lat="31.83085" lon="35.00526">
        <ele>287</ele>
        <time>2026-02-27T10:16:49.726Z</time>
      </trkpt>
      <trkpt lat="31.83085" lon="35.00526">
        <ele>287</ele>
        <time>2026-02-27T10:16:50.726Z</time>
      </trkpt>
      <trkpt lat="31.83087" lon="35.00522">
        <ele>287</ele>
        <time>2026-02-27T10:16:51.726Z</time>
      </trkpt>
      <trkpt lat="31.830900000000003" lon="35.0052">
        <ele>287</ele>
        <time>2026-02-27T10:16:52.726Z</time>
      </trkpt>
      <trkpt lat="31.830970000000004" lon="35.005210000000005">
        <ele>287</ele>
        <time>2026-02-27T10:16:53.726Z</time>
      </trkpt>
      <trkpt lat="31.831270000000004" lon="35.00544">
        <ele>278</ele>
        <time>2026-02-27T10:16:54.726Z</time>
      </trkpt>
      <trkpt lat="31.83134" lon="35.00546">
        <ele>278</ele>
        <time>2026-02-27T10:16:55.726Z</time>
      </trkpt>
      <trkpt lat="31.831380000000003" lon="35.00545">
        <ele>278</ele>
        <time>2026-02-27T10:16:56.726Z</time>
      </trkpt>
      <trkpt lat="31.831380000000003" lon="35.00545">
        <ele>278</ele>
        <time>2026-02-27T10:16:57.726Z</time>
      </trkpt>
      <trkpt lat="31.831460000000003" lon="35.00538">
        <ele>278</ele>
        <time>2026-02-27T10:16:58.726Z</time>
      </trkpt>
      <trkpt lat="31.831490000000002" lon="35.005210000000005">
        <ele>278</ele>
        <time>2026-02-27T10:16:59.726Z</time>
      </trkpt>
      <trkpt lat="31.831490000000002" lon="35.005">
        <ele>278</ele>
        <time>2026-02-27T10:17:00.726Z</time>
      </trkpt>
      <trkpt lat="31.83152" lon="35.00466">
        <ele>270</ele>
        <time>2026-02-27T10:17:01.726Z</time>
      </trkpt>
      <trkpt lat="31.831480000000003" lon="35.004540000000006">
        <ele>270</ele>
        <time>2026-02-27T10:17:02.726Z</time>
      </trkpt>
      <trkpt lat="31.831270000000004" lon="35.004200000000004">
        <ele>270</ele>
        <time>2026-02-27T10:17:03.726Z</time>
      </trkpt>
      <trkpt lat="31.831250000000004" lon="35.00408">
        <ele>272</ele>
        <time>2026-02-27T10:17:04.726Z</time>
      </trkpt>
      <trkpt lat="31.83123" lon="35.004020000000004">
        <ele>272</ele>
        <time>2026-02-27T10:17:05.726Z</time>
      </trkpt>
      <trkpt lat="31.83123" lon="35.004020000000004">
        <ele>272</ele>
        <time>2026-02-27T10:17:06.726Z</time>
      </trkpt>
      <trkpt lat="31.831250000000004" lon="35.00408">
        <ele>272</ele>
        <time>2026-02-27T10:17:07.726Z</time>
      </trkpt>
      <trkpt lat="31.831290000000003" lon="35.00403">
        <ele>272</ele>
        <time>2026-02-27T10:17:08.726Z</time>
      </trkpt>
      <trkpt lat="31.83133" lon="35.00401">
        <ele>272</ele>
        <time>2026-02-27T10:17:09.726Z</time>
      </trkpt>
      <trkpt lat="31.83143" lon="35.004070000000006">
        <ele>272</ele>
        <time>2026-02-27T10:17:10.726Z</time>
      </trkpt>
      <trkpt lat="31.8316" lon="35.0043">
        <ele>270</ele>
        <time>2026-02-27T10:17:11.726Z</time>
      </trkpt>
      <trkpt lat="31.831690000000002" lon="35.00448">
        <ele>270</ele>
        <time>2026-02-27T10:17:12.726Z</time>
      </trkpt>
      <trkpt lat="31.831850000000003" lon="35.00495">
        <ele>284</ele>
        <time>2026-02-27T10:17:13.726Z</time>
      </trkpt>
      <trkpt lat="31.831950000000003" lon="35.005120000000005">
        <ele>287</ele>
        <time>2026-02-27T10:17:14.726Z</time>
      </trkpt>
      <trkpt lat="31.83198" lon="35.005140000000004">
        <ele>287</ele>
        <time>2026-02-27T10:17:15.726Z</time>
      </trkpt>
      <trkpt lat="31.83198" lon="35.005140000000004">
        <ele>287</ele>
        <time>2026-02-27T10:17:16.726Z</time>
      </trkpt>
      <trkpt lat="31.831950000000003" lon="35.005120000000005">
        <ele>287</ele>
        <time>2026-02-27T10:17:17.726Z</time>
      </trkpt>
      <trkpt lat="31.83207" lon="35.00506">
        <ele>287</ele>
        <time>2026-02-27T10:17:18.726Z</time>
      </trkpt>
      <trkpt lat="31.832140000000003" lon="35.004900000000006">
        <ele>284</ele>
        <time>2026-02-27T10:17:19.726Z</time>
      </trkpt>
      <trkpt lat="31.832140000000003" lon="35.004690000000004">
        <ele>284</ele>
        <time>2026-02-27T10:17:20.726Z</time>
      </trkpt>
      <trkpt lat="31.83208" lon="35.004400000000004">
        <ele>284</ele>
        <time>2026-02-27T10:17:21.726Z</time>
      </trkpt>
      <trkpt lat="31.83208" lon="35.00428">
        <ele>284</ele>
        <time>2026-02-27T10:17:22.726Z</time>
      </trkpt>
      <trkpt lat="31.832140000000003" lon="35.00412">
        <ele>283</ele>
        <time>2026-02-27T10:17:23.726Z</time>
      </trkpt>
      <trkpt lat="31.832330000000002" lon="35.00376">
        <ele>283</ele>
        <time>2026-02-27T10:17:24.726Z</time>
      </trkpt>
      <trkpt lat="31.83235" lon="35.00368">
        <ele>283</ele>
        <time>2026-02-27T10:17:25.726Z</time>
      </trkpt>
      <trkpt lat="31.83235" lon="35.003600000000006">
        <ele>283</ele>
        <time>2026-02-27T10:17:26.726Z</time>
      </trkpt>
      <trkpt lat="31.832320000000003" lon="35.00343">
        <ele>283</ele>
        <time>2026-02-27T10:17:27.726Z</time>
      </trkpt>
      <trkpt lat="31.832200000000004" lon="35.003130000000006">
        <ele>294</ele>
        <time>2026-02-27T10:17:28.726Z</time>
      </trkpt>
      <trkpt lat="31.832150000000002" lon="35.003170000000004">
        <ele>288.5</ele>
        <time>2026-02-27T10:17:29.726Z</time>
      </trkpt>
      <trkpt lat="31.832150000000002" lon="35.003170000000004">
        <ele>288.5</ele>
        <time>2026-02-27T10:17:30.726Z</time>
      </trkpt>
      <trkpt lat="31.832200000000004" lon="35.003130000000006">
        <ele>294</ele>
        <time>2026-02-27T10:17:31.726Z</time>
      </trkpt>
      <trkpt lat="31.83217" lon="35.00305">
        <ele>294</ele>
        <time>2026-02-27T10:17:32.726Z</time>
      </trkpt>
      <trkpt lat="31.832120000000003" lon="35.002990000000004">
        <ele>294</ele>
        <time>2026-02-27T10:17:33.726Z</time>
      </trkpt>
      <trkpt lat="31.832050000000002" lon="35.00296">
        <ele>294</ele>
        <time>2026-02-27T10:17:34.726Z</time>
      </trkpt>
      <trkpt lat="31.831870000000002" lon="35.00294">
        <ele>294</ele>
        <time>2026-02-27T10:17:35.726Z</time>
      </trkpt>
      <trkpt lat="31.831810000000004" lon="35.002900000000004">
        <ele>294</ele>
        <time>2026-02-27T10:17:36.726Z</time>
      </trkpt>
      <trkpt lat="31.831760000000003" lon="35.002790000000005">
        <ele>283</ele>
        <time>2026-02-27T10:17:37.726Z</time>
      </trkpt>
      <trkpt lat="31.831750000000003" lon="35.00267">
        <ele>283</ele>
        <time>2026-02-27T10:17:38.726Z</time>
      </trkpt>
      <trkpt lat="31.831770000000002" lon="35.002590000000005">
        <ele>283</ele>
        <time>2026-02-27T10:17:39.726Z</time>
      </trkpt>
      <trkpt lat="31.831810000000004" lon="35.002520000000004">
        <ele>294</ele>
        <time>2026-02-27T10:17:40.726Z</time>
      </trkpt>
      <trkpt lat="31.832050000000002" lon="35.00236">
        <ele>300.5</ele>
        <time>2026-02-27T10:17:41.726Z</time>
      </trkpt>
      <trkpt lat="31.832050000000002" lon="35.00236">
        <ele>300.5</ele>
        <time>2026-02-27T10:17:42.726Z</time>
      </trkpt>
      <trkpt lat="31.832110000000004" lon="35.00231">
        <ele>307</ele>
        <time>2026-02-27T10:17:43.726Z</time>
      </trkpt>
      <trkpt lat="31.832130000000003" lon="35.00222">
        <ele>307</ele>
        <time>2026-02-27T10:17:44.726Z</time>
      </trkpt>
      <trkpt lat="31.832110000000004" lon="35.00215">
        <ele>307</ele>
        <time>2026-02-27T10:17:45.726Z</time>
      </trkpt>
      <trkpt lat="31.83199" lon="35.001990000000006">
        <ele>307</ele>
        <time>2026-02-27T10:17:46.726Z</time>
      </trkpt>
      <trkpt lat="31.831530000000004" lon="35.001650000000005">
        <ele>313</ele>
        <time>2026-02-27T10:17:47.726Z</time>
      </trkpt>
      <trkpt lat="31.831260000000004" lon="35.00155">
        <ele>313</ele>
        <time>2026-02-27T10:17:48.726Z</time>
      </trkpt>
      <trkpt lat="31.831190000000003" lon="35.0015">
        <ele>313</ele>
        <time>2026-02-27T10:17:49.726Z</time>
      </trkpt>
      <trkpt lat="31.830840000000002" lon="35.00121">
        <ele>302</ele>
        <time>2026-02-27T10:17:50.726Z</time>
      </trkpt>
      <trkpt lat="31.830440000000003" lon="35.00092">
        <ele>302</ele>
        <time>2026-02-27T10:17:51.726Z</time>
      </trkpt>
      <trkpt lat="31.8301" lon="35.00063">
        <ele>299</ele>
        <time>2026-02-27T10:17:52.726Z</time>
      </trkpt>
      <trkpt lat="31.830000000000002" lon="35.0005">
        <ele>299</ele>
        <time>2026-02-27T10:17:53.726Z</time>
      </trkpt>
      <trkpt lat="31.829810000000002" lon="35.00019">
        <ele>299</ele>
        <time>2026-02-27T10:17:54.726Z</time>
      </trkpt>
      <trkpt lat="31.829580000000004" lon="34.99992">
        <ele>299</ele>
        <time>2026-02-27T10:17:55.726Z</time>
      </trkpt>
      <trkpt lat="31.829120000000003" lon="34.99927">
        <ele>279</ele>
        <time>2026-02-27T10:17:56.726Z</time>
      </trkpt>
      <trkpt lat="31.82898" lon="34.99915">
        <ele>297</ele>
        <time>2026-02-27T10:17:57.726Z</time>
      </trkpt>
      <trkpt lat="31.828670000000002" lon="34.999">
        <ele>297</ele>
        <time>2026-02-27T10:17:58.726Z</time>
      </trkpt>
      <trkpt lat="31.828620000000004" lon="34.998960000000004">
        <ele>297</ele>
        <time>2026-02-27T10:17:59.726Z</time>
      </trkpt>
      <trkpt lat="31.828370000000003" lon="34.99859">
        <ele>280</ele>
        <time>2026-02-27T10:18:00.726Z</time>
      </trkpt>
      <trkpt lat="31.828280000000003" lon="34.99841">
        <ele>280</ele>
        <time>2026-02-27T10:18:01.726Z</time>
      </trkpt>
      <trkpt lat="31.82822" lon="34.998250000000006">
        <ele>291</ele>
        <time>2026-02-27T10:18:02.726Z</time>
      </trkpt>
      <trkpt lat="31.828210000000002" lon="34.99817">
        <ele>291</ele>
        <time>2026-02-27T10:18:03.726Z</time>
      </trkpt>
      <trkpt lat="31.828210000000002" lon="34.99817">
        <ele>291</ele>
        <time>2026-02-27T10:18:04.726Z</time>
      </trkpt>
      <trkpt lat="31.828200000000002" lon="34.998000000000005">
        <ele>291</ele>
        <time>2026-02-27T10:18:05.726Z</time>
      </trkpt>
      <trkpt lat="31.82822" lon="34.99788">
        <ele>291</ele>
        <time>2026-02-27T10:18:06.726Z</time>
      </trkpt>
      <trkpt lat="31.828280000000003" lon="34.99768">
        <ele>291</ele>
        <time>2026-02-27T10:18:07.726Z</time>
      </trkpt>
      <trkpt lat="31.828400000000002" lon="34.997460000000004">
        <ele>283</ele>
        <time>2026-02-27T10:18:08.726Z</time>
      </trkpt>
      <trkpt lat="31.8287" lon="34.9971">
        <ele>296</ele>
        <time>2026-02-27T10:18:09.726Z</time>
      </trkpt>
      <trkpt lat="31.828870000000002" lon="34.99692">
        <ele>296</ele>
        <time>2026-02-27T10:18:10.726Z</time>
      </trkpt>
      <trkpt lat="31.828870000000002" lon="34.99692">
        <ele>296</ele>
        <time>2026-02-27T10:18:11.726Z</time>
      </trkpt>
      <trkpt lat="31.829000000000004" lon="34.99689">
        <ele>296</ele>
        <time>2026-02-27T10:18:12.726Z</time>
      </trkpt>
      <trkpt lat="31.829210000000003" lon="34.996880000000004">
        <ele>296</ele>
        <time>2026-02-27T10:18:13.726Z</time>
      </trkpt>
      <trkpt lat="31.829280000000004" lon="34.996860000000005">
        <ele>296</ele>
        <time>2026-02-27T10:18:14.726Z</time>
      </trkpt>
      <trkpt lat="31.82945" lon="34.99678">
        <ele>299</ele>
        <time>2026-02-27T10:18:15.726Z</time>
      </trkpt>
      <trkpt lat="31.82974" lon="34.996610000000004">
        <ele>278</ele>
        <time>2026-02-27T10:18:16.726Z</time>
      </trkpt>
      <trkpt lat="31.829940000000004" lon="34.996520000000004">
        <ele>278</ele>
        <time>2026-02-27T10:18:17.726Z</time>
      </trkpt>
      <trkpt lat="31.830050000000004" lon="34.996500000000005">
        <ele>278</ele>
        <time>2026-02-27T10:18:18.726Z</time>
      </trkpt>
      <trkpt lat="31.830050000000004" lon="34.996500000000005">
        <ele>278</ele>
        <time>2026-02-27T10:18:19.726Z</time>
      </trkpt>
      <trkpt lat="31.830260000000003" lon="34.996460000000006">
        <ele>278</ele>
        <time>2026-02-27T10:18:20.726Z</time>
      </trkpt>
      <trkpt lat="31.830410000000004" lon="34.996410000000004">
        <ele>278</ele>
        <time>2026-02-27T10:18:21.726Z</time>
      </trkpt>
      <trkpt lat="31.83068" lon="34.9964">
        <ele>278</ele>
        <time>2026-02-27T10:18:22.726Z</time>
      </trkpt>
      <trkpt lat="31.831060000000004" lon="34.99651">
        <ele>276</ele>
        <time>2026-02-27T10:18:23.726Z</time>
      </trkpt>
      <trkpt lat="31.831440000000004" lon="34.99667">
        <ele>297</ele>
        <time>2026-02-27T10:18:24.726Z</time>
      </trkpt>
      <trkpt lat="31.831920000000004" lon="34.99683">
        <ele>294</ele>
        <time>2026-02-27T10:18:25.726Z</time>
      </trkpt>
      <trkpt lat="31.83235" lon="34.99691">
        <ele>294</ele>
        <time>2026-02-27T10:18:26.726Z</time>
      </trkpt>
      <trkpt lat="31.83245" lon="34.99691">
        <ele>294</ele>
        <time>2026-02-27T10:18:27.726Z</time>
      </trkpt>
      <trkpt lat="31.832520000000002" lon="34.99694">
        <ele>294</ele>
        <time>2026-02-27T10:18:28.726Z</time>
      </trkpt>
      <trkpt lat="31.83264" lon="34.99705">
        <ele>291.5</ele>
        <time>2026-02-27T10:18:29.726Z</time>
      </trkpt>
      <trkpt lat="31.83264" lon="34.99705">
        <ele>291.5</ele>
        <time>2026-02-27T10:18:30.726Z</time>
      </trkpt>
      <trkpt lat="31.832780000000003" lon="34.997170000000004">
        <ele>289</ele>
        <time>2026-02-27T10:18:31.726Z</time>
      </trkpt>
      <trkpt lat="31.8331" lon="34.997350000000004">
        <ele>289</ele>
        <time>2026-02-27T10:18:32.726Z</time>
      </trkpt>
      <trkpt lat="31.833170000000003" lon="34.997440000000005">
        <ele>289</ele>
        <time>2026-02-27T10:18:33.726Z</time>
      </trkpt>
      <trkpt lat="31.83329" lon="34.99766">
        <ele>304</ele>
        <time>2026-02-27T10:18:34.726Z</time>
      </trkpt>
      <trkpt lat="31.833380000000002" lon="34.99772">
        <ele>304</ele>
        <time>2026-02-27T10:18:35.726Z</time>
      </trkpt>
      <trkpt lat="31.833630000000003" lon="34.99777">
        <ele>304</ele>
        <time>2026-02-27T10:18:36.726Z</time>
      </trkpt>
      <trkpt lat="31.834270000000004" lon="34.99772">
        <ele>304</ele>
        <time>2026-02-27T10:18:37.726Z</time>
      </trkpt>
      <trkpt lat="31.83434" lon="34.997710000000005">
        <ele>306</ele>
        <time>2026-02-27T10:18:38.726Z</time>
      </trkpt>
      <trkpt lat="31.83481" lon="34.997730000000004">
        <ele>306</ele>
        <time>2026-02-27T10:18:39.726Z</time>
      </trkpt>
      <trkpt lat="31.834870000000002" lon="34.99776">
        <ele>306</ele>
        <time>2026-02-27T10:18:40.726Z</time>
      </trkpt>
      <trkpt lat="31.835020000000004" lon="34.9979">
        <ele>308</ele>
        <time>2026-02-27T10:18:41.726Z</time>
      </trkpt>
      <trkpt lat="31.835020000000004" lon="34.9979">
        <ele>308</ele>
        <time>2026-02-27T10:18:42.726Z</time>
      </trkpt>
      <trkpt lat="31.835230000000003" lon="34.99812">
        <ele>310</ele>
        <time>2026-02-27T10:18:43.726Z</time>
      </trkpt>
      <trkpt lat="31.835520000000002" lon="34.998310000000004">
        <ele>310</ele>
        <time>2026-02-27T10:18:44.726Z</time>
      </trkpt>
      <trkpt lat="31.835610000000003" lon="34.99832">
        <ele>310</ele>
        <time>2026-02-27T10:18:45.726Z</time>
      </trkpt>
      <trkpt lat="31.835720000000002" lon="34.998250000000006">
        <ele>310</ele>
        <time>2026-02-27T10:18:46.726Z</time>
      </trkpt>
      <trkpt lat="31.835790000000003" lon="34.99813">
        <ele>310</ele>
        <time>2026-02-27T10:18:47.726Z</time>
      </trkpt>
      <trkpt lat="31.835970000000003" lon="34.99766">
        <ele>313.5</ele>
        <time>2026-02-27T10:18:48.726Z</time>
      </trkpt>
      <trkpt lat="31.835970000000003" lon="34.99766">
        <ele>313.5</ele>
        <time>2026-02-27T10:18:49.726Z</time>
      </trkpt>
      <trkpt lat="31.836070000000003" lon="34.99741">
        <ele>317</ele>
        <time>2026-02-27T10:18:50.726Z</time>
      </trkpt>
      <trkpt lat="31.836100000000002" lon="34.9973">
        <ele>317</ele>
        <time>2026-02-27T10:18:51.726Z</time>
      </trkpt>
      <trkpt lat="31.83602" lon="34.99712">
        <ele>317</ele>
        <time>2026-02-27T10:18:52.726Z</time>
      </trkpt>
      <trkpt lat="31.83575" lon="34.99673">
        <ele>304</ele>
        <time>2026-02-27T10:18:53.726Z</time>
      </trkpt>
      <trkpt lat="31.835670000000004" lon="34.99663">
        <ele>307</ele>
        <time>2026-02-27T10:18:54.726Z</time>
      </trkpt>
      <trkpt lat="31.83545" lon="34.99644">
        <ele>307</ele>
        <time>2026-02-27T10:18:55.726Z</time>
      </trkpt>
      <trkpt lat="31.83545" lon="34.99644">
        <ele>307</ele>
        <time>2026-02-27T10:18:56.726Z</time>
      </trkpt>
      <trkpt lat="31.83537" lon="34.996410000000004">
        <ele>307</ele>
        <time>2026-02-27T10:18:57.726Z</time>
      </trkpt>
      <trkpt lat="31.83526" lon="34.99631">
        <ele>307</ele>
        <time>2026-02-27T10:18:58.726Z</time>
      </trkpt>
      <trkpt lat="31.835220000000003" lon="34.996140000000004">
        <ele>307</ele>
        <time>2026-02-27T10:18:59.726Z</time>
      </trkpt>
      <trkpt lat="31.835220000000003" lon="34.995560000000005">
        <ele>311</ele>
        <time>2026-02-27T10:19:00.726Z</time>
      </trkpt>
      <trkpt lat="31.835150000000002" lon="34.99532">
        <ele>311</ele>
        <time>2026-02-27T10:19:01.726Z</time>
      </trkpt>
      <trkpt lat="31.835130000000003" lon="34.995290000000004">
        <ele>302</ele>
        <time>2026-02-27T10:19:02.726Z</time>
      </trkpt>
      <trkpt lat="31.835040000000003" lon="34.99524">
        <ele>302</ele>
        <time>2026-02-27T10:19:03.726Z</time>
      </trkpt>
      <trkpt lat="31.834940000000003" lon="34.99526">
        <ele>302</ele>
        <time>2026-02-27T10:19:04.726Z</time>
      </trkpt>
      <trkpt lat="31.834940000000003" lon="34.99526">
        <ele>302</ele>
        <time>2026-02-27T10:19:05.726Z</time>
      </trkpt>
      <trkpt lat="31.834370000000003" lon="34.99535">
        <ele>302</ele>
        <time>2026-02-27T10:19:06.726Z</time>
      </trkpt>
      <trkpt lat="31.834180000000003" lon="34.9953">
        <ele>299</ele>
        <time>2026-02-27T10:19:07.726Z</time>
      </trkpt>
      <trkpt lat="31.833970000000004" lon="34.99519">
        <ele>299</ele>
        <time>2026-02-27T10:19:08.726Z</time>
      </trkpt>
      <trkpt lat="31.833520000000004" lon="34.99483">
        <ele>308</ele>
        <time>2026-02-27T10:19:09.726Z</time>
      </trkpt>
      <trkpt lat="31.833360000000003" lon="34.994730000000004">
        <ele>303</ele>
        <time>2026-02-27T10:19:10.726Z</time>
      </trkpt>
      <trkpt lat="31.832660000000004" lon="34.99438">
        <ele>301</ele>
        <time>2026-02-27T10:19:11.726Z</time>
      </trkpt>
      <trkpt lat="31.832660000000004" lon="34.99438">
        <ele>301</ele>
        <time>2026-02-27T10:19:12.726Z</time>
      </trkpt>
      <trkpt lat="31.832610000000003" lon="34.994350000000004">
        <ele>299</ele>
        <time>2026-02-27T10:19:13.726Z</time>
      </trkpt>
      <trkpt lat="31.832490000000004" lon="34.994220000000006">
        <ele>299</ele>
        <time>2026-02-27T10:19:14.726Z</time>
      </trkpt>
      <trkpt lat="31.83188" lon="34.993170000000006">
        <ele>316</ele>
        <time>2026-02-27T10:19:15.726Z</time>
      </trkpt>
      <trkpt lat="31.831830000000004" lon="34.992990000000006">
        <ele>316</ele>
        <time>2026-02-27T10:19:16.726Z</time>
      </trkpt>
      <trkpt lat="31.831810000000004" lon="34.992720000000006">
        <ele>316</ele>
        <time>2026-02-27T10:19:17.726Z</time>
      </trkpt>
      <trkpt lat="31.831840000000003" lon="34.99253">
        <ele>316</ele>
        <time>2026-02-27T10:19:18.726Z</time>
      </trkpt>
      <trkpt lat="31.831860000000002" lon="34.99251">
        <ele>311.5</ele>
        <time>2026-02-27T10:19:19.726Z</time>
      </trkpt>
      <trkpt lat="31.831860000000002" lon="34.99251">
        <ele>311.5</ele>
        <time>2026-02-27T10:19:20.726Z</time>
      </trkpt>
      <trkpt lat="31.831930000000003" lon="34.9924">
        <ele>307</ele>
        <time>2026-02-27T10:19:21.726Z</time>
      </trkpt>
      <trkpt lat="31.832060000000002" lon="34.992290000000004">
        <ele>307</ele>
        <time>2026-02-27T10:19:22.726Z</time>
      </trkpt>
      <trkpt lat="31.832190000000004" lon="34.99221">
        <ele>307</ele>
        <time>2026-02-27T10:19:23.726Z</time>
      </trkpt>
      <trkpt lat="31.83235" lon="34.99213">
        <ele>307</ele>
        <time>2026-02-27T10:19:24.726Z</time>
      </trkpt>
      <trkpt lat="31.832610000000003" lon="34.99208">
        <ele>307</ele>
        <time>2026-02-27T10:19:25.726Z</time>
      </trkpt>
      <trkpt lat="31.833150000000003" lon="34.99208">
        <ele>305</ele>
        <time>2026-02-27T10:19:26.726Z</time>
      </trkpt>
      <trkpt lat="31.833750000000002" lon="34.992180000000005">
        <ele>303</ele>
        <time>2026-02-27T10:19:27.726Z</time>
      </trkpt>
      <trkpt lat="31.833750000000002" lon="34.992180000000005">
        <ele>303</ele>
        <time>2026-02-27T10:19:28.726Z</time>
      </trkpt>
      <trkpt lat="31.833810000000003" lon="34.99219">
        <ele>301</ele>
        <time>2026-02-27T10:19:29.726Z</time>
      </trkpt>
      <trkpt lat="31.833940000000002" lon="34.99217">
        <ele>301</ele>
        <time>2026-02-27T10:19:30.726Z</time>
      </trkpt>
      <trkpt lat="31.834030000000002" lon="34.99213">
        <ele>301</ele>
        <time>2026-02-27T10:19:31.726Z</time>
      </trkpt>
      <trkpt lat="31.834290000000003" lon="34.99194">
        <ele>301</ele>
        <time>2026-02-27T10:19:32.726Z</time>
      </trkpt>
      <trkpt lat="31.8348" lon="34.99172">
        <ele>302</ele>
        <time>2026-02-27T10:19:33.726Z</time>
      </trkpt>
      <trkpt lat="31.83498" lon="34.99161">
        <ele>288</ele>
        <time>2026-02-27T10:19:34.726Z</time>
      </trkpt>
      <trkpt lat="31.835190000000004" lon="34.99121">
        <ele>289</ele>
        <time>2026-02-27T10:19:35.726Z</time>
      </trkpt>
      <trkpt lat="31.835190000000004" lon="34.99121">
        <ele>289</ele>
        <time>2026-02-27T10:19:36.726Z</time>
      </trkpt>
      <trkpt lat="31.835290000000004" lon="34.991020000000006">
        <ele>290</ele>
        <time>2026-02-27T10:19:37.726Z</time>
      </trkpt>
      <trkpt lat="31.835320000000003" lon="34.990860000000005">
        <ele>290</ele>
        <time>2026-02-27T10:19:38.726Z</time>
      </trkpt>
      <trkpt lat="31.835510000000003" lon="34.99033">
        <ele>287.5</ele>
        <time>2026-02-27T10:19:39.726Z</time>
      </trkpt>
      <trkpt lat="31.835510000000003" lon="34.99033">
        <ele>287.5</ele>
        <time>2026-02-27T10:19:40.726Z</time>
      </trkpt>
      <trkpt lat="31.835610000000003" lon="34.99018">
        <ele>285</ele>
        <time>2026-02-27T10:19:41.726Z</time>
      </trkpt>
      <trkpt lat="31.83583" lon="34.98998">
        <ele>276</ele>
        <time>2026-02-27T10:19:42.726Z</time>
      </trkpt>
      <trkpt lat="31.83593" lon="34.98991">
        <ele>276</ele>
        <time>2026-02-27T10:19:43.726Z</time>
      </trkpt>
      <trkpt lat="31.836070000000003" lon="34.98989">
        <ele>277</ele>
        <time>2026-02-27T10:19:44.726Z</time>
      </trkpt>
      <trkpt lat="31.83611" lon="34.98991">
        <ele>277</ele>
        <time>2026-02-27T10:19:45.726Z</time>
      </trkpt>
      <trkpt lat="31.83611" lon="34.98991">
        <ele>277</ele>
        <time>2026-02-27T10:19:46.726Z</time>
      </trkpt>
      <trkpt lat="31.83631" lon="34.98997">
        <ele>277</ele>
        <time>2026-02-27T10:19:47.726Z</time>
      </trkpt>
      <trkpt lat="31.836360000000003" lon="34.990030000000004">
        <ele>277</ele>
        <time>2026-02-27T10:19:48.726Z</time>
      </trkpt>
      <trkpt lat="31.836560000000002" lon="34.990390000000005">
        <ele>277</ele>
        <time>2026-02-27T10:19:49.726Z</time>
      </trkpt>
      <trkpt lat="31.837080000000004" lon="34.990970000000004">
        <ele>267</ele>
        <time>2026-02-27T10:19:50.726Z</time>
      </trkpt>
      <trkpt lat="31.83715" lon="34.99107">
        <ele>267</ele>
        <time>2026-02-27T10:19:51.726Z</time>
      </trkpt>
      <trkpt lat="31.83715" lon="34.99116">
        <ele>267</ele>
        <time>2026-02-27T10:19:52.726Z</time>
      </trkpt>
      <trkpt lat="31.837130000000002" lon="34.99123">
        <ele>267</ele>
        <time>2026-02-27T10:19:53.726Z</time>
      </trkpt>
      <trkpt lat="31.837130000000002" lon="34.99123">
        <ele>267</ele>
        <time>2026-02-27T10:19:54.726Z</time>
      </trkpt>
      <trkpt lat="31.837000000000003" lon="34.991530000000004">
        <ele>267</ele>
        <time>2026-02-27T10:19:55.726Z</time>
      </trkpt>
      <trkpt lat="31.83686" lon="34.992090000000005">
        <ele>271</ele>
        <time>2026-02-27T10:19:56.726Z</time>
      </trkpt>
    </trkseg>
  </trk>
</gpx>