<?xml version="1.0" encoding="UTF-8"?>
<gpx creator="Patrick Hooper" version="1.1" xmlns="http://www.topografix.com/GPX/1/1" xmlns:xsi="http://www.w3.org/2001/XMLSchema-instance" xsi:schemaLocation="http://www.topografix.com/GPX/1/1 http://www.topografix.com/GPX/1/1/gpx.xsd http://www.garmin.com/xmlschemas/GpxExtensions/v3 http://www.garmin.com/xmlschemas/GpxExtensionsv3.xsd http://www.garmin.com/xmlschemas/TrackPointExtension/v1 http://www.garmin.com/xmlschemas/TrackPointExtensionv1.xsd">
  <metadata>
    <name>Activity</name>
  </metadata>
  <trk>
    <name>a</name>
    <trkseg>
      <trkpt lat="31.84137" lon="34.99335">
        <ele>247</ele>
        <time>2026-02-19T14:16:59.453Z</time>
      </trkpt>
      <trkpt lat="31.841010000000004" lon="34.992900000000006">
        <ele>247</ele>
        <time>2026-02-19T14:17:00.453Z</time>
      </trkpt>
      <trkpt lat="31.840870000000002" lon="34.992760000000004">
        <ele>256</ele>
        <time>2026-02-19T14:17:01.453Z</time>
      </trkpt>
      <trkpt lat="31.840650000000004" lon="34.992610000000006">
        <ele>256</ele>
        <time>2026-02-19T14:17:02.453Z</time>
      </trkpt>
      <trkpt lat="31.84044" lon="34.992540000000005">
        <ele>256</ele>
        <time>2026-02-19T14:17:03.453Z</time>
      </trkpt>
      <trkpt lat="31.840260000000004" lon="34.992540000000005">
        <ele>256</ele>
        <time>2026-02-19T14:17:04.453Z</time>
      </trkpt>
      <trkpt lat="31.839980000000004" lon="34.992610000000006">
        <ele>261</ele>
        <time>2026-02-19T14:17:05.453Z</time>
      </trkpt>
      <trkpt lat="31.839600000000004" lon="34.99277">
        <ele>261</ele>
        <time>2026-02-19T14:17:06.453Z</time>
      </trkpt>
      <trkpt lat="31.839600000000004" lon="34.99277">
        <ele>261</ele>
        <time>2026-02-19T14:17:07.453Z</time>
      </trkpt>
      <trkpt lat="31.8395" lon="34.992810000000006">
        <ele>261</ele>
        <time>2026-02-19T14:17:08.453Z</time>
      </trkpt>
      <trkpt lat="31.83921" lon="34.992810000000006">
        <ele>267</ele>
        <time>2026-02-19T14:17:09.453Z</time>
      </trkpt>
      <trkpt lat="31.839070000000003" lon="34.99277">
        <ele>267</ele>
        <time>2026-02-19T14:17:10.453Z</time>
      </trkpt>
      <trkpt lat="31.838870000000004" lon="34.992670000000004">
        <ele>267</ele>
        <time>2026-02-19T14:17:11.453Z</time>
      </trkpt>
      <trkpt lat="31.838630000000002" lon="34.99259">
        <ele>267</ele>
        <time>2026-02-19T14:17:12.453Z</time>
      </trkpt>
      <trkpt lat="31.838340000000002" lon="34.992560000000005">
        <ele>271</ele>
        <time>2026-02-19T14:17:13.453Z</time>
      </trkpt>
      <trkpt lat="31.838050000000003" lon="34.99259">
        <ele>271</ele>
        <time>2026-02-19T14:17:14.453Z</time>
      </trkpt>
      <trkpt lat="31.8378" lon="34.99264">
        <ele>271</ele>
        <time>2026-02-19T14:17:15.453Z</time>
      </trkpt>
      <trkpt lat="31.837090000000003" lon="34.99275">
        <ele>272</ele>
        <time>2026-02-19T14:17:16.453Z</time>
      </trkpt>
      <trkpt lat="31.83687" lon="34.992810000000006">
        <ele>272</ele>
        <time>2026-02-19T14:17:17.453Z</time>
      </trkpt>
      <trkpt lat="31.836710000000004" lon="34.99279">
        <ele>276</ele>
        <time>2026-02-19T14:17:18.453Z</time>
      </trkpt>
      <trkpt lat="31.836510000000004" lon="34.99298">
        <ele>276</ele>
        <time>2026-02-19T14:17:19.453Z</time>
      </trkpt>
      <trkpt lat="31.836510000000004" lon="34.99298">
        <ele>276</ele>
        <time>2026-02-19T14:17:20.453Z</time>
      </trkpt>
      <trkpt lat="31.836710000000004" lon="34.99279">
        <ele>276</ele>
        <time>2026-02-19T14:17:21.453Z</time>
      </trkpt>
      <trkpt lat="31.836700000000004" lon="34.992700000000006">
        <ele>276</ele>
        <time>2026-02-19T14:17:22.453Z</time>
      </trkpt>
      <trkpt lat="31.83677" lon="34.99241">
        <ele>275</ele>
        <time>2026-02-19T14:17:23.453Z</time>
      </trkpt>
      <trkpt lat="31.837000000000003" lon="34.991530000000004">
        <ele>267</ele>
        <time>2026-02-19T14:17:24.453Z</time>
      </trkpt>
      <trkpt lat="31.837090000000003" lon="34.99132">
        <ele>267</ele>
        <time>2026-02-19T14:17:25.453Z</time>
      </trkpt>
      <trkpt lat="31.837090000000003" lon="34.99132">
        <ele>267</ele>
        <time>2026-02-19T14:17:26.453Z</time>
      </trkpt>
      <trkpt lat="31.83715" lon="34.99116">
        <ele>267</ele>
        <time>2026-02-19T14:17:27.453Z</time>
      </trkpt>
      <trkpt lat="31.83715" lon="34.99107">
        <ele>267</ele>
        <time>2026-02-19T14:17:28.453Z</time>
      </trkpt>
      <trkpt lat="31.837080000000004" lon="34.990970000000004">
        <ele>267</ele>
        <time>2026-02-19T14:17:29.453Z</time>
      </trkpt>
      <trkpt lat="31.836560000000002" lon="34.990390000000005">
        <ele>277</ele>
        <time>2026-02-19T14:17:30.453Z</time>
      </trkpt>
      <trkpt lat="31.836360000000003" lon="34.990030000000004">
        <ele>277</ele>
        <time>2026-02-19T14:17:31.453Z</time>
      </trkpt>
      <trkpt lat="31.83631" lon="34.98997">
        <ele>277</ele>
        <time>2026-02-19T14:17:32.453Z</time>
      </trkpt>
      <trkpt lat="31.836070000000003" lon="34.98989">
        <ele>277</ele>
        <time>2026-02-19T14:17:33.453Z</time>
      </trkpt>
      <trkpt lat="31.83593" lon="34.98991">
        <ele>276</ele>
        <time>2026-02-19T14:17:34.453Z</time>
      </trkpt>
      <trkpt lat="31.835870000000003" lon="34.989940000000004">
        <ele>276</ele>
        <time>2026-02-19T14:17:35.453Z</time>
      </trkpt>
      <trkpt lat="31.835870000000003" lon="34.989940000000004">
        <ele>276</ele>
        <time>2026-02-19T14:17:36.453Z</time>
      </trkpt>
      <trkpt lat="31.835610000000003" lon="34.99018">
        <ele>285</ele>
        <time>2026-02-19T14:17:37.453Z</time>
      </trkpt>
      <trkpt lat="31.835520000000002" lon="34.99031">
        <ele>285</ele>
        <time>2026-02-19T14:17:38.453Z</time>
      </trkpt>
      <trkpt lat="31.835320000000003" lon="34.990860000000005">
        <ele>290</ele>
        <time>2026-02-19T14:17:39.453Z</time>
      </trkpt>
      <trkpt lat="31.835290000000004" lon="34.991020000000006">
        <ele>290</ele>
        <time>2026-02-19T14:17:40.453Z</time>
      </trkpt>
      <trkpt lat="31.835300000000004" lon="34.99161">
        <ele>290</ele>
        <time>2026-02-19T14:17:41.453Z</time>
      </trkpt>
      <trkpt lat="31.83528" lon="34.991910000000004">
        <ele>291</ele>
        <time>2026-02-19T14:17:42.453Z</time>
      </trkpt>
      <trkpt lat="31.835300000000004" lon="34.99203">
        <ele>291</ele>
        <time>2026-02-19T14:17:43.453Z</time>
      </trkpt>
      <trkpt lat="31.83536" lon="34.99215">
        <ele>291</ele>
        <time>2026-02-19T14:17:44.453Z</time>
      </trkpt>
      <trkpt lat="31.83536" lon="34.99215">
        <ele>291</ele>
        <time>2026-02-19T14:17:45.453Z</time>
      </trkpt>
      <trkpt lat="31.835430000000002" lon="34.992230000000006">
        <ele>291</ele>
        <time>2026-02-19T14:17:46.453Z</time>
      </trkpt>
      <trkpt lat="31.835570000000004" lon="34.99232">
        <ele>291</ele>
        <time>2026-02-19T14:17:47.453Z</time>
      </trkpt>
      <trkpt lat="31.83565" lon="34.99242">
        <ele>291</ele>
        <time>2026-02-19T14:17:48.453Z</time>
      </trkpt>
      <trkpt lat="31.83564" lon="34.99255">
        <ele>293</ele>
        <time>2026-02-19T14:17:49.453Z</time>
      </trkpt>
      <trkpt lat="31.83556" lon="34.99264">
        <ele>293</ele>
        <time>2026-02-19T14:17:50.453Z</time>
      </trkpt>
      <trkpt lat="31.835530000000002" lon="34.99271">
        <ele>293</ele>
        <time>2026-02-19T14:17:51.453Z</time>
      </trkpt>
      <trkpt lat="31.835350000000002" lon="34.99322">
        <ele>293</ele>
        <time>2026-02-19T14:17:52.453Z</time>
      </trkpt>
      <trkpt lat="31.83526" lon="34.9934">
        <ele>298</ele>
        <time>2026-02-19T14:17:53.453Z</time>
      </trkpt>
      <trkpt lat="31.835200000000004" lon="34.99365">
        <ele>298</ele>
        <time>2026-02-19T14:17:54.453Z</time>
      </trkpt>
      <trkpt lat="31.835220000000003" lon="34.993770000000005">
        <ele>298</ele>
        <time>2026-02-19T14:17:55.453Z</time>
      </trkpt>
      <trkpt lat="31.834920000000004" lon="34.994400000000006">
        <ele>307</ele>
        <time>2026-02-19T14:17:56.453Z</time>
      </trkpt>
      <trkpt lat="31.835050000000003" lon="34.99495">
        <ele>307</ele>
        <time>2026-02-19T14:17:57.453Z</time>
      </trkpt>
      <trkpt lat="31.835150000000002" lon="34.99532">
        <ele>311</ele>
        <time>2026-02-19T14:17:58.453Z</time>
      </trkpt>
      <trkpt lat="31.835130000000003" lon="34.995290000000004">
        <ele>302</ele>
        <time>2026-02-19T14:17:59.453Z</time>
      </trkpt>
      <trkpt lat="31.835040000000003" lon="34.99524">
        <ele>302</ele>
        <time>2026-02-19T14:18:00.453Z</time>
      </trkpt>
      <trkpt lat="31.834830000000004" lon="34.99528">
        <ele>302</ele>
        <time>2026-02-19T14:18:01.453Z</time>
      </trkpt>
      <trkpt lat="31.834830000000004" lon="34.99528">
        <ele>302</ele>
        <time>2026-02-19T14:18:02.453Z</time>
      </trkpt>
      <trkpt lat="31.835040000000003" lon="34.99524">
        <ele>302</ele>
        <time>2026-02-19T14:18:03.453Z</time>
      </trkpt>
      <trkpt lat="31.835130000000003" lon="34.995290000000004">
        <ele>302</ele>
        <time>2026-02-19T14:18:04.453Z</time>
      </trkpt>
      <trkpt lat="31.835150000000002" lon="34.99532">
        <ele>311</ele>
        <time>2026-02-19T14:18:05.453Z</time>
      </trkpt>
      <trkpt lat="31.835220000000003" lon="34.995560000000005">
        <ele>311</ele>
        <time>2026-02-19T14:18:06.453Z</time>
      </trkpt>
      <trkpt lat="31.835220000000003" lon="34.996140000000004">
        <ele>307</ele>
        <time>2026-02-19T14:18:07.453Z</time>
      </trkpt>
      <trkpt lat="31.83526" lon="34.99631">
        <ele>307</ele>
        <time>2026-02-19T14:18:08.453Z</time>
      </trkpt>
      <trkpt lat="31.83537" lon="34.996410000000004">
        <ele>307</ele>
        <time>2026-02-19T14:18:09.453Z</time>
      </trkpt>
      <trkpt lat="31.835470000000004" lon="34.99645">
        <ele>307</ele>
        <time>2026-02-19T14:18:10.453Z</time>
      </trkpt>
      <trkpt lat="31.835670000000004" lon="34.99663">
        <ele>307</ele>
        <time>2026-02-19T14:18:11.453Z</time>
      </trkpt>
      <trkpt lat="31.83602" lon="34.99712">
        <ele>317</ele>
        <time>2026-02-19T14:18:12.453Z</time>
      </trkpt>
      <trkpt lat="31.836100000000002" lon="34.9973">
        <ele>317</ele>
        <time>2026-02-19T14:18:13.453Z</time>
      </trkpt>
      <trkpt lat="31.836070000000003" lon="34.99741">
        <ele>317</ele>
        <time>2026-02-19T14:18:14.453Z</time>
      </trkpt>
      <trkpt lat="31.835970000000003" lon="34.99768">
        <ele>313.5</ele>
        <time>2026-02-19T14:18:15.453Z</time>
      </trkpt>
      <trkpt lat="31.835970000000003" lon="34.99768">
        <ele>313.5</ele>
        <time>2026-02-19T14:18:16.453Z</time>
      </trkpt>
      <trkpt lat="31.835790000000003" lon="34.99813">
        <ele>310</ele>
        <time>2026-02-19T14:18:17.453Z</time>
      </trkpt>
      <trkpt lat="31.835720000000002" lon="34.998250000000006">
        <ele>310</ele>
        <time>2026-02-19T14:18:18.453Z</time>
      </trkpt>
      <trkpt lat="31.835610000000003" lon="34.99832">
        <ele>310</ele>
        <time>2026-02-19T14:18:19.453Z</time>
      </trkpt>
      <trkpt lat="31.835520000000002" lon="34.998310000000004">
        <ele>310</ele>
        <time>2026-02-19T14:18:20.453Z</time>
      </trkpt>
      <trkpt lat="31.835220000000003" lon="34.99812">
        <ele>308</ele>
        <time>2026-02-19T14:18:21.453Z</time>
      </trkpt>
      <trkpt lat="31.835220000000003" lon="34.99812">
        <ele>308</ele>
        <time>2026-02-19T14:18:22.453Z</time>
      </trkpt>
      <trkpt lat="31.834960000000002" lon="34.997840000000004">
        <ele>306</ele>
        <time>2026-02-19T14:18:23.453Z</time>
      </trkpt>
      <trkpt lat="31.834870000000002" lon="34.99776">
        <ele>306</ele>
        <time>2026-02-19T14:18:24.453Z</time>
      </trkpt>
      <trkpt lat="31.83481" lon="34.997730000000004">
        <ele>306</ele>
        <time>2026-02-19T14:18:25.453Z</time>
      </trkpt>
      <trkpt lat="31.83434" lon="34.997710000000005">
        <ele>306</ele>
        <time>2026-02-19T14:18:26.453Z</time>
      </trkpt>
      <trkpt lat="31.834270000000004" lon="34.99772">
        <ele>304</ele>
        <time>2026-02-19T14:18:27.453Z</time>
      </trkpt>
      <trkpt lat="31.833630000000003" lon="34.99777">
        <ele>304</ele>
        <time>2026-02-19T14:18:28.453Z</time>
      </trkpt>
      <trkpt lat="31.833380000000002" lon="34.99772">
        <ele>304</ele>
        <time>2026-02-19T14:18:29.453Z</time>
      </trkpt>
      <trkpt lat="31.83329" lon="34.99766">
        <ele>304</ele>
        <time>2026-02-19T14:18:30.453Z</time>
      </trkpt>
      <trkpt lat="31.833170000000003" lon="34.997440000000005">
        <ele>289</ele>
        <time>2026-02-19T14:18:31.453Z</time>
      </trkpt>
      <trkpt lat="31.8331" lon="34.997350000000004">
        <ele>289</ele>
        <time>2026-02-19T14:18:32.453Z</time>
      </trkpt>
      <trkpt lat="31.832780000000003" lon="34.997170000000004">
        <ele>289</ele>
        <time>2026-02-19T14:18:33.453Z</time>
      </trkpt>
      <trkpt lat="31.832520000000002" lon="34.99694">
        <ele>294</ele>
        <time>2026-02-19T14:18:34.453Z</time>
      </trkpt>
      <trkpt lat="31.83245" lon="34.99691">
        <ele>294</ele>
        <time>2026-02-19T14:18:35.453Z</time>
      </trkpt>
      <trkpt lat="31.83235" lon="34.99691">
        <ele>294</ele>
        <time>2026-02-19T14:18:36.453Z</time>
      </trkpt>
      <trkpt lat="31.831920000000004" lon="34.99683">
        <ele>294</ele>
        <time>2026-02-19T14:18:37.453Z</time>
      </trkpt>
      <trkpt lat="31.831440000000004" lon="34.99667">
        <ele>297</ele>
        <time>2026-02-19T14:18:38.453Z</time>
      </trkpt>
      <trkpt lat="31.831060000000004" lon="34.99651">
        <ele>276</ele>
        <time>2026-02-19T14:18:39.453Z</time>
      </trkpt>
      <trkpt lat="31.83068" lon="34.9964">
        <ele>278</ele>
        <time>2026-02-19T14:18:40.453Z</time>
      </trkpt>
      <trkpt lat="31.830410000000004" lon="34.996410000000004">
        <ele>278</ele>
        <time>2026-02-19T14:18:41.453Z</time>
      </trkpt>
      <trkpt lat="31.830330000000004" lon="34.996430000000004">
        <ele>278</ele>
        <time>2026-02-19T14:18:42.453Z</time>
      </trkpt>
      <trkpt lat="31.830330000000004" lon="34.996430000000004">
        <ele>278</ele>
        <time>2026-02-19T14:18:43.453Z</time>
      </trkpt>
      <trkpt lat="31.829940000000004" lon="34.996520000000004">
        <ele>278</ele>
        <time>2026-02-19T14:18:44.453Z</time>
      </trkpt>
      <trkpt lat="31.82974" lon="34.996610000000004">
        <ele>278</ele>
        <time>2026-02-19T14:18:45.453Z</time>
      </trkpt>
      <trkpt lat="31.82945" lon="34.99678">
        <ele>299</ele>
        <time>2026-02-19T14:18:46.453Z</time>
      </trkpt>
      <trkpt lat="31.829280000000004" lon="34.996860000000005">
        <ele>296</ele>
        <time>2026-02-19T14:18:47.453Z</time>
      </trkpt>
      <trkpt lat="31.829210000000003" lon="34.996880000000004">
        <ele>296</ele>
        <time>2026-02-19T14:18:48.453Z</time>
      </trkpt>
      <trkpt lat="31.829000000000004" lon="34.99689">
        <ele>296</ele>
        <time>2026-02-19T14:18:49.453Z</time>
      </trkpt>
      <trkpt lat="31.828860000000002" lon="34.996930000000006">
        <ele>296</ele>
        <time>2026-02-19T14:18:50.453Z</time>
      </trkpt>
      <trkpt lat="31.8287" lon="34.9971">
        <ele>296</ele>
        <time>2026-02-19T14:18:51.453Z</time>
      </trkpt>
      <trkpt lat="31.828390000000002" lon="34.99748">
        <ele>287</ele>
        <time>2026-02-19T14:18:52.453Z</time>
      </trkpt>
      <trkpt lat="31.828390000000002" lon="34.99748">
        <ele>287</ele>
        <time>2026-02-19T14:18:53.453Z</time>
      </trkpt>
      <trkpt lat="31.828280000000003" lon="34.99768">
        <ele>291</ele>
        <time>2026-02-19T14:18:54.453Z</time>
      </trkpt>
      <trkpt lat="31.82822" lon="34.99788">
        <ele>291</ele>
        <time>2026-02-19T14:18:55.453Z</time>
      </trkpt>
      <trkpt lat="31.828200000000002" lon="34.998000000000005">
        <ele>291</ele>
        <time>2026-02-19T14:18:56.453Z</time>
      </trkpt>
      <trkpt lat="31.828200000000002" lon="34.99813">
        <ele>291</ele>
        <time>2026-02-19T14:18:57.453Z</time>
      </trkpt>
      <trkpt lat="31.82822" lon="34.998250000000006">
        <ele>291</ele>
        <time>2026-02-19T14:18:58.453Z</time>
      </trkpt>
      <trkpt lat="31.828280000000003" lon="34.99841">
        <ele>280</ele>
        <time>2026-02-19T14:18:59.453Z</time>
      </trkpt>
      <trkpt lat="31.828370000000003" lon="34.99859">
        <ele>280</ele>
        <time>2026-02-19T14:19:00.453Z</time>
      </trkpt>
      <trkpt lat="31.828620000000004" lon="34.998960000000004">
        <ele>297</ele>
        <time>2026-02-19T14:19:01.453Z</time>
      </trkpt>
      <trkpt lat="31.828670000000002" lon="34.999">
        <ele>297</ele>
        <time>2026-02-19T14:19:02.453Z</time>
      </trkpt>
      <trkpt lat="31.82898" lon="34.99915">
        <ele>297</ele>
        <time>2026-02-19T14:19:03.453Z</time>
      </trkpt>
      <trkpt lat="31.829020000000003" lon="34.999190000000006">
        <ele>288</ele>
        <time>2026-02-19T14:19:04.453Z</time>
      </trkpt>
      <trkpt lat="31.829020000000003" lon="34.999190000000006">
        <ele>288</ele>
        <time>2026-02-19T14:19:05.453Z</time>
      </trkpt>
      <trkpt lat="31.829120000000003" lon="34.99927">
        <ele>279</ele>
        <time>2026-02-19T14:19:06.453Z</time>
      </trkpt>
      <trkpt lat="31.829580000000004" lon="34.99992">
        <ele>299</ele>
        <time>2026-02-19T14:19:07.453Z</time>
      </trkpt>
      <trkpt lat="31.829810000000002" lon="35.00019">
        <ele>299</ele>
        <time>2026-02-19T14:19:08.453Z</time>
      </trkpt>
      <trkpt lat="31.830000000000002" lon="35.0005">
        <ele>299</ele>
        <time>2026-02-19T14:19:09.453Z</time>
      </trkpt>
      <trkpt lat="31.8301" lon="35.00063">
        <ele>299</ele>
        <time>2026-02-19T14:19:10.453Z</time>
      </trkpt>
      <trkpt lat="31.830440000000003" lon="35.00092">
        <ele>302</ele>
        <time>2026-02-19T14:19:11.453Z</time>
      </trkpt>
      <trkpt lat="31.830840000000002" lon="35.00121">
        <ele>302</ele>
        <time>2026-02-19T14:19:12.453Z</time>
      </trkpt>
      <trkpt lat="31.831190000000003" lon="35.0015">
        <ele>313</ele>
        <time>2026-02-19T14:19:13.453Z</time>
      </trkpt>
      <trkpt lat="31.831260000000004" lon="35.00155">
        <ele>313</ele>
        <time>2026-02-19T14:19:14.453Z</time>
      </trkpt>
      <trkpt lat="31.831530000000004" lon="35.001650000000005">
        <ele>313</ele>
        <time>2026-02-19T14:19:15.453Z</time>
      </trkpt>
      <trkpt lat="31.83199" lon="35.001990000000006">
        <ele>307</ele>
        <time>2026-02-19T14:19:16.453Z</time>
      </trkpt>
      <trkpt lat="31.832110000000004" lon="35.00215">
        <ele>307</ele>
        <time>2026-02-19T14:19:17.453Z</time>
      </trkpt>
      <trkpt lat="31.832130000000003" lon="35.00222">
        <ele>307</ele>
        <time>2026-02-19T14:19:18.453Z</time>
      </trkpt>
      <trkpt lat="31.832110000000004" lon="35.00231">
        <ele>307</ele>
        <time>2026-02-19T14:19:19.453Z</time>
      </trkpt>
      <trkpt lat="31.83209" lon="35.002340000000004">
        <ele>307</ele>
        <time>2026-02-19T14:19:20.453Z</time>
      </trkpt>
      <trkpt lat="31.831870000000002" lon="35.00247">
        <ele>300.5</ele>
        <time>2026-02-19T14:19:21.453Z</time>
      </trkpt>
      <trkpt lat="31.831870000000002" lon="35.00247">
        <ele>300.5</ele>
        <time>2026-02-19T14:19:22.453Z</time>
      </trkpt>
      <trkpt lat="31.831810000000004" lon="35.002520000000004">
        <ele>294</ele>
        <time>2026-02-19T14:19:23.453Z</time>
      </trkpt>
      <trkpt lat="31.831770000000002" lon="35.002590000000005">
        <ele>283</ele>
        <time>2026-02-19T14:19:24.453Z</time>
      </trkpt>
      <trkpt lat="31.831750000000003" lon="35.00267">
        <ele>283</ele>
        <time>2026-02-19T14:19:25.453Z</time>
      </trkpt>
      <trkpt lat="31.831760000000003" lon="35.002790000000005">
        <ele>283</ele>
        <time>2026-02-19T14:19:26.453Z</time>
      </trkpt>
      <trkpt lat="31.831810000000004" lon="35.002900000000004">
        <ele>294</ele>
        <time>2026-02-19T14:19:27.453Z</time>
      </trkpt>
      <trkpt lat="31.831870000000002" lon="35.00294">
        <ele>294</ele>
        <time>2026-02-19T14:19:28.453Z</time>
      </trkpt>
      <trkpt lat="31.832050000000002" lon="35.00296">
        <ele>294</ele>
        <time>2026-02-19T14:19:29.453Z</time>
      </trkpt>
      <trkpt lat="31.832120000000003" lon="35.002990000000004">
        <ele>294</ele>
        <time>2026-02-19T14:19:30.453Z</time>
      </trkpt>
      <trkpt lat="31.83217" lon="35.00305">
        <ele>294</ele>
        <time>2026-02-19T14:19:31.453Z</time>
      </trkpt>
      <trkpt lat="31.832200000000004" lon="35.003130000000006">
        <ele>294</ele>
        <time>2026-02-19T14:19:32.453Z</time>
      </trkpt>
      <trkpt lat="31.83207" lon="35.003220000000006">
        <ele>288.5</ele>
        <time>2026-02-19T14:19:33.453Z</time>
      </trkpt>
      <trkpt lat="31.83207" lon="35.003220000000006">
        <ele>288.5</ele>
        <time>2026-02-19T14:19:34.453Z</time>
      </trkpt>
      <trkpt lat="31.832200000000004" lon="35.003130000000006">
        <ele>294</ele>
        <time>2026-02-19T14:19:35.453Z</time>
      </trkpt>
      <trkpt lat="31.832320000000003" lon="35.00343">
        <ele>283</ele>
        <time>2026-02-19T14:19:36.453Z</time>
      </trkpt>
      <trkpt lat="31.83235" lon="35.003600000000006">
        <ele>283</ele>
        <time>2026-02-19T14:19:37.453Z</time>
      </trkpt>
      <trkpt lat="31.83235" lon="35.00368">
        <ele>283</ele>
        <time>2026-02-19T14:19:38.453Z</time>
      </trkpt>
      <trkpt lat="31.832330000000002" lon="35.00376">
        <ele>283</ele>
        <time>2026-02-19T14:19:39.453Z</time>
      </trkpt>
      <trkpt lat="31.832140000000003" lon="35.00412">
        <ele>283</ele>
        <time>2026-02-19T14:19:40.453Z</time>
      </trkpt>
      <trkpt lat="31.83208" lon="35.00428">
        <ele>284</ele>
        <time>2026-02-19T14:19:41.453Z</time>
      </trkpt>
      <trkpt lat="31.83208" lon="35.004400000000004">
        <ele>284</ele>
        <time>2026-02-19T14:19:42.453Z</time>
      </trkpt>
      <trkpt lat="31.832140000000003" lon="35.004690000000004">
        <ele>284</ele>
        <time>2026-02-19T14:19:43.453Z</time>
      </trkpt>
      <trkpt lat="31.832140000000003" lon="35.004900000000006">
        <ele>284</ele>
        <time>2026-02-19T14:19:44.453Z</time>
      </trkpt>
      <trkpt lat="31.83207" lon="35.00506">
        <ele>287</ele>
        <time>2026-02-19T14:19:45.453Z</time>
      </trkpt>
      <trkpt lat="31.831950000000003" lon="35.005120000000005">
        <ele>287</ele>
        <time>2026-02-19T14:19:46.453Z</time>
      </trkpt>
      <trkpt lat="31.831910000000004" lon="35.00506">
        <ele>285.5</ele>
        <time>2026-02-19T14:19:47.453Z</time>
      </trkpt>
      <trkpt lat="31.831910000000004" lon="35.00506">
        <ele>285.5</ele>
        <time>2026-02-19T14:19:48.453Z</time>
      </trkpt>
      <trkpt lat="31.831850000000003" lon="35.00495">
        <ele>284</ele>
        <time>2026-02-19T14:19:49.453Z</time>
      </trkpt>
      <trkpt lat="31.831690000000002" lon="35.00448">
        <ele>270</ele>
        <time>2026-02-19T14:19:50.453Z</time>
      </trkpt>
      <trkpt lat="31.8316" lon="35.0043">
        <ele>270</ele>
        <time>2026-02-19T14:19:51.453Z</time>
      </trkpt>
      <trkpt lat="31.83143" lon="35.004070000000006">
        <ele>272</ele>
        <time>2026-02-19T14:19:52.453Z</time>
      </trkpt>
      <trkpt lat="31.83133" lon="35.00401">
        <ele>272</ele>
        <time>2026-02-19T14:19:53.453Z</time>
      </trkpt>
      <trkpt lat="31.831290000000003" lon="35.00403">
        <ele>272</ele>
        <time>2026-02-19T14:19:54.453Z</time>
      </trkpt>
      <trkpt lat="31.831250000000004" lon="35.00408">
        <ele>272</ele>
        <time>2026-02-19T14:19:55.453Z</time>
      </trkpt>
      <trkpt lat="31.831260000000004" lon="35.00415">
        <ele>271</ele>
        <time>2026-02-19T14:19:56.453Z</time>
      </trkpt>
      <trkpt lat="31.831260000000004" lon="35.00415">
        <ele>271</ele>
        <time>2026-02-19T14:19:57.453Z</time>
      </trkpt>
      <trkpt lat="31.831270000000004" lon="35.004200000000004">
        <ele>270</ele>
        <time>2026-02-19T14:19:58.453Z</time>
      </trkpt>
      <trkpt lat="31.831480000000003" lon="35.004540000000006">
        <ele>270</ele>
        <time>2026-02-19T14:19:59.453Z</time>
      </trkpt>
      <trkpt lat="31.83152" lon="35.00466">
        <ele>270</ele>
        <time>2026-02-19T14:20:00.453Z</time>
      </trkpt>
      <trkpt lat="31.831490000000002" lon="35.005">
        <ele>278</ele>
        <time>2026-02-19T14:20:01.453Z</time>
      </trkpt>
      <trkpt lat="31.831490000000002" lon="35.005210000000005">
        <ele>278</ele>
        <time>2026-02-19T14:20:02.453Z</time>
      </trkpt>
      <trkpt lat="31.831460000000003" lon="35.00538">
        <ele>278</ele>
        <time>2026-02-19T14:20:03.453Z</time>
      </trkpt>
      <trkpt lat="31.83141" lon="35.005430000000004">
        <ele>278</ele>
        <time>2026-02-19T14:20:04.453Z</time>
      </trkpt>
      <trkpt lat="31.83134" lon="35.00546">
        <ele>278</ele>
        <time>2026-02-19T14:20:05.453Z</time>
      </trkpt>
      <trkpt lat="31.83124" lon="35.00542">
        <ele>278</ele>
        <time>2026-02-19T14:20:06.453Z</time>
      </trkpt>
      <trkpt lat="31.83124" lon="35.00542">
        <ele>278</ele>
        <time>2026-02-19T14:20:07.453Z</time>
      </trkpt>
      <trkpt lat="31.830970000000004" lon="35.005210000000005">
        <ele>287</ele>
        <time>2026-02-19T14:20:08.453Z</time>
      </trkpt>
      <trkpt lat="31.830900000000003" lon="35.0052">
        <ele>287</ele>
        <time>2026-02-19T14:20:09.453Z</time>
      </trkpt>
      <trkpt lat="31.83087" lon="35.00522">
        <ele>287</ele>
        <time>2026-02-19T14:20:10.453Z</time>
      </trkpt>
      <trkpt lat="31.83085" lon="35.00526">
        <ele>287</ele>
        <time>2026-02-19T14:20:11.453Z</time>
      </trkpt>
      <trkpt lat="31.83085" lon="35.00526">
        <ele>287</ele>
        <time>2026-02-19T14:20:12.453Z</time>
      </trkpt>
      <trkpt lat="31.830910000000003" lon="35.00554">
        <ele>287</ele>
        <time>2026-02-19T14:20:13.453Z</time>
      </trkpt>
      <trkpt lat="31.830880000000004" lon="35.00562">
        <ele>287</ele>
        <time>2026-02-19T14:20:14.453Z</time>
      </trkpt>
      <trkpt lat="31.83086" lon="35.00565">
        <ele>287</ele>
        <time>2026-02-19T14:20:15.453Z</time>
      </trkpt>
      <trkpt lat="31.830750000000002" lon="35.00567">
        <ele>287</ele>
        <time>2026-02-19T14:20:16.453Z</time>
      </trkpt>
      <trkpt lat="31.830610000000004" lon="35.00564">
        <ele>287</ele>
        <time>2026-02-19T14:20:17.453Z</time>
      </trkpt>
      <trkpt lat="31.830430000000003" lon="35.00564">
        <ele>287</ele>
        <time>2026-02-19T14:20:18.453Z</time>
      </trkpt>
      <trkpt lat="31.83029" lon="35.005700000000004">
        <ele>287</ele>
        <time>2026-02-19T14:20:19.453Z</time>
      </trkpt>
      <trkpt lat="31.830230000000004" lon="35.00574">
        <ele>287</ele>
        <time>2026-02-19T14:20:20.453Z</time>
      </trkpt>
      <trkpt lat="31.830160000000003" lon="35.005840000000006">
        <ele>300</ele>
        <time>2026-02-19T14:20:21.453Z</time>
      </trkpt>
      <trkpt lat="31.83012" lon="35.00591">
        <ele>296</ele>
        <time>2026-02-19T14:20:22.453Z</time>
      </trkpt>
      <trkpt lat="31.830000000000002" lon="35.00629">
        <ele>296</ele>
        <time>2026-02-19T14:20:23.453Z</time>
      </trkpt>
      <trkpt lat="31.830000000000002" lon="35.00629">
        <ele>296</ele>
        <time>2026-02-19T14:20:24.453Z</time>
      </trkpt>
      <trkpt lat="31.82991" lon="35.00659">
        <ele>296</ele>
        <time>2026-02-19T14:20:25.453Z</time>
      </trkpt>
      <trkpt lat="31.82974" lon="35.00696">
        <ele>309</ele>
        <time>2026-02-19T14:20:26.453Z</time>
      </trkpt>
      <trkpt lat="31.829580000000004" lon="35.00724">
        <ele>309</ele>
        <time>2026-02-19T14:20:27.453Z</time>
      </trkpt>
      <trkpt lat="31.829470000000004" lon="35.00735">
        <ele>309</ele>
        <time>2026-02-19T14:20:28.453Z</time>
      </trkpt>
      <trkpt lat="31.829320000000003" lon="35.00746">
        <ele>309</ele>
        <time>2026-02-19T14:20:29.453Z</time>
      </trkpt>
      <trkpt lat="31.829250000000002" lon="35.007560000000005">
        <ele>306</ele>
        <time>2026-02-19T14:20:30.453Z</time>
      </trkpt>
      <trkpt lat="31.82916" lon="35.00761">
        <ele>306</ele>
        <time>2026-02-19T14:20:31.453Z</time>
      </trkpt>
      <trkpt lat="31.82916" lon="35.00761">
        <ele>306</ele>
        <time>2026-02-19T14:20:32.453Z</time>
      </trkpt>
      <trkpt lat="31.829250000000002" lon="35.007560000000005">
        <ele>306</ele>
        <time>2026-02-19T14:20:33.453Z</time>
      </trkpt>
      <trkpt lat="31.829230000000003" lon="35.00764">
        <ele>306</ele>
        <time>2026-02-19T14:20:34.453Z</time>
      </trkpt>
      <trkpt lat="31.829240000000002" lon="35.00773">
        <ele>306</ele>
        <time>2026-02-19T14:20:35.453Z</time>
      </trkpt>
      <trkpt lat="31.829330000000002" lon="35.008050000000004">
        <ele>318</ele>
        <time>2026-02-19T14:20:36.453Z</time>
      </trkpt>
      <trkpt lat="31.82937" lon="35.008300000000006">
        <ele>318</ele>
        <time>2026-02-19T14:20:37.453Z</time>
      </trkpt>
      <trkpt lat="31.82936" lon="35.00851">
        <ele>327</ele>
        <time>2026-02-19T14:20:38.453Z</time>
      </trkpt>
      <trkpt lat="31.829310000000003" lon="35.00885">
        <ele>327</ele>
        <time>2026-02-19T14:20:39.453Z</time>
      </trkpt>
      <trkpt lat="31.82927" lon="35.009550000000004">
        <ele>324.5</ele>
        <time>2026-02-19T14:20:40.453Z</time>
      </trkpt>
      <trkpt lat="31.82927" lon="35.009550000000004">
        <ele>324.5</ele>
        <time>2026-02-19T14:20:41.453Z</time>
      </trkpt>
      <trkpt lat="31.829280000000004" lon="35.009910000000005">
        <ele>322</ele>
        <time>2026-02-19T14:20:42.453Z</time>
      </trkpt>
      <trkpt lat="31.829330000000002" lon="35.010290000000005">
        <ele>343</ele>
        <time>2026-02-19T14:20:43.453Z</time>
      </trkpt>
      <trkpt lat="31.829480000000004" lon="35.010850000000005">
        <ele>344</ele>
        <time>2026-02-19T14:20:44.453Z</time>
      </trkpt>
      <trkpt lat="31.829500000000003" lon="35.01098">
        <ele>344</ele>
        <time>2026-02-19T14:20:45.453Z</time>
      </trkpt>
      <trkpt lat="31.829490000000003" lon="35.01115">
        <ele>344</ele>
        <time>2026-02-19T14:20:46.453Z</time>
      </trkpt>
      <trkpt lat="31.829430000000002" lon="35.011300000000006">
        <ele>344</ele>
        <time>2026-02-19T14:20:47.453Z</time>
      </trkpt>
      <trkpt lat="31.829230000000003" lon="35.01155">
        <ele>327</ele>
        <time>2026-02-19T14:20:48.453Z</time>
      </trkpt>
      <trkpt lat="31.829060000000002" lon="35.01192">
        <ele>326</ele>
        <time>2026-02-19T14:20:49.453Z</time>
      </trkpt>
      <trkpt lat="31.828940000000003" lon="35.01214">
        <ele>326</ele>
        <time>2026-02-19T14:20:50.453Z</time>
      </trkpt>
      <trkpt lat="31.828500000000002" lon="35.01276">
        <ele>327</ele>
        <time>2026-02-19T14:20:51.453Z</time>
      </trkpt>
      <trkpt lat="31.82824" lon="35.01328">
        <ele>312</ele>
        <time>2026-02-19T14:20:52.453Z</time>
      </trkpt>
      <trkpt lat="31.828260000000004" lon="35.013560000000005">
        <ele>305</ele>
        <time>2026-02-19T14:20:53.453Z</time>
      </trkpt>
      <trkpt lat="31.828260000000004" lon="35.013560000000005">
        <ele>305</ele>
        <time>2026-02-19T14:20:54.453Z</time>
      </trkpt>
      <trkpt lat="31.828460000000003" lon="35.01413">
        <ele>305</ele>
        <time>2026-02-19T14:20:55.453Z</time>
      </trkpt>
      <trkpt lat="31.828440000000004" lon="35.014390000000006">
        <ele>297</ele>
        <time>2026-02-19T14:20:56.453Z</time>
      </trkpt>
      <trkpt lat="31.828470000000003" lon="35.01559">
        <ele>296</ele>
        <time>2026-02-19T14:20:57.453Z</time>
      </trkpt>
      <trkpt lat="31.828470000000003" lon="35.01639">
        <ele>296</ele>
        <time>2026-02-19T14:20:58.453Z</time>
      </trkpt>
      <trkpt lat="31.828440000000004" lon="35.0165">
        <ele>296</ele>
        <time>2026-02-19T14:20:59.453Z</time>
      </trkpt>
      <trkpt lat="31.828380000000003" lon="35.01657">
        <ele>296</ele>
        <time>2026-02-19T14:21:00.453Z</time>
      </trkpt>
      <trkpt lat="31.828170000000004" lon="35.016690000000004">
        <ele>297</ele>
        <time>2026-02-19T14:21:01.453Z</time>
      </trkpt>
      <trkpt lat="31.827970000000004" lon="35.01675">
        <ele>297</ele>
        <time>2026-02-19T14:21:02.453Z</time>
      </trkpt>
      <trkpt lat="31.82794" lon="35.016740000000006">
        <ele>297</ele>
        <time>2026-02-19T14:21:03.453Z</time>
      </trkpt>
      <trkpt lat="31.82794" lon="35.016740000000006">
        <ele>297</ele>
        <time>2026-02-19T14:21:04.453Z</time>
      </trkpt>
      <trkpt lat="31.827970000000004" lon="35.01675">
        <ele>297</ele>
        <time>2026-02-19T14:21:05.453Z</time>
      </trkpt>
      <trkpt lat="31.828100000000003" lon="35.01681">
        <ele>297</ele>
        <time>2026-02-19T14:21:06.453Z</time>
      </trkpt>
      <trkpt lat="31.828100000000003" lon="35.016890000000004">
        <ele>297</ele>
        <time>2026-02-19T14:21:07.453Z</time>
      </trkpt>
      <trkpt lat="31.82814" lon="35.01708">
        <ele>297</ele>
        <time>2026-02-19T14:21:08.453Z</time>
      </trkpt>
      <trkpt lat="31.828120000000002" lon="35.01729">
        <ele>297</ele>
        <time>2026-02-19T14:21:09.453Z</time>
      </trkpt>
      <trkpt lat="31.828080000000003" lon="35.01753">
        <ele>301</ele>
        <time>2026-02-19T14:21:10.453Z</time>
      </trkpt>
      <trkpt lat="31.82794" lon="35.01803">
        <ele>301</ele>
        <time>2026-02-19T14:21:11.453Z</time>
      </trkpt>
      <trkpt lat="31.827930000000002" lon="35.01823">
        <ele>301</ele>
        <time>2026-02-19T14:21:12.453Z</time>
      </trkpt>
      <trkpt lat="31.828080000000003" lon="35.018480000000004">
        <ele>306</ele>
        <time>2026-02-19T14:21:13.453Z</time>
      </trkpt>
      <trkpt lat="31.828080000000003" lon="35.018480000000004">
        <ele>306</ele>
        <time>2026-02-19T14:21:14.453Z</time>
      </trkpt>
      <trkpt lat="31.828350000000004" lon="35.01885">
        <ele>306</ele>
        <time>2026-02-19T14:21:15.453Z</time>
      </trkpt>
      <trkpt lat="31.828450000000004" lon="35.019020000000005">
        <ele>306</ele>
        <time>2026-02-19T14:21:16.453Z</time>
      </trkpt>
      <trkpt lat="31.82852" lon="35.019270000000006">
        <ele>314</ele>
        <time>2026-02-19T14:21:17.453Z</time>
      </trkpt>
      <trkpt lat="31.82843" lon="35.01937">
        <ele>311</ele>
        <time>2026-02-19T14:21:18.453Z</time>
      </trkpt>
      <trkpt lat="31.82843" lon="35.01937">
        <ele>311</ele>
        <time>2026-02-19T14:21:19.453Z</time>
      </trkpt>
      <trkpt lat="31.82852" lon="35.019270000000006">
        <ele>314</ele>
        <time>2026-02-19T14:21:20.453Z</time>
      </trkpt>
      <trkpt lat="31.829030000000003" lon="35.01935">
        <ele>314</ele>
        <time>2026-02-19T14:21:21.453Z</time>
      </trkpt>
      <trkpt lat="31.829510000000003" lon="35.01939">
        <ele>324</ele>
        <time>2026-02-19T14:21:22.453Z</time>
      </trkpt>
      <trkpt lat="31.829510000000003" lon="35.01939">
        <ele>324</ele>
        <time>2026-02-19T14:21:23.453Z</time>
      </trkpt>
      <trkpt lat="31.829720000000002" lon="35.01939">
        <ele>324</ele>
        <time>2026-02-19T14:21:24.453Z</time>
      </trkpt>
      <trkpt lat="31.83019" lon="35.01932">
        <ele>335</ele>
        <time>2026-02-19T14:21:25.453Z</time>
      </trkpt>
      <trkpt lat="31.83049" lon="35.01934">
        <ele>335</ele>
        <time>2026-02-19T14:21:26.453Z</time>
      </trkpt>
      <trkpt lat="31.830780000000004" lon="35.01943">
        <ele>335</ele>
        <time>2026-02-19T14:21:27.453Z</time>
      </trkpt>
      <trkpt lat="31.831000000000003" lon="35.019540000000006">
        <ele>353</ele>
        <time>2026-02-19T14:21:28.453Z</time>
      </trkpt>
      <trkpt lat="31.83132" lon="35.019740000000006">
        <ele>353</ele>
        <time>2026-02-19T14:21:29.453Z</time>
      </trkpt>
      <trkpt lat="31.83188" lon="35.020250000000004">
        <ele>371</ele>
        <time>2026-02-19T14:21:30.453Z</time>
      </trkpt>
      <trkpt lat="31.832420000000003" lon="35.020830000000004">
        <ele>364</ele>
        <time>2026-02-19T14:21:31.453Z</time>
      </trkpt>
      <trkpt lat="31.832310000000003" lon="35.02076">
        <ele>367.5</ele>
        <time>2026-02-19T14:21:32.453Z</time>
      </trkpt>
      <trkpt lat="31.832310000000003" lon="35.02076">
        <ele>367.5</ele>
        <time>2026-02-19T14:21:33.453Z</time>
      </trkpt>
      <trkpt lat="31.832420000000003" lon="35.020830000000004">
        <ele>364</ele>
        <time>2026-02-19T14:21:34.453Z</time>
      </trkpt>
      <trkpt lat="31.832760000000004" lon="35.02125">
        <ele>386</ele>
        <time>2026-02-19T14:21:35.453Z</time>
      </trkpt>
      <trkpt lat="31.832870000000003" lon="35.021530000000006">
        <ele>386</ele>
        <time>2026-02-19T14:21:36.453Z</time>
      </trkpt>
      <trkpt lat="31.832910000000002" lon="35.021770000000004">
        <ele>382</ele>
        <time>2026-02-19T14:21:37.453Z</time>
      </trkpt>
      <trkpt lat="31.83293" lon="35.02207">
        <ele>382</ele>
        <time>2026-02-19T14:21:38.453Z</time>
      </trkpt>
      <trkpt lat="31.83292" lon="35.02264">
        <ele>387</ele>
        <time>2026-02-19T14:21:39.453Z</time>
      </trkpt>
      <trkpt lat="31.83292" lon="35.02264">
        <ele>387</ele>
        <time>2026-02-19T14:21:40.453Z</time>
      </trkpt>
      <trkpt lat="31.832970000000003" lon="35.02295">
        <ele>387</ele>
        <time>2026-02-19T14:21:41.453Z</time>
      </trkpt>
      <trkpt lat="31.833040000000004" lon="35.02322">
        <ele>387</ele>
        <time>2026-02-19T14:21:42.453Z</time>
      </trkpt>
      <trkpt lat="31.83311" lon="35.02331">
        <ele>390</ele>
        <time>2026-02-19T14:21:43.453Z</time>
      </trkpt>
      <trkpt lat="31.8332" lon="35.02338">
        <ele>390</ele>
        <time>2026-02-19T14:21:44.453Z</time>
      </trkpt>
      <trkpt lat="31.833370000000002" lon="35.023450000000004">
        <ele>390</ele>
        <time>2026-02-19T14:21:45.453Z</time>
      </trkpt>
      <trkpt lat="31.833440000000003" lon="35.02346">
        <ele>390</ele>
        <time>2026-02-19T14:21:46.453Z</time>
      </trkpt>
      <trkpt lat="31.833540000000003" lon="35.023410000000005">
        <ele>394</ele>
        <time>2026-02-19T14:21:47.453Z</time>
      </trkpt>
      <trkpt lat="31.833650000000002" lon="35.02322">
        <ele>394</ele>
        <time>2026-02-19T14:21:48.453Z</time>
      </trkpt>
      <trkpt lat="31.833730000000003" lon="35.022600000000004">
        <ele>393.5</ele>
        <time>2026-02-19T14:21:49.453Z</time>
      </trkpt>
      <trkpt lat="31.833730000000003" lon="35.022600000000004">
        <ele>393.5</ele>
        <time>2026-02-19T14:21:50.453Z</time>
      </trkpt>
      <trkpt lat="31.833820000000003" lon="35.02185">
        <ele>393</ele>
        <time>2026-02-19T14:21:51.453Z</time>
      </trkpt>
      <trkpt lat="31.833920000000003" lon="35.021240000000006">
        <ele>396</ele>
        <time>2026-02-19T14:21:52.453Z</time>
      </trkpt>
      <trkpt lat="31.83404" lon="35.02091">
        <ele>396</ele>
        <time>2026-02-19T14:21:53.453Z</time>
      </trkpt>
      <trkpt lat="31.834130000000002" lon="35.02074">
        <ele>393</ele>
        <time>2026-02-19T14:21:54.453Z</time>
      </trkpt>
      <trkpt lat="31.834300000000002" lon="35.02046">
        <ele>387</ele>
        <time>2026-02-19T14:21:55.453Z</time>
      </trkpt>
      <trkpt lat="31.834500000000002" lon="35.02024">
        <ele>387</ele>
        <time>2026-02-19T14:21:56.453Z</time>
      </trkpt>
      <trkpt lat="31.834590000000002" lon="35.02017">
        <ele>387</ele>
        <time>2026-02-19T14:21:57.453Z</time>
      </trkpt>
      <trkpt lat="31.834590000000002" lon="35.02017">
        <ele>387</ele>
        <time>2026-02-19T14:21:58.453Z</time>
      </trkpt>
      <trkpt lat="31.834690000000002" lon="35.02009">
        <ele>387</ele>
        <time>2026-02-19T14:21:59.453Z</time>
      </trkpt>
      <trkpt lat="31.835400000000003" lon="35.019650000000006">
        <ele>378</ele>
        <time>2026-02-19T14:22:00.453Z</time>
      </trkpt>
      <trkpt lat="31.83556" lon="35.01948">
        <ele>378</ele>
        <time>2026-02-19T14:22:01.453Z</time>
      </trkpt>
      <trkpt lat="31.835700000000003" lon="35.01924">
        <ele>378</ele>
        <time>2026-02-19T14:22:02.453Z</time>
      </trkpt>
      <trkpt lat="31.835810000000002" lon="35.01897">
        <ele>378</ele>
        <time>2026-02-19T14:22:03.453Z</time>
      </trkpt>
      <trkpt lat="31.83584" lon="35.018730000000005">
        <ele>378</ele>
        <time>2026-02-19T14:22:04.453Z</time>
      </trkpt>
      <trkpt lat="31.835990000000002" lon="35.018100000000004">
        <ele>381</ele>
        <time>2026-02-19T14:22:05.453Z</time>
      </trkpt>
      <trkpt lat="31.83612" lon="35.01784">
        <ele>381</ele>
        <time>2026-02-19T14:22:06.453Z</time>
      </trkpt>
      <trkpt lat="31.836270000000003" lon="35.01764">
        <ele>381</ele>
        <time>2026-02-19T14:22:07.453Z</time>
      </trkpt>
      <trkpt lat="31.837040000000002" lon="35.016960000000005">
        <ele>380</ele>
        <time>2026-02-19T14:22:08.453Z</time>
      </trkpt>
      <trkpt lat="31.837290000000003" lon="35.016630000000006">
        <ele>376</ele>
        <time>2026-02-19T14:22:09.453Z</time>
      </trkpt>
      <trkpt lat="31.837400000000002" lon="35.01644">
        <ele>376</ele>
        <time>2026-02-19T14:22:10.453Z</time>
      </trkpt>
      <trkpt lat="31.837400000000002" lon="35.01644">
        <ele>376</ele>
        <time>2026-02-19T14:22:11.453Z</time>
      </trkpt>
      <trkpt lat="31.83762" lon="35.015980000000006">
        <ele>376</ele>
        <time>2026-02-19T14:22:12.453Z</time>
      </trkpt>
      <trkpt lat="31.837680000000002" lon="35.015750000000004">
        <ele>373</ele>
        <time>2026-02-19T14:22:13.453Z</time>
      </trkpt>
      <trkpt lat="31.837690000000002" lon="35.01549">
        <ele>373</ele>
        <time>2026-02-19T14:22:14.453Z</time>
      </trkpt>
      <trkpt lat="31.837690000000002" lon="35.01549">
        <ele>373</ele>
        <time>2026-02-19T14:22:15.453Z</time>
      </trkpt>
      <trkpt lat="31.837680000000002" lon="35.015750000000004">
        <ele>373</ele>
        <time>2026-02-19T14:22:16.453Z</time>
      </trkpt>
      <trkpt lat="31.837880000000002" lon="35.01569">
        <ele>373</ele>
        <time>2026-02-19T14:22:17.453Z</time>
      </trkpt>
      <trkpt lat="31.837970000000002" lon="35.015710000000006">
        <ele>373</ele>
        <time>2026-02-19T14:22:18.453Z</time>
      </trkpt>
      <trkpt lat="31.838030000000003" lon="35.01574">
        <ele>373</ele>
        <time>2026-02-19T14:22:19.453Z</time>
      </trkpt>
      <trkpt lat="31.838140000000003" lon="35.01586">
        <ele>375</ele>
        <time>2026-02-19T14:22:20.453Z</time>
      </trkpt>
      <trkpt lat="31.838140000000003" lon="35.01586">
        <ele>375</ele>
        <time>2026-02-19T14:22:21.453Z</time>
      </trkpt>
      <trkpt lat="31.838120000000004" lon="35.015840000000004">
        <ele>375</ele>
        <time>2026-02-19T14:22:22.453Z</time>
      </trkpt>
      <trkpt lat="31.838140000000003" lon="35.01581">
        <ele>373</ele>
        <time>2026-02-19T14:22:23.453Z</time>
      </trkpt>
      <trkpt lat="31.838200000000004" lon="35.015800000000006">
        <ele>373</ele>
        <time>2026-02-19T14:22:24.453Z</time>
      </trkpt>
      <trkpt lat="31.838310000000003" lon="35.0157">
        <ele>373</ele>
        <time>2026-02-19T14:22:25.453Z</time>
      </trkpt>
      <trkpt lat="31.838380000000004" lon="35.01556">
        <ele>373</ele>
        <time>2026-02-19T14:22:26.453Z</time>
      </trkpt>
      <trkpt lat="31.838490000000004" lon="35.015420000000006">
        <ele>377</ele>
        <time>2026-02-19T14:22:27.453Z</time>
      </trkpt>
      <trkpt lat="31.838690000000003" lon="35.01487">
        <ele>378</ele>
        <time>2026-02-19T14:22:28.453Z</time>
      </trkpt>
      <trkpt lat="31.83903" lon="35.01417">
        <ele>378</ele>
        <time>2026-02-19T14:22:29.453Z</time>
      </trkpt>
      <trkpt lat="31.83911" lon="35.01393">
        <ele>378</ele>
        <time>2026-02-19T14:22:30.453Z</time>
      </trkpt>
      <trkpt lat="31.839230000000004" lon="35.01344">
        <ele>378</ele>
        <time>2026-02-19T14:22:31.453Z</time>
      </trkpt>
      <trkpt lat="31.8393" lon="35.01332">
        <ele>380</ele>
        <time>2026-02-19T14:22:32.453Z</time>
      </trkpt>
      <trkpt lat="31.8393" lon="35.01332">
        <ele>380</ele>
        <time>2026-02-19T14:22:33.453Z</time>
      </trkpt>
      <trkpt lat="31.839510000000004" lon="35.01294">
        <ele>382</ele>
        <time>2026-02-19T14:22:34.453Z</time>
      </trkpt>
      <trkpt lat="31.839550000000003" lon="35.012820000000005">
        <ele>382</ele>
        <time>2026-02-19T14:22:35.453Z</time>
      </trkpt>
      <trkpt lat="31.839620000000004" lon="35.012530000000005">
        <ele>382</ele>
        <time>2026-02-19T14:22:36.453Z</time>
      </trkpt>
      <trkpt lat="31.839700000000004" lon="35.011860000000006">
        <ele>381</ele>
        <time>2026-02-19T14:22:37.453Z</time>
      </trkpt>
      <trkpt lat="31.839800000000004" lon="35.011390000000006">
        <ele>380</ele>
        <time>2026-02-19T14:22:38.453Z</time>
      </trkpt>
      <trkpt lat="31.83988" lon="35.01086">
        <ele>380</ele>
        <time>2026-02-19T14:22:39.453Z</time>
      </trkpt>
      <trkpt lat="31.839940000000002" lon="35.01066">
        <ele>375</ele>
        <time>2026-02-19T14:22:40.453Z</time>
      </trkpt>
      <trkpt lat="31.84015" lon="35.01034">
        <ele>381</ele>
        <time>2026-02-19T14:22:41.453Z</time>
      </trkpt>
      <trkpt lat="31.84015" lon="35.01034">
        <ele>381</ele>
        <time>2026-02-19T14:22:42.453Z</time>
      </trkpt>
      <trkpt lat="31.840320000000002" lon="35.010040000000004">
        <ele>381</ele>
        <time>2026-02-19T14:22:43.453Z</time>
      </trkpt>
      <trkpt lat="31.84042" lon="35.0099">
        <ele>374</ele>
        <time>2026-02-19T14:22:44.453Z</time>
      </trkpt>
      <trkpt lat="31.84053" lon="35.00983">
        <ele>374</ele>
        <time>2026-02-19T14:22:45.453Z</time>
      </trkpt>
      <trkpt lat="31.84062" lon="35.00983">
        <ele>374</ele>
        <time>2026-02-19T14:22:46.453Z</time>
      </trkpt>
      <trkpt lat="31.840860000000003" lon="35.00995">
        <ele>374</ele>
        <time>2026-02-19T14:22:47.453Z</time>
      </trkpt>
      <trkpt lat="31.84108" lon="35.010000000000005">
        <ele>372</ele>
        <time>2026-02-19T14:22:48.453Z</time>
      </trkpt>
      <trkpt lat="31.841210000000004" lon="35.00999">
        <ele>372</ele>
        <time>2026-02-19T14:22:49.453Z</time>
      </trkpt>
      <trkpt lat="31.84138" lon="35.00992">
        <ele>369</ele>
        <time>2026-02-19T14:22:50.453Z</time>
      </trkpt>
      <trkpt lat="31.841590000000004" lon="35.00987">
        <ele>369</ele>
        <time>2026-02-19T14:22:51.453Z</time>
      </trkpt>
      <trkpt lat="31.841680000000004" lon="35.00983">
        <ele>369</ele>
        <time>2026-02-19T14:22:52.453Z</time>
      </trkpt>
      <trkpt lat="31.841820000000002" lon="35.009600000000006">
        <ele>363</ele>
        <time>2026-02-19T14:22:53.453Z</time>
      </trkpt>
      <trkpt lat="31.841870000000004" lon="35.00956">
        <ele>363</ele>
        <time>2026-02-19T14:22:54.453Z</time>
      </trkpt>
      <trkpt lat="31.841870000000004" lon="35.00956">
        <ele>363</ele>
        <time>2026-02-19T14:22:55.453Z</time>
      </trkpt>
      <trkpt lat="31.842250000000003" lon="35.00927">
        <ele>363</ele>
        <time>2026-02-19T14:22:56.453Z</time>
      </trkpt>
      <trkpt lat="31.84239" lon="35.009130000000006">
        <ele>356</ele>
        <time>2026-02-19T14:22:57.453Z</time>
      </trkpt>
      <trkpt lat="31.842550000000003" lon="35.00891">
        <ele>356</ele>
        <time>2026-02-19T14:22:58.453Z</time>
      </trkpt>
      <trkpt lat="31.842620000000004" lon="35.00864">
        <ele>356</ele>
        <time>2026-02-19T14:22:59.453Z</time>
      </trkpt>
      <trkpt lat="31.842640000000003" lon="35.00849">
        <ele>349</ele>
        <time>2026-02-19T14:23:00.453Z</time>
      </trkpt>
      <trkpt lat="31.842630000000003" lon="35.0082">
        <ele>347</ele>
        <time>2026-02-19T14:23:01.453Z</time>
      </trkpt>
      <trkpt lat="31.842640000000003" lon="35.008120000000005">
        <ele>346</ele>
        <time>2026-02-19T14:23:02.453Z</time>
      </trkpt>
      <trkpt lat="31.84268" lon="35.008050000000004">
        <ele>346</ele>
        <time>2026-02-19T14:23:03.453Z</time>
      </trkpt>
      <trkpt lat="31.842750000000002" lon="35.00799">
        <ele>346</ele>
        <time>2026-02-19T14:23:04.453Z</time>
      </trkpt>
      <trkpt lat="31.843300000000003" lon="35.00795">
        <ele>346</ele>
        <time>2026-02-19T14:23:05.453Z</time>
      </trkpt>
      <trkpt lat="31.84344" lon="35.007960000000004">
        <ele>346</ele>
        <time>2026-02-19T14:23:06.453Z</time>
      </trkpt>
      <trkpt lat="31.84353" lon="35.007940000000005">
        <ele>335</ele>
        <time>2026-02-19T14:23:07.453Z</time>
      </trkpt>
      <trkpt lat="31.843580000000003" lon="35.007870000000004">
        <ele>335</ele>
        <time>2026-02-19T14:23:08.453Z</time>
      </trkpt>
      <trkpt lat="31.84362" lon="35.007780000000004">
        <ele>335</ele>
        <time>2026-02-19T14:23:09.453Z</time>
      </trkpt>
      <trkpt lat="31.84362" lon="35.007780000000004">
        <ele>335</ele>
        <time>2026-02-19T14:23:10.453Z</time>
      </trkpt>
      <trkpt lat="31.843670000000003" lon="35.00766">
        <ele>335</ele>
        <time>2026-02-19T14:23:11.453Z</time>
      </trkpt>
      <trkpt lat="31.843740000000004" lon="35.007560000000005">
        <ele>335</ele>
        <time>2026-02-19T14:23:12.453Z</time>
      </trkpt>
      <trkpt lat="31.843850000000003" lon="35.0075">
        <ele>335</ele>
        <time>2026-02-19T14:23:13.453Z</time>
      </trkpt>
      <trkpt lat="31.843940000000003" lon="35.00742">
        <ele>332</ele>
        <time>2026-02-19T14:23:14.453Z</time>
      </trkpt>
      <trkpt lat="31.844060000000002" lon="35.00721">
        <ele>332</ele>
        <time>2026-02-19T14:23:15.453Z</time>
      </trkpt>
      <trkpt lat="31.844110000000004" lon="35.00717">
        <ele>332</ele>
        <time>2026-02-19T14:23:16.453Z</time>
      </trkpt>
      <trkpt lat="31.84427" lon="35.007130000000004">
        <ele>332</ele>
        <time>2026-02-19T14:23:17.453Z</time>
      </trkpt>
      <trkpt lat="31.84437" lon="35.00705">
        <ele>326</ele>
        <time>2026-02-19T14:23:18.453Z</time>
      </trkpt>
      <trkpt lat="31.84455" lon="35.00677">
        <ele>326</ele>
        <time>2026-02-19T14:23:19.453Z</time>
      </trkpt>
      <trkpt lat="31.844610000000003" lon="35.006600000000006">
        <ele>324</ele>
        <time>2026-02-19T14:23:20.453Z</time>
      </trkpt>
      <trkpt lat="31.844610000000003" lon="35.006600000000006">
        <ele>324</ele>
        <time>2026-02-19T14:23:21.453Z</time>
      </trkpt>
      <trkpt lat="31.844820000000002" lon="35.00605">
        <ele>322</ele>
        <time>2026-02-19T14:23:22.453Z</time>
      </trkpt>
      <trkpt lat="31.84465" lon="35.005970000000005">
        <ele>322</ele>
        <time>2026-02-19T14:23:23.453Z</time>
      </trkpt>
      <trkpt lat="31.844070000000002" lon="35.005570000000006">
        <ele>317</ele>
        <time>2026-02-19T14:23:24.453Z</time>
      </trkpt>
      <trkpt lat="31.8438" lon="35.005320000000005">
        <ele>317</ele>
        <time>2026-02-19T14:23:25.453Z</time>
      </trkpt>
      <trkpt lat="31.843700000000002" lon="35.00518">
        <ele>317</ele>
        <time>2026-02-19T14:23:26.453Z</time>
      </trkpt>
      <trkpt lat="31.84363" lon="35.005">
        <ele>317</ele>
        <time>2026-02-19T14:23:27.453Z</time>
      </trkpt>
      <trkpt lat="31.843550000000004" lon="35.00468">
        <ele>312</ele>
        <time>2026-02-19T14:23:28.453Z</time>
      </trkpt>
      <trkpt lat="31.843550000000004" lon="35.00468">
        <ele>312</ele>
        <time>2026-02-19T14:23:29.453Z</time>
      </trkpt>
      <trkpt lat="31.84352" lon="35.00451">
        <ele>312</ele>
        <time>2026-02-19T14:23:30.453Z</time>
      </trkpt>
      <trkpt lat="31.84352" lon="35.00437">
        <ele>312</ele>
        <time>2026-02-19T14:23:31.453Z</time>
      </trkpt>
      <trkpt lat="31.843550000000004" lon="35.00424">
        <ele>312</ele>
        <time>2026-02-19T14:23:32.453Z</time>
      </trkpt>
      <trkpt lat="31.843750000000004" lon="35.003690000000006">
        <ele>307</ele>
        <time>2026-02-19T14:23:33.453Z</time>
      </trkpt>
      <trkpt lat="31.843960000000003" lon="35.00347">
        <ele>307</ele>
        <time>2026-02-19T14:23:34.453Z</time>
      </trkpt>
      <trkpt lat="31.844020000000004" lon="35.00332">
        <ele>304</ele>
        <time>2026-02-19T14:23:35.453Z</time>
      </trkpt>
      <trkpt lat="31.844010000000004" lon="35.003240000000005">
        <ele>304</ele>
        <time>2026-02-19T14:23:36.453Z</time>
      </trkpt>
      <trkpt lat="31.843980000000002" lon="35.003150000000005">
        <ele>304</ele>
        <time>2026-02-19T14:23:37.453Z</time>
      </trkpt>
      <trkpt lat="31.8439" lon="35.00307">
        <ele>304</ele>
        <time>2026-02-19T14:23:38.453Z</time>
      </trkpt>
      <trkpt lat="31.84382" lon="35.00303">
        <ele>304</ele>
        <time>2026-02-19T14:23:39.453Z</time>
      </trkpt>
      <trkpt lat="31.843660000000003" lon="35.00305">
        <ele>304</ele>
        <time>2026-02-19T14:23:40.453Z</time>
      </trkpt>
      <trkpt lat="31.843570000000003" lon="35.00311">
        <ele>304</ele>
        <time>2026-02-19T14:23:41.453Z</time>
      </trkpt>
      <trkpt lat="31.843570000000003" lon="35.00311">
        <ele>304</ele>
        <time>2026-02-19T14:23:42.453Z</time>
      </trkpt>
      <trkpt lat="31.84334" lon="35.00323">
        <ele>298</ele>
        <time>2026-02-19T14:23:43.453Z</time>
      </trkpt>
      <trkpt lat="31.843270000000004" lon="35.003220000000006">
        <ele>298</ele>
        <time>2026-02-19T14:23:44.453Z</time>
      </trkpt>
      <trkpt lat="31.843210000000003" lon="35.00316">
        <ele>298</ele>
        <time>2026-02-19T14:23:45.453Z</time>
      </trkpt>
      <trkpt lat="31.843190000000003" lon="35.003080000000004">
        <ele>298</ele>
        <time>2026-02-19T14:23:46.453Z</time>
      </trkpt>
      <trkpt lat="31.843210000000003" lon="35.003">
        <ele>298</ele>
        <time>2026-02-19T14:23:47.453Z</time>
      </trkpt>
      <trkpt lat="31.843260000000004" lon="35.00289">
        <ele>298</ele>
        <time>2026-02-19T14:23:48.453Z</time>
      </trkpt>
      <trkpt lat="31.843310000000002" lon="35.002700000000004">
        <ele>298</ele>
        <time>2026-02-19T14:23:49.453Z</time>
      </trkpt>
      <trkpt lat="31.843310000000002" lon="35.00264">
        <ele>298</ele>
        <time>2026-02-19T14:23:50.453Z</time>
      </trkpt>
      <trkpt lat="31.843290000000003" lon="35.00251">
        <ele>298</ele>
        <time>2026-02-19T14:23:51.453Z</time>
      </trkpt>
      <trkpt lat="31.843100000000003" lon="35.002230000000004">
        <ele>292</ele>
        <time>2026-02-19T14:23:52.453Z</time>
      </trkpt>
      <trkpt lat="31.843010000000003" lon="35.00211">
        <ele>292</ele>
        <time>2026-02-19T14:23:53.453Z</time>
      </trkpt>
      <trkpt lat="31.843010000000003" lon="35.00211">
        <ele>292</ele>
        <time>2026-02-19T14:23:54.453Z</time>
      </trkpt>
      <trkpt lat="31.84287" lon="35.00191">
        <ele>292</ele>
        <time>2026-02-19T14:23:55.453Z</time>
      </trkpt>
      <trkpt lat="31.842740000000003" lon="35.001650000000005">
        <ele>279</ele>
        <time>2026-02-19T14:23:56.453Z</time>
      </trkpt>
      <trkpt lat="31.84269" lon="35.00159">
        <ele>279</ele>
        <time>2026-02-19T14:23:57.453Z</time>
      </trkpt>
      <trkpt lat="31.842510000000004" lon="35.001540000000006">
        <ele>278</ele>
        <time>2026-02-19T14:23:58.453Z</time>
      </trkpt>
      <trkpt lat="31.842370000000003" lon="35.001560000000005">
        <ele>278</ele>
        <time>2026-02-19T14:23:59.453Z</time>
      </trkpt>
      <trkpt lat="31.84231" lon="35.0016">
        <ele>278</ele>
        <time>2026-02-19T14:24:00.453Z</time>
      </trkpt>
      <trkpt lat="31.842280000000002" lon="35.001630000000006">
        <ele>278</ele>
        <time>2026-02-19T14:24:01.453Z</time>
      </trkpt>
      <trkpt lat="31.842260000000003" lon="35.001760000000004">
        <ele>288</ele>
        <time>2026-02-19T14:24:02.453Z</time>
      </trkpt>
      <trkpt lat="31.842260000000003" lon="35.0018">
        <ele>288</ele>
        <time>2026-02-19T14:24:03.453Z</time>
      </trkpt>
      <trkpt lat="31.842350000000003" lon="35.00217">
        <ele>288</ele>
        <time>2026-02-19T14:24:04.453Z</time>
      </trkpt>
      <trkpt lat="31.842330000000004" lon="35.00224">
        <ele>288</ele>
        <time>2026-02-19T14:24:05.453Z</time>
      </trkpt>
      <trkpt lat="31.842330000000004" lon="35.00224">
        <ele>288</ele>
        <time>2026-02-19T14:24:06.453Z</time>
      </trkpt>
      <trkpt lat="31.8423" lon="35.00227">
        <ele>288</ele>
        <time>2026-02-19T14:24:07.453Z</time>
      </trkpt>
      <trkpt lat="31.842010000000002" lon="35.002120000000005">
        <ele>288</ele>
        <time>2026-02-19T14:24:08.453Z</time>
      </trkpt>
      <trkpt lat="31.84174" lon="35.002460000000006">
        <ele>278</ele>
        <time>2026-02-19T14:24:09.453Z</time>
      </trkpt>
      <trkpt lat="31.84155" lon="35.002660000000006">
        <ele>281</ele>
        <time>2026-02-19T14:24:10.453Z</time>
      </trkpt>
      <trkpt lat="31.84155" lon="35.002660000000006">
        <ele>281</ele>
        <time>2026-02-19T14:24:11.453Z</time>
      </trkpt>
      <trkpt lat="31.841500000000003" lon="35.00271">
        <ele>284</ele>
        <time>2026-02-19T14:24:12.453Z</time>
      </trkpt>
      <trkpt lat="31.84146" lon="35.00278">
        <ele>284</ele>
        <time>2026-02-19T14:24:13.453Z</time>
      </trkpt>
      <trkpt lat="31.841430000000003" lon="35.0028">
        <ele>284</ele>
        <time>2026-02-19T14:24:14.453Z</time>
      </trkpt>
      <trkpt lat="31.841350000000002" lon="35.0028">
        <ele>284</ele>
        <time>2026-02-19T14:24:15.453Z</time>
      </trkpt>
      <trkpt lat="31.84119" lon="35.00276">
        <ele>284</ele>
        <time>2026-02-19T14:24:16.453Z</time>
      </trkpt>
      <trkpt lat="31.84119" lon="35.00276">
        <ele>284</ele>
        <time>2026-02-19T14:24:17.453Z</time>
      </trkpt>
      <trkpt lat="31.841110000000004" lon="35.00274">
        <ele>284</ele>
        <time>2026-02-19T14:24:18.453Z</time>
      </trkpt>
      <trkpt lat="31.841" lon="35.0026">
        <ele>284</ele>
        <time>2026-02-19T14:24:19.453Z</time>
      </trkpt>
      <trkpt lat="31.841020000000004" lon="35.0024">
        <ele>278</ele>
        <time>2026-02-19T14:24:20.453Z</time>
      </trkpt>
      <trkpt lat="31.841060000000002" lon="35.002320000000005">
        <ele>278</ele>
        <time>2026-02-19T14:24:21.453Z</time>
      </trkpt>
      <trkpt lat="31.841160000000002" lon="35.00222">
        <ele>278</ele>
        <time>2026-02-19T14:24:22.453Z</time>
      </trkpt>
      <trkpt lat="31.841450000000002" lon="35.002010000000006">
        <ele>278</ele>
        <time>2026-02-19T14:24:23.453Z</time>
      </trkpt>
      <trkpt lat="31.841510000000003" lon="35.001940000000005">
        <ele>278</ele>
        <time>2026-02-19T14:24:24.453Z</time>
      </trkpt>
      <trkpt lat="31.841540000000002" lon="35.00186">
        <ele>278</ele>
        <time>2026-02-19T14:24:25.453Z</time>
      </trkpt>
      <trkpt lat="31.84155" lon="35.00179">
        <ele>278</ele>
        <time>2026-02-19T14:24:26.453Z</time>
      </trkpt>
      <trkpt lat="31.84155" lon="35.001630000000006">
        <ele>271</ele>
        <time>2026-02-19T14:24:27.453Z</time>
      </trkpt>
      <trkpt lat="31.841480000000004" lon="35.001310000000004">
        <ele>271</ele>
        <time>2026-02-19T14:24:28.453Z</time>
      </trkpt>
      <trkpt lat="31.841480000000004" lon="35.00121">
        <ele>271</ele>
        <time>2026-02-19T14:24:29.453Z</time>
      </trkpt>
      <trkpt lat="31.841510000000003" lon="35.001070000000006">
        <ele>271</ele>
        <time>2026-02-19T14:24:30.453Z</time>
      </trkpt>
      <trkpt lat="31.841610000000003" lon="35.00092">
        <ele>271</ele>
        <time>2026-02-19T14:24:31.453Z</time>
      </trkpt>
      <trkpt lat="31.841610000000003" lon="35.00092">
        <ele>271</ele>
        <time>2026-02-19T14:24:32.453Z</time>
      </trkpt>
      <trkpt lat="31.84185" lon="35.00068">
        <ele>266</ele>
        <time>2026-02-19T14:24:33.453Z</time>
      </trkpt>
      <trkpt lat="31.84221" lon="35.000420000000005">
        <ele>266</ele>
        <time>2026-02-19T14:24:34.453Z</time>
      </trkpt>
      <trkpt lat="31.84232" lon="35.000400000000006">
        <ele>266</ele>
        <time>2026-02-19T14:24:35.453Z</time>
      </trkpt>
      <trkpt lat="31.842730000000003" lon="35.000400000000006">
        <ele>268</ele>
        <time>2026-02-19T14:24:36.453Z</time>
      </trkpt>
      <trkpt lat="31.842850000000002" lon="35.00036">
        <ele>268</ele>
        <time>2026-02-19T14:24:37.453Z</time>
      </trkpt>
      <trkpt lat="31.842950000000002" lon="35.00029">
        <ele>268</ele>
        <time>2026-02-19T14:24:38.453Z</time>
      </trkpt>
      <trkpt lat="31.842990000000004" lon="35.000220000000006">
        <ele>268</ele>
        <time>2026-02-19T14:24:39.453Z</time>
      </trkpt>
      <trkpt lat="31.843090000000004" lon="34.999950000000005">
        <ele>268</ele>
        <time>2026-02-19T14:24:40.453Z</time>
      </trkpt>
      <trkpt lat="31.843280000000004" lon="34.999230000000004">
        <ele>268</ele>
        <time>2026-02-19T14:24:41.453Z</time>
      </trkpt>
      <trkpt lat="31.843360000000004" lon="34.99882">
        <ele>263</ele>
        <time>2026-02-19T14:24:42.453Z</time>
      </trkpt>
      <trkpt lat="31.84344" lon="34.99869">
        <ele>263</ele>
        <time>2026-02-19T14:24:43.453Z</time>
      </trkpt>
      <trkpt lat="31.843490000000003" lon="34.99864">
        <ele>264</ele>
        <time>2026-02-19T14:24:44.453Z</time>
      </trkpt>
      <trkpt lat="31.843640000000004" lon="34.998560000000005">
        <ele>264</ele>
        <time>2026-02-19T14:24:45.453Z</time>
      </trkpt>
      <trkpt lat="31.843640000000004" lon="34.998560000000005">
        <ele>264</ele>
        <time>2026-02-19T14:24:46.453Z</time>
      </trkpt>
      <trkpt lat="31.844130000000003" lon="34.99835">
        <ele>264</ele>
        <time>2026-02-19T14:24:47.453Z</time>
      </trkpt>
      <trkpt lat="31.844330000000003" lon="34.99823">
        <ele>260</ele>
        <time>2026-02-19T14:24:48.453Z</time>
      </trkpt>
      <trkpt lat="31.844600000000003" lon="34.997910000000005">
        <ele>260</ele>
        <time>2026-02-19T14:24:49.453Z</time>
      </trkpt>
      <trkpt lat="31.844690000000003" lon="34.997690000000006">
        <ele>260</ele>
        <time>2026-02-19T14:24:50.453Z</time>
      </trkpt>
      <trkpt lat="31.844720000000002" lon="34.997550000000004">
        <ele>260</ele>
        <time>2026-02-19T14:24:51.453Z</time>
      </trkpt>
      <trkpt lat="31.844730000000002" lon="34.99738">
        <ele>249</ele>
        <time>2026-02-19T14:24:52.453Z</time>
      </trkpt>
      <trkpt lat="31.844680000000004" lon="34.99721">
        <ele>249</ele>
        <time>2026-02-19T14:24:53.453Z</time>
      </trkpt>
      <trkpt lat="31.844620000000003" lon="34.9971">
        <ele>249</ele>
        <time>2026-02-19T14:24:54.453Z</time>
      </trkpt>
      <trkpt lat="31.844510000000003" lon="34.996990000000004">
        <ele>249</ele>
        <time>2026-02-19T14:24:55.453Z</time>
      </trkpt>
      <trkpt lat="31.844040000000003" lon="34.99667">
        <ele>241</ele>
        <time>2026-02-19T14:24:56.453Z</time>
      </trkpt>
      <trkpt lat="31.84362" lon="34.996460000000006">
        <ele>231.5</ele>
        <time>2026-02-19T14:24:57.453Z</time>
      </trkpt>
      <trkpt lat="31.84362" lon="34.996460000000006">
        <ele>231.5</ele>
        <time>2026-02-19T14:24:58.453Z</time>
      </trkpt>
      <trkpt lat="31.84344" lon="34.99636">
        <ele>229</ele>
        <time>2026-02-19T14:24:59.453Z</time>
      </trkpt>
      <trkpt lat="31.843140000000002" lon="34.99617">
        <ele>229</ele>
        <time>2026-02-19T14:25:00.453Z</time>
      </trkpt>
      <trkpt lat="31.84297" lon="34.995990000000006">
        <ele>229</ele>
        <time>2026-02-19T14:25:01.453Z</time>
      </trkpt>
      <trkpt lat="31.84288" lon="34.995830000000005">
        <ele>222</ele>
        <time>2026-02-19T14:25:02.453Z</time>
      </trkpt>
      <trkpt lat="31.842800000000004" lon="34.9955">
        <ele>222</ele>
        <time>2026-02-19T14:25:03.453Z</time>
      </trkpt>
      <trkpt lat="31.842630000000003" lon="34.994670000000006">
        <ele>219</ele>
        <time>2026-02-19T14:25:04.453Z</time>
      </trkpt>
      <trkpt lat="31.8426" lon="34.99429">
        <ele>228</ele>
        <time>2026-02-19T14:25:05.453Z</time>
      </trkpt>
      <trkpt lat="31.842610000000004" lon="34.994240000000005">
        <ele>230</ele>
        <time>2026-02-19T14:25:06.453Z</time>
      </trkpt>
      <trkpt lat="31.842610000000004" lon="34.994240000000005">
        <ele>230</ele>
        <time>2026-02-19T14:25:07.453Z</time>
      </trkpt>
      <trkpt lat="31.842630000000003" lon="34.994080000000004">
        <ele>232</ele>
        <time>2026-02-19T14:25:08.453Z</time>
      </trkpt>
      <trkpt lat="31.842950000000002" lon="34.993320000000004">
        <ele>221</ele>
        <time>2026-02-19T14:25:09.453Z</time>
      </trkpt>
      <trkpt lat="31.84297" lon="34.99313">
        <ele>221</ele>
        <time>2026-02-19T14:25:10.453Z</time>
      </trkpt>
      <trkpt lat="31.842980000000004" lon="34.992990000000006">
        <ele>221</ele>
        <time>2026-02-19T14:25:11.453Z</time>
      </trkpt>
      <trkpt lat="31.84296" lon="34.99288">
        <ele>221</ele>
        <time>2026-02-19T14:25:12.453Z</time>
      </trkpt>
      <trkpt lat="31.842900000000004" lon="34.99277">
        <ele>221</ele>
        <time>2026-02-19T14:25:13.453Z</time>
      </trkpt>
      <trkpt lat="31.842800000000004" lon="34.992670000000004">
        <ele>221</ele>
        <time>2026-02-19T14:25:14.453Z</time>
      </trkpt>
      <trkpt lat="31.842660000000002" lon="34.99259">
        <ele>221</ele>
        <time>2026-02-19T14:25:15.453Z</time>
      </trkpt>
      <trkpt lat="31.84259" lon="34.99259">
        <ele>237</ele>
        <time>2026-02-19T14:25:16.453Z</time>
      </trkpt>
      <trkpt lat="31.842430000000004" lon="34.99268">
        <ele>237</ele>
        <time>2026-02-19T14:25:17.453Z</time>
      </trkpt>
      <trkpt lat="31.84232" lon="34.992810000000006">
        <ele>237</ele>
        <time>2026-02-19T14:25:18.453Z</time>
      </trkpt>
      <trkpt lat="31.84221" lon="34.99298">
        <ele>237</ele>
        <time>2026-02-19T14:25:19.453Z</time>
      </trkpt>
      <trkpt lat="31.841960000000004" lon="34.99353">
        <ele>232</ele>
        <time>2026-02-19T14:25:20.453Z</time>
      </trkpt>
      <trkpt lat="31.841880000000003" lon="34.993590000000005">
        <ele>232</ele>
        <time>2026-02-19T14:25:21.453Z</time>
      </trkpt>
      <trkpt lat="31.841800000000003" lon="34.9936">
        <ele>232</ele>
        <time>2026-02-19T14:25:22.453Z</time>
      </trkpt>
      <trkpt lat="31.84175" lon="34.993570000000005">
        <ele>239.5</ele>
        <time>2026-02-19T14:25:23.453Z</time>
      </trkpt>
    </trkseg>
  </trk>
</gpx>