<?xml version="1.0" encoding="UTF-8"?>
<gpx creator="Patrick Hooper" version="1.1" xmlns="http://www.topografix.com/GPX/1/1" xmlns:xsi="http://www.w3.org/2001/XMLSchema-instance" xsi:schemaLocation="http://www.topografix.com/GPX/1/1 http://www.topografix.com/GPX/1/1/gpx.xsd http://www.garmin.com/xmlschemas/GpxExtensions/v3 http://www.garmin.com/xmlschemas/GpxExtensionsv3.xsd http://www.garmin.com/xmlschemas/TrackPointExtension/v1 http://www.garmin.com/xmlschemas/TrackPointExtensionv1.xsd">
  <metadata>
    <name>Activity</name>
  </metadata>
  <trk>
    <name>a</name>
    <trkseg>
      <trkpt lat="31.84793" lon="34.99286">
        <ele>202.5</ele>
        <time>2026-03-03T08:10:02.548Z</time>
      </trkpt>
      <trkpt lat="31.84794" lon="34.99277">
        <ele>199</ele>
        <time>2026-03-03T08:10:03.548Z</time>
      </trkpt>
      <trkpt lat="31.847900000000003" lon="34.99275">
        <ele>199</ele>
        <time>2026-03-03T08:10:04.548Z</time>
      </trkpt>
      <trkpt lat="31.84757" lon="34.992740000000005">
        <ele>204</ele>
        <time>2026-03-03T08:10:05.548Z</time>
      </trkpt>
      <trkpt lat="31.847390000000004" lon="34.992720000000006">
        <ele>204</ele>
        <time>2026-03-03T08:10:06.548Z</time>
      </trkpt>
      <trkpt lat="31.847110000000004" lon="34.99266">
        <ele>204</ele>
        <time>2026-03-03T08:10:07.548Z</time>
      </trkpt>
      <trkpt lat="31.847" lon="34.99266">
        <ele>204</ele>
        <time>2026-03-03T08:10:08.548Z</time>
      </trkpt>
      <trkpt lat="31.846860000000003" lon="34.99271">
        <ele>204</ele>
        <time>2026-03-03T08:10:09.548Z</time>
      </trkpt>
      <trkpt lat="31.846610000000002" lon="34.99289">
        <ele>207</ele>
        <time>2026-03-03T08:10:10.548Z</time>
      </trkpt>
      <trkpt lat="31.846460000000004" lon="34.992960000000004">
        <ele>207</ele>
        <time>2026-03-03T08:10:11.548Z</time>
      </trkpt>
      <trkpt lat="31.846120000000003" lon="34.993010000000005">
        <ele>207</ele>
        <time>2026-03-03T08:10:12.548Z</time>
      </trkpt>
      <trkpt lat="31.845910000000003" lon="34.992960000000004">
        <ele>209</ele>
        <time>2026-03-03T08:10:13.548Z</time>
      </trkpt>
      <trkpt lat="31.84577" lon="34.99297">
        <ele>209</ele>
        <time>2026-03-03T08:10:14.548Z</time>
      </trkpt>
      <trkpt lat="31.845660000000002" lon="34.99307">
        <ele>209</ele>
        <time>2026-03-03T08:10:15.548Z</time>
      </trkpt>
      <trkpt lat="31.845530000000004" lon="34.99324">
        <ele>209</ele>
        <time>2026-03-03T08:10:16.548Z</time>
      </trkpt>
      <trkpt lat="31.844960000000004" lon="34.994110000000006">
        <ele>213</ele>
        <time>2026-03-03T08:10:17.548Z</time>
      </trkpt>
      <trkpt lat="31.844730000000002" lon="34.99441">
        <ele>226</ele>
        <time>2026-03-03T08:10:18.548Z</time>
      </trkpt>
      <trkpt lat="31.844230000000003" lon="34.99513">
        <ele>225</ele>
        <time>2026-03-03T08:10:19.548Z</time>
      </trkpt>
      <trkpt lat="31.844400000000004" lon="34.99522">
        <ele>239</ele>
        <time>2026-03-03T08:10:20.548Z</time>
      </trkpt>
      <trkpt lat="31.84446" lon="34.995340000000006">
        <ele>239</ele>
        <time>2026-03-03T08:10:21.548Z</time>
      </trkpt>
      <trkpt lat="31.844490000000004" lon="34.99564">
        <ele>239</ele>
        <time>2026-03-03T08:10:22.548Z</time>
      </trkpt>
      <trkpt lat="31.844610000000003" lon="34.99589">
        <ele>244</ele>
        <time>2026-03-03T08:10:23.548Z</time>
      </trkpt>
      <trkpt lat="31.844980000000003" lon="34.99589">
        <ele>244</ele>
        <time>2026-03-03T08:10:24.548Z</time>
      </trkpt>
      <trkpt lat="31.845180000000003" lon="34.99595">
        <ele>253</ele>
        <time>2026-03-03T08:10:25.548Z</time>
      </trkpt>
      <trkpt lat="31.84531" lon="34.99607">
        <ele>253</ele>
        <time>2026-03-03T08:10:26.548Z</time>
      </trkpt>
      <trkpt lat="31.845470000000002" lon="34.996280000000006">
        <ele>253</ele>
        <time>2026-03-03T08:10:27.548Z</time>
      </trkpt>
      <trkpt lat="31.845630000000003" lon="34.99662">
        <ele>253</ele>
        <time>2026-03-03T08:10:28.548Z</time>
      </trkpt>
      <trkpt lat="31.845720000000004" lon="34.99691">
        <ele>257</ele>
        <time>2026-03-03T08:10:29.548Z</time>
      </trkpt>
      <trkpt lat="31.84578" lon="34.99716">
        <ele>257</ele>
        <time>2026-03-03T08:10:30.548Z</time>
      </trkpt>
      <trkpt lat="31.845840000000003" lon="34.99754">
        <ele>265</ele>
        <time>2026-03-03T08:10:31.548Z</time>
      </trkpt>
      <trkpt lat="31.845800000000004" lon="34.99779">
        <ele>265</ele>
        <time>2026-03-03T08:10:32.548Z</time>
      </trkpt>
      <trkpt lat="31.845800000000004" lon="34.99779">
        <ele>265</ele>
        <time>2026-03-03T08:10:33.548Z</time>
      </trkpt>
      <trkpt lat="31.845730000000003" lon="34.99794">
        <ele>265</ele>
        <time>2026-03-03T08:10:34.548Z</time>
      </trkpt>
      <trkpt lat="31.845280000000002" lon="34.99857">
        <ele>273</ele>
        <time>2026-03-03T08:10:35.548Z</time>
      </trkpt>
      <trkpt lat="31.845260000000003" lon="34.99864">
        <ele>273</ele>
        <time>2026-03-03T08:10:36.548Z</time>
      </trkpt>
      <trkpt lat="31.845270000000003" lon="34.99902">
        <ele>273</ele>
        <time>2026-03-03T08:10:37.548Z</time>
      </trkpt>
      <trkpt lat="31.845240000000004" lon="34.99911">
        <ele>273</ele>
        <time>2026-03-03T08:10:38.548Z</time>
      </trkpt>
      <trkpt lat="31.844880000000003" lon="34.99944">
        <ele>279</ele>
        <time>2026-03-03T08:10:39.548Z</time>
      </trkpt>
      <trkpt lat="31.844690000000003" lon="34.999590000000005">
        <ele>279</ele>
        <time>2026-03-03T08:10:40.548Z</time>
      </trkpt>
      <trkpt lat="31.844610000000003" lon="34.99969">
        <ele>279</ele>
        <time>2026-03-03T08:10:41.548Z</time>
      </trkpt>
      <trkpt lat="31.84438" lon="35.00054">
        <ele>279</ele>
        <time>2026-03-03T08:10:42.548Z</time>
      </trkpt>
      <trkpt lat="31.844310000000004" lon="35.00079">
        <ele>279</ele>
        <time>2026-03-03T08:10:43.548Z</time>
      </trkpt>
      <trkpt lat="31.84409" lon="35.001270000000005">
        <ele>282</ele>
        <time>2026-03-03T08:10:44.548Z</time>
      </trkpt>
      <trkpt lat="31.84399" lon="35.00142">
        <ele>282</ele>
        <time>2026-03-03T08:10:45.548Z</time>
      </trkpt>
      <trkpt lat="31.84353" lon="35.00169">
        <ele>294</ele>
        <time>2026-03-03T08:10:46.548Z</time>
      </trkpt>
      <trkpt lat="31.84316" lon="35.002050000000004">
        <ele>292</ele>
        <time>2026-03-03T08:10:47.548Z</time>
      </trkpt>
      <trkpt lat="31.843110000000003" lon="35.00213">
        <ele>292</ele>
        <time>2026-03-03T08:10:48.548Z</time>
      </trkpt>
      <trkpt lat="31.843100000000003" lon="35.002230000000004">
        <ele>292</ele>
        <time>2026-03-03T08:10:49.548Z</time>
      </trkpt>
      <trkpt lat="31.843290000000003" lon="35.00251">
        <ele>298</ele>
        <time>2026-03-03T08:10:50.548Z</time>
      </trkpt>
      <trkpt lat="31.843310000000002" lon="35.00264">
        <ele>298</ele>
        <time>2026-03-03T08:10:51.548Z</time>
      </trkpt>
      <trkpt lat="31.843310000000002" lon="35.002700000000004">
        <ele>298</ele>
        <time>2026-03-03T08:10:52.548Z</time>
      </trkpt>
      <trkpt lat="31.843260000000004" lon="35.00289">
        <ele>298</ele>
        <time>2026-03-03T08:10:53.548Z</time>
      </trkpt>
      <trkpt lat="31.843210000000003" lon="35.003">
        <ele>298</ele>
        <time>2026-03-03T08:10:54.548Z</time>
      </trkpt>
      <trkpt lat="31.843190000000003" lon="35.003080000000004">
        <ele>298</ele>
        <time>2026-03-03T08:10:55.548Z</time>
      </trkpt>
      <trkpt lat="31.843210000000003" lon="35.00316">
        <ele>298</ele>
        <time>2026-03-03T08:10:56.548Z</time>
      </trkpt>
      <trkpt lat="31.843270000000004" lon="35.003220000000006">
        <ele>298</ele>
        <time>2026-03-03T08:10:57.548Z</time>
      </trkpt>
      <trkpt lat="31.84334" lon="35.00323">
        <ele>298</ele>
        <time>2026-03-03T08:10:58.548Z</time>
      </trkpt>
      <trkpt lat="31.843470000000003" lon="35.003170000000004">
        <ele>304</ele>
        <time>2026-03-03T08:10:59.548Z</time>
      </trkpt>
      <trkpt lat="31.843660000000003" lon="35.00305">
        <ele>304</ele>
        <time>2026-03-03T08:11:00.548Z</time>
      </trkpt>
      <trkpt lat="31.84382" lon="35.00303">
        <ele>304</ele>
        <time>2026-03-03T08:11:01.548Z</time>
      </trkpt>
      <trkpt lat="31.8439" lon="35.00307">
        <ele>304</ele>
        <time>2026-03-03T08:11:02.548Z</time>
      </trkpt>
      <trkpt lat="31.843980000000002" lon="35.003150000000005">
        <ele>304</ele>
        <time>2026-03-03T08:11:03.548Z</time>
      </trkpt>
      <trkpt lat="31.844010000000004" lon="35.003240000000005">
        <ele>304</ele>
        <time>2026-03-03T08:11:04.548Z</time>
      </trkpt>
      <trkpt lat="31.844020000000004" lon="35.00332">
        <ele>304</ele>
        <time>2026-03-03T08:11:05.548Z</time>
      </trkpt>
      <trkpt lat="31.843960000000003" lon="35.00347">
        <ele>307</ele>
        <time>2026-03-03T08:11:06.548Z</time>
      </trkpt>
      <trkpt lat="31.843750000000004" lon="35.003690000000006">
        <ele>307</ele>
        <time>2026-03-03T08:11:07.548Z</time>
      </trkpt>
      <trkpt lat="31.843550000000004" lon="35.00424">
        <ele>312</ele>
        <time>2026-03-03T08:11:08.548Z</time>
      </trkpt>
      <trkpt lat="31.84352" lon="35.00437">
        <ele>312</ele>
        <time>2026-03-03T08:11:09.548Z</time>
      </trkpt>
      <trkpt lat="31.84352" lon="35.00451">
        <ele>312</ele>
        <time>2026-03-03T08:11:10.548Z</time>
      </trkpt>
      <trkpt lat="31.843570000000003" lon="35.00479">
        <ele>312</ele>
        <time>2026-03-03T08:11:11.548Z</time>
      </trkpt>
      <trkpt lat="31.84363" lon="35.005">
        <ele>317</ele>
        <time>2026-03-03T08:11:12.548Z</time>
      </trkpt>
      <trkpt lat="31.843700000000002" lon="35.00518">
        <ele>317</ele>
        <time>2026-03-03T08:11:13.548Z</time>
      </trkpt>
      <trkpt lat="31.8438" lon="35.005320000000005">
        <ele>317</ele>
        <time>2026-03-03T08:11:14.548Z</time>
      </trkpt>
      <trkpt lat="31.844070000000002" lon="35.005570000000006">
        <ele>317</ele>
        <time>2026-03-03T08:11:15.548Z</time>
      </trkpt>
      <trkpt lat="31.84465" lon="35.005970000000005">
        <ele>322</ele>
        <time>2026-03-03T08:11:16.548Z</time>
      </trkpt>
      <trkpt lat="31.844820000000002" lon="35.00605">
        <ele>322</ele>
        <time>2026-03-03T08:11:17.548Z</time>
      </trkpt>
      <trkpt lat="31.84455" lon="35.00677">
        <ele>326</ele>
        <time>2026-03-03T08:11:18.548Z</time>
      </trkpt>
      <trkpt lat="31.84437" lon="35.00705">
        <ele>326</ele>
        <time>2026-03-03T08:11:19.548Z</time>
      </trkpt>
      <trkpt lat="31.84427" lon="35.007130000000004">
        <ele>332</ele>
        <time>2026-03-03T08:11:20.548Z</time>
      </trkpt>
      <trkpt lat="31.844110000000004" lon="35.00717">
        <ele>332</ele>
        <time>2026-03-03T08:11:21.548Z</time>
      </trkpt>
      <trkpt lat="31.844060000000002" lon="35.00721">
        <ele>332</ele>
        <time>2026-03-03T08:11:22.548Z</time>
      </trkpt>
      <trkpt lat="31.843940000000003" lon="35.00742">
        <ele>332</ele>
        <time>2026-03-03T08:11:23.548Z</time>
      </trkpt>
      <trkpt lat="31.843850000000003" lon="35.0075">
        <ele>335</ele>
        <time>2026-03-03T08:11:24.548Z</time>
      </trkpt>
      <trkpt lat="31.843740000000004" lon="35.007560000000005">
        <ele>335</ele>
        <time>2026-03-03T08:11:25.548Z</time>
      </trkpt>
      <trkpt lat="31.843670000000003" lon="35.00766">
        <ele>335</ele>
        <time>2026-03-03T08:11:26.548Z</time>
      </trkpt>
      <trkpt lat="31.843580000000003" lon="35.007870000000004">
        <ele>335</ele>
        <time>2026-03-03T08:11:27.548Z</time>
      </trkpt>
      <trkpt lat="31.84353" lon="35.007940000000005">
        <ele>335</ele>
        <time>2026-03-03T08:11:28.548Z</time>
      </trkpt>
      <trkpt lat="31.84344" lon="35.007960000000004">
        <ele>346</ele>
        <time>2026-03-03T08:11:29.548Z</time>
      </trkpt>
      <trkpt lat="31.843300000000003" lon="35.00795">
        <ele>346</ele>
        <time>2026-03-03T08:11:30.548Z</time>
      </trkpt>
      <trkpt lat="31.842750000000002" lon="35.00799">
        <ele>346</ele>
        <time>2026-03-03T08:11:31.548Z</time>
      </trkpt>
      <trkpt lat="31.84268" lon="35.008050000000004">
        <ele>346</ele>
        <time>2026-03-03T08:11:32.548Z</time>
      </trkpt>
      <trkpt lat="31.842640000000003" lon="35.008120000000005">
        <ele>346</ele>
        <time>2026-03-03T08:11:33.548Z</time>
      </trkpt>
      <trkpt lat="31.842630000000003" lon="35.0082">
        <ele>347</ele>
        <time>2026-03-03T08:11:34.548Z</time>
      </trkpt>
      <trkpt lat="31.842640000000003" lon="35.00849">
        <ele>349</ele>
        <time>2026-03-03T08:11:35.548Z</time>
      </trkpt>
      <trkpt lat="31.842620000000004" lon="35.00864">
        <ele>356</ele>
        <time>2026-03-03T08:11:36.548Z</time>
      </trkpt>
      <trkpt lat="31.842550000000003" lon="35.00891">
        <ele>356</ele>
        <time>2026-03-03T08:11:37.548Z</time>
      </trkpt>
      <trkpt lat="31.84239" lon="35.009130000000006">
        <ele>356</ele>
        <time>2026-03-03T08:11:38.548Z</time>
      </trkpt>
      <trkpt lat="31.842250000000003" lon="35.00927">
        <ele>363</ele>
        <time>2026-03-03T08:11:39.548Z</time>
      </trkpt>
      <trkpt lat="31.841820000000002" lon="35.009600000000006">
        <ele>363</ele>
        <time>2026-03-03T08:11:40.548Z</time>
      </trkpt>
      <trkpt lat="31.841680000000004" lon="35.00983">
        <ele>369</ele>
        <time>2026-03-03T08:11:41.548Z</time>
      </trkpt>
      <trkpt lat="31.841590000000004" lon="35.00987">
        <ele>369</ele>
        <time>2026-03-03T08:11:42.548Z</time>
      </trkpt>
      <trkpt lat="31.84138" lon="35.00992">
        <ele>369</ele>
        <time>2026-03-03T08:11:43.548Z</time>
      </trkpt>
      <trkpt lat="31.841210000000004" lon="35.00999">
        <ele>372</ele>
        <time>2026-03-03T08:11:44.548Z</time>
      </trkpt>
      <trkpt lat="31.84108" lon="35.010000000000005">
        <ele>372</ele>
        <time>2026-03-03T08:11:45.548Z</time>
      </trkpt>
      <trkpt lat="31.840860000000003" lon="35.00995">
        <ele>374</ele>
        <time>2026-03-03T08:11:46.548Z</time>
      </trkpt>
      <trkpt lat="31.84062" lon="35.00983">
        <ele>374</ele>
        <time>2026-03-03T08:11:47.548Z</time>
      </trkpt>
      <trkpt lat="31.84053" lon="35.00983">
        <ele>374</ele>
        <time>2026-03-03T08:11:48.548Z</time>
      </trkpt>
      <trkpt lat="31.84042" lon="35.0099">
        <ele>374</ele>
        <time>2026-03-03T08:11:49.548Z</time>
      </trkpt>
      <trkpt lat="31.840320000000002" lon="35.010040000000004">
        <ele>381</ele>
        <time>2026-03-03T08:11:50.548Z</time>
      </trkpt>
      <trkpt lat="31.84014" lon="35.01035">
        <ele>381</ele>
        <time>2026-03-03T08:11:51.548Z</time>
      </trkpt>
      <trkpt lat="31.839940000000002" lon="35.01066">
        <ele>375</ele>
        <time>2026-03-03T08:11:52.548Z</time>
      </trkpt>
      <trkpt lat="31.83988" lon="35.01086">
        <ele>380</ele>
        <time>2026-03-03T08:11:53.548Z</time>
      </trkpt>
      <trkpt lat="31.839800000000004" lon="35.011390000000006">
        <ele>380</ele>
        <time>2026-03-03T08:11:54.548Z</time>
      </trkpt>
      <trkpt lat="31.839700000000004" lon="35.011860000000006">
        <ele>381</ele>
        <time>2026-03-03T08:11:55.548Z</time>
      </trkpt>
      <trkpt lat="31.839620000000004" lon="35.012530000000005">
        <ele>382</ele>
        <time>2026-03-03T08:11:56.548Z</time>
      </trkpt>
      <trkpt lat="31.839550000000003" lon="35.012820000000005">
        <ele>382</ele>
        <time>2026-03-03T08:11:57.548Z</time>
      </trkpt>
      <trkpt lat="31.839510000000004" lon="35.01294">
        <ele>382</ele>
        <time>2026-03-03T08:11:58.548Z</time>
      </trkpt>
      <trkpt lat="31.839230000000004" lon="35.01344">
        <ele>378</ele>
        <time>2026-03-03T08:11:59.548Z</time>
      </trkpt>
      <trkpt lat="31.83911" lon="35.01393">
        <ele>378</ele>
        <time>2026-03-03T08:12:00.548Z</time>
      </trkpt>
      <trkpt lat="31.83903" lon="35.01417">
        <ele>378</ele>
        <time>2026-03-03T08:12:01.548Z</time>
      </trkpt>
      <trkpt lat="31.838690000000003" lon="35.01487">
        <ele>378</ele>
        <time>2026-03-03T08:12:02.548Z</time>
      </trkpt>
      <trkpt lat="31.838490000000004" lon="35.015420000000006">
        <ele>377</ele>
        <time>2026-03-03T08:12:03.548Z</time>
      </trkpt>
      <trkpt lat="31.838380000000004" lon="35.01556">
        <ele>373</ele>
        <time>2026-03-03T08:12:04.548Z</time>
      </trkpt>
      <trkpt lat="31.838310000000003" lon="35.0157">
        <ele>373</ele>
        <time>2026-03-03T08:12:05.548Z</time>
      </trkpt>
      <trkpt lat="31.838200000000004" lon="35.015800000000006">
        <ele>373</ele>
        <time>2026-03-03T08:12:06.548Z</time>
      </trkpt>
      <trkpt lat="31.838140000000003" lon="35.01581">
        <ele>373</ele>
        <time>2026-03-03T08:12:07.548Z</time>
      </trkpt>
      <trkpt lat="31.838120000000004" lon="35.015840000000004">
        <ele>375</ele>
        <time>2026-03-03T08:12:08.548Z</time>
      </trkpt>
      <trkpt lat="31.838030000000003" lon="35.01574">
        <ele>373</ele>
        <time>2026-03-03T08:12:09.548Z</time>
      </trkpt>
      <trkpt lat="31.83799" lon="35.01572">
        <ele>373</ele>
        <time>2026-03-03T08:12:10.548Z</time>
      </trkpt>
      <trkpt lat="31.83799" lon="35.01572">
        <ele>373</ele>
        <time>2026-03-03T08:12:11.548Z</time>
      </trkpt>
      <trkpt lat="31.838030000000003" lon="35.01574">
        <ele>373</ele>
        <time>2026-03-03T08:12:12.548Z</time>
      </trkpt>
      <trkpt lat="31.838120000000004" lon="35.015840000000004">
        <ele>375</ele>
        <time>2026-03-03T08:12:13.548Z</time>
      </trkpt>
      <trkpt lat="31.838240000000003" lon="35.01603">
        <ele>375</ele>
        <time>2026-03-03T08:12:14.548Z</time>
      </trkpt>
      <trkpt lat="31.838290000000004" lon="35.01608">
        <ele>375</ele>
        <time>2026-03-03T08:12:15.548Z</time>
      </trkpt>
      <trkpt lat="31.838420000000003" lon="35.016360000000006">
        <ele>375</ele>
        <time>2026-03-03T08:12:16.548Z</time>
      </trkpt>
      <trkpt lat="31.83845" lon="35.01655">
        <ele>375</ele>
        <time>2026-03-03T08:12:17.548Z</time>
      </trkpt>
      <trkpt lat="31.838400000000004" lon="35.016740000000006">
        <ele>374</ele>
        <time>2026-03-03T08:12:18.548Z</time>
      </trkpt>
      <trkpt lat="31.838050000000003" lon="35.0172">
        <ele>374</ele>
        <time>2026-03-03T08:12:19.548Z</time>
      </trkpt>
      <trkpt lat="31.837670000000003" lon="35.01765">
        <ele>364</ele>
        <time>2026-03-03T08:12:20.548Z</time>
      </trkpt>
      <trkpt lat="31.837280000000003" lon="35.018040000000006">
        <ele>377</ele>
        <time>2026-03-03T08:12:21.548Z</time>
      </trkpt>
      <trkpt lat="31.837160000000004" lon="35.0182">
        <ele>377</ele>
        <time>2026-03-03T08:12:22.548Z</time>
      </trkpt>
      <trkpt lat="31.836900000000004" lon="35.018530000000005">
        <ele>369</ele>
        <time>2026-03-03T08:12:23.548Z</time>
      </trkpt>
      <trkpt lat="31.836550000000003" lon="35.019020000000005">
        <ele>378</ele>
        <time>2026-03-03T08:12:24.548Z</time>
      </trkpt>
      <trkpt lat="31.836510000000004" lon="35.01912">
        <ele>378</ele>
        <time>2026-03-03T08:12:25.548Z</time>
      </trkpt>
      <trkpt lat="31.836460000000002" lon="35.019290000000005">
        <ele>371</ele>
        <time>2026-03-03T08:12:26.548Z</time>
      </trkpt>
      <trkpt lat="31.836370000000002" lon="35.020010000000006">
        <ele>362</ele>
        <time>2026-03-03T08:12:27.548Z</time>
      </trkpt>
      <trkpt lat="31.83639" lon="35.02046">
        <ele>362</ele>
        <time>2026-03-03T08:12:28.548Z</time>
      </trkpt>
      <trkpt lat="31.836350000000003" lon="35.02087">
        <ele>354</ele>
        <time>2026-03-03T08:12:29.548Z</time>
      </trkpt>
      <trkpt lat="31.836370000000002" lon="35.02105">
        <ele>354</ele>
        <time>2026-03-03T08:12:30.548Z</time>
      </trkpt>
      <trkpt lat="31.8364" lon="35.02105">
        <ele>354</ele>
        <time>2026-03-03T08:12:31.548Z</time>
      </trkpt>
      <trkpt lat="31.8364" lon="35.02105">
        <ele>354</ele>
        <time>2026-03-03T08:12:32.548Z</time>
      </trkpt>
      <trkpt lat="31.836510000000004" lon="35.02109">
        <ele>354</ele>
        <time>2026-03-03T08:12:33.548Z</time>
      </trkpt>
      <trkpt lat="31.83659" lon="35.02107">
        <ele>354</ele>
        <time>2026-03-03T08:12:34.548Z</time>
      </trkpt>
      <trkpt lat="31.838230000000003" lon="35.020030000000006">
        <ele>336</ele>
        <time>2026-03-03T08:12:35.548Z</time>
      </trkpt>
      <trkpt lat="31.838390000000004" lon="35.01995">
        <ele>347</ele>
        <time>2026-03-03T08:12:36.548Z</time>
      </trkpt>
      <trkpt lat="31.838710000000003" lon="35.019830000000006">
        <ele>334</ele>
        <time>2026-03-03T08:12:37.548Z</time>
      </trkpt>
      <trkpt lat="31.838810000000002" lon="35.019830000000006">
        <ele>334</ele>
        <time>2026-03-03T08:12:38.548Z</time>
      </trkpt>
      <trkpt lat="31.838850000000004" lon="35.019870000000004">
        <ele>334</ele>
        <time>2026-03-03T08:12:39.548Z</time>
      </trkpt>
      <trkpt lat="31.838870000000004" lon="35.01995">
        <ele>334</ele>
        <time>2026-03-03T08:12:40.548Z</time>
      </trkpt>
      <trkpt lat="31.838870000000004" lon="35.02006">
        <ele>326</ele>
        <time>2026-03-03T08:12:41.548Z</time>
      </trkpt>
      <trkpt lat="31.838800000000003" lon="35.020610000000005">
        <ele>326</ele>
        <time>2026-03-03T08:12:42.548Z</time>
      </trkpt>
      <trkpt lat="31.83875" lon="35.02075">
        <ele>326</ele>
        <time>2026-03-03T08:12:43.548Z</time>
      </trkpt>
      <trkpt lat="31.838630000000002" lon="35.020950000000006">
        <ele>316</ele>
        <time>2026-03-03T08:12:44.548Z</time>
      </trkpt>
      <trkpt lat="31.838610000000003" lon="35.02103">
        <ele>316</ele>
        <time>2026-03-03T08:12:45.548Z</time>
      </trkpt>
      <trkpt lat="31.838620000000002" lon="35.02109">
        <ele>316</ele>
        <time>2026-03-03T08:12:46.548Z</time>
      </trkpt>
      <trkpt lat="31.83866" lon="35.021190000000004">
        <ele>316</ele>
        <time>2026-03-03T08:12:47.548Z</time>
      </trkpt>
      <trkpt lat="31.83875" lon="35.02131">
        <ele>316</ele>
        <time>2026-03-03T08:12:48.548Z</time>
      </trkpt>
      <trkpt lat="31.838790000000003" lon="35.021390000000004">
        <ele>316</ele>
        <time>2026-03-03T08:12:49.548Z</time>
      </trkpt>
      <trkpt lat="31.83893" lon="35.021910000000005">
        <ele>305</ele>
        <time>2026-03-03T08:12:50.548Z</time>
      </trkpt>
      <trkpt lat="31.839000000000002" lon="35.02208">
        <ele>305</ele>
        <time>2026-03-03T08:12:51.548Z</time>
      </trkpt>
      <trkpt lat="31.839070000000003" lon="35.02219">
        <ele>305</ele>
        <time>2026-03-03T08:12:52.548Z</time>
      </trkpt>
      <trkpt lat="31.839240000000004" lon="35.02234">
        <ele>305</ele>
        <time>2026-03-03T08:12:53.548Z</time>
      </trkpt>
      <trkpt lat="31.839430000000004" lon="35.022380000000005">
        <ele>299</ele>
        <time>2026-03-03T08:12:54.548Z</time>
      </trkpt>
      <trkpt lat="31.840040000000002" lon="35.022360000000006">
        <ele>299</ele>
        <time>2026-03-03T08:12:55.548Z</time>
      </trkpt>
      <trkpt lat="31.840260000000004" lon="35.022400000000005">
        <ele>295</ele>
        <time>2026-03-03T08:12:56.548Z</time>
      </trkpt>
      <trkpt lat="31.840580000000003" lon="35.02235">
        <ele>295</ele>
        <time>2026-03-03T08:12:57.548Z</time>
      </trkpt>
      <trkpt lat="31.840940000000003" lon="35.022380000000005">
        <ele>295</ele>
        <time>2026-03-03T08:12:58.548Z</time>
      </trkpt>
      <trkpt lat="31.841430000000003" lon="35.022380000000005">
        <ele>289</ele>
        <time>2026-03-03T08:12:59.548Z</time>
      </trkpt>
      <trkpt lat="31.842360000000003" lon="35.022650000000006">
        <ele>271</ele>
        <time>2026-03-03T08:13:00.548Z</time>
      </trkpt>
      <trkpt lat="31.84296" lon="35.02273">
        <ele>267</ele>
        <time>2026-03-03T08:13:01.548Z</time>
      </trkpt>
      <trkpt lat="31.843090000000004" lon="35.02275">
        <ele>267</ele>
        <time>2026-03-03T08:13:02.548Z</time>
      </trkpt>
      <trkpt lat="31.844220000000004" lon="35.0227">
        <ele>259</ele>
        <time>2026-03-03T08:13:03.548Z</time>
      </trkpt>
      <trkpt lat="31.844450000000002" lon="35.022800000000004">
        <ele>252</ele>
        <time>2026-03-03T08:13:04.548Z</time>
      </trkpt>
      <trkpt lat="31.844670000000004" lon="35.023">
        <ele>252</ele>
        <time>2026-03-03T08:13:05.548Z</time>
      </trkpt>
      <trkpt lat="31.844790000000003" lon="35.02306">
        <ele>252</ele>
        <time>2026-03-03T08:13:06.548Z</time>
      </trkpt>
      <trkpt lat="31.844910000000002" lon="35.02319">
        <ele>252</ele>
        <time>2026-03-03T08:13:07.548Z</time>
      </trkpt>
      <trkpt lat="31.844960000000004" lon="35.023300000000006">
        <ele>252</ele>
        <time>2026-03-03T08:13:08.548Z</time>
      </trkpt>
      <trkpt lat="31.84513" lon="35.024390000000004">
        <ele>235</ele>
        <time>2026-03-03T08:13:09.548Z</time>
      </trkpt>
      <trkpt lat="31.84513" lon="35.024800000000006">
        <ele>235</ele>
        <time>2026-03-03T08:13:10.548Z</time>
      </trkpt>
      <trkpt lat="31.845050000000004" lon="35.025180000000006">
        <ele>236</ele>
        <time>2026-03-03T08:13:11.548Z</time>
      </trkpt>
      <trkpt lat="31.845070000000003" lon="35.025420000000004">
        <ele>236</ele>
        <time>2026-03-03T08:13:12.548Z</time>
      </trkpt>
      <trkpt lat="31.84502" lon="35.02557">
        <ele>236</ele>
        <time>2026-03-03T08:13:13.548Z</time>
      </trkpt>
      <trkpt lat="31.845050000000004" lon="35.02572">
        <ele>236</ele>
        <time>2026-03-03T08:13:14.548Z</time>
      </trkpt>
      <trkpt lat="31.845230000000004" lon="35.02608">
        <ele>233</ele>
        <time>2026-03-03T08:13:15.548Z</time>
      </trkpt>
      <trkpt lat="31.8455" lon="35.02671">
        <ele>230</ele>
        <time>2026-03-03T08:13:16.548Z</time>
      </trkpt>
      <trkpt lat="31.845360000000003" lon="35.026720000000005">
        <ele>230</ele>
        <time>2026-03-03T08:13:17.548Z</time>
      </trkpt>
      <trkpt lat="31.845360000000003" lon="35.026720000000005">
        <ele>230</ele>
        <time>2026-03-03T08:13:18.548Z</time>
      </trkpt>
      <trkpt lat="31.845270000000003" lon="35.02676">
        <ele>230</ele>
        <time>2026-03-03T08:13:19.548Z</time>
      </trkpt>
      <trkpt lat="31.845150000000004" lon="35.02689">
        <ele>230</ele>
        <time>2026-03-03T08:13:20.548Z</time>
      </trkpt>
      <trkpt lat="31.844920000000002" lon="35.027260000000005">
        <ele>236</ele>
        <time>2026-03-03T08:13:21.548Z</time>
      </trkpt>
      <trkpt lat="31.844890000000003" lon="35.027390000000004">
        <ele>236</ele>
        <time>2026-03-03T08:13:22.548Z</time>
      </trkpt>
      <trkpt lat="31.844910000000002" lon="35.028420000000004">
        <ele>237</ele>
        <time>2026-03-03T08:13:23.548Z</time>
      </trkpt>
      <trkpt lat="31.844950000000004" lon="35.028670000000005">
        <ele>237</ele>
        <time>2026-03-03T08:13:24.548Z</time>
      </trkpt>
      <trkpt lat="31.844950000000004" lon="35.02893">
        <ele>237</ele>
        <time>2026-03-03T08:13:25.548Z</time>
      </trkpt>
      <trkpt lat="31.84493" lon="35.029050000000005">
        <ele>237</ele>
        <time>2026-03-03T08:13:26.548Z</time>
      </trkpt>
      <trkpt lat="31.844890000000003" lon="35.02919">
        <ele>240</ele>
        <time>2026-03-03T08:13:27.548Z</time>
      </trkpt>
      <trkpt lat="31.844340000000003" lon="35.02994">
        <ele>240</ele>
        <time>2026-03-03T08:13:28.548Z</time>
      </trkpt>
      <trkpt lat="31.843980000000002" lon="35.030390000000004">
        <ele>250</ele>
        <time>2026-03-03T08:13:29.548Z</time>
      </trkpt>
      <trkpt lat="31.843660000000003" lon="35.030840000000005">
        <ele>245</ele>
        <time>2026-03-03T08:13:30.548Z</time>
      </trkpt>
      <trkpt lat="31.84343" lon="35.03108">
        <ele>258</ele>
        <time>2026-03-03T08:13:31.548Z</time>
      </trkpt>
      <trkpt lat="31.843210000000003" lon="35.03125">
        <ele>258</ele>
        <time>2026-03-03T08:13:32.548Z</time>
      </trkpt>
      <trkpt lat="31.842920000000003" lon="35.03143">
        <ele>258</ele>
        <time>2026-03-03T08:13:33.548Z</time>
      </trkpt>
      <trkpt lat="31.84269" lon="35.03155">
        <ele>258</ele>
        <time>2026-03-03T08:13:34.548Z</time>
      </trkpt>
      <trkpt lat="31.842550000000003" lon="35.03161">
        <ele>267</ele>
        <time>2026-03-03T08:13:35.548Z</time>
      </trkpt>
      <trkpt lat="31.842250000000003" lon="35.031620000000004">
        <ele>267</ele>
        <time>2026-03-03T08:13:36.548Z</time>
      </trkpt>
      <trkpt lat="31.841820000000002" lon="35.03159">
        <ele>267</ele>
        <time>2026-03-03T08:13:37.548Z</time>
      </trkpt>
      <trkpt lat="31.841680000000004" lon="35.03161">
        <ele>272</ele>
        <time>2026-03-03T08:13:38.548Z</time>
      </trkpt>
      <trkpt lat="31.84155" lon="35.03164">
        <ele>265</ele>
        <time>2026-03-03T08:13:39.548Z</time>
      </trkpt>
      <trkpt lat="31.841420000000003" lon="35.031710000000004">
        <ele>265</ele>
        <time>2026-03-03T08:13:40.548Z</time>
      </trkpt>
      <trkpt lat="31.84128" lon="35.03183">
        <ele>265</ele>
        <time>2026-03-03T08:13:41.548Z</time>
      </trkpt>
      <trkpt lat="31.84117" lon="35.031980000000004">
        <ele>265</ele>
        <time>2026-03-03T08:13:42.548Z</time>
      </trkpt>
      <trkpt lat="31.840970000000002" lon="35.032320000000006">
        <ele>265</ele>
        <time>2026-03-03T08:13:43.548Z</time>
      </trkpt>
      <trkpt lat="31.840840000000004" lon="35.03246">
        <ele>279</ele>
        <time>2026-03-03T08:13:44.548Z</time>
      </trkpt>
      <trkpt lat="31.840670000000003" lon="35.032560000000004">
        <ele>268</ele>
        <time>2026-03-03T08:13:45.548Z</time>
      </trkpt>
      <trkpt lat="31.840010000000003" lon="35.032770000000006">
        <ele>279</ele>
        <time>2026-03-03T08:13:46.548Z</time>
      </trkpt>
      <trkpt lat="31.839890000000004" lon="35.03282">
        <ele>279</ele>
        <time>2026-03-03T08:13:47.548Z</time>
      </trkpt>
      <trkpt lat="31.839820000000003" lon="35.032880000000006">
        <ele>279</ele>
        <time>2026-03-03T08:13:48.548Z</time>
      </trkpt>
      <trkpt lat="31.83967" lon="35.032880000000006">
        <ele>279</ele>
        <time>2026-03-03T08:13:49.548Z</time>
      </trkpt>
      <trkpt lat="31.839250000000003" lon="35.03296">
        <ele>290</ele>
        <time>2026-03-03T08:13:50.548Z</time>
      </trkpt>
      <trkpt lat="31.83884" lon="35.03309">
        <ele>290</ele>
        <time>2026-03-03T08:13:51.548Z</time>
      </trkpt>
      <trkpt lat="31.838720000000002" lon="35.03316">
        <ele>290</ele>
        <time>2026-03-03T08:13:52.548Z</time>
      </trkpt>
      <trkpt lat="31.83864" lon="35.033240000000006">
        <ele>290</ele>
        <time>2026-03-03T08:13:53.548Z</time>
      </trkpt>
      <trkpt lat="31.83856" lon="35.03338">
        <ele>277</ele>
        <time>2026-03-03T08:13:54.548Z</time>
      </trkpt>
      <trkpt lat="31.838530000000002" lon="35.033500000000004">
        <ele>277</ele>
        <time>2026-03-03T08:13:55.548Z</time>
      </trkpt>
      <trkpt lat="31.838500000000003" lon="35.03369">
        <ele>277</ele>
        <time>2026-03-03T08:13:56.548Z</time>
      </trkpt>
      <trkpt lat="31.838490000000004" lon="35.03434">
        <ele>274</ele>
        <time>2026-03-03T08:13:57.548Z</time>
      </trkpt>
      <trkpt lat="31.838390000000004" lon="35.03484">
        <ele>285</ele>
        <time>2026-03-03T08:13:58.548Z</time>
      </trkpt>
      <trkpt lat="31.838300000000004" lon="35.035070000000005">
        <ele>292</ele>
        <time>2026-03-03T08:13:59.548Z</time>
      </trkpt>
      <trkpt lat="31.838260000000002" lon="35.035140000000006">
        <ele>292</ele>
        <time>2026-03-03T08:14:00.548Z</time>
      </trkpt>
      <trkpt lat="31.83818" lon="35.035230000000006">
        <ele>292</ele>
        <time>2026-03-03T08:14:01.548Z</time>
      </trkpt>
      <trkpt lat="31.838" lon="35.03528">
        <ele>292</ele>
        <time>2026-03-03T08:14:02.548Z</time>
      </trkpt>
      <trkpt lat="31.837500000000002" lon="35.03526">
        <ele>305</ele>
        <time>2026-03-03T08:14:03.548Z</time>
      </trkpt>
      <trkpt lat="31.83648" lon="35.03526">
        <ele>316</ele>
        <time>2026-03-03T08:14:04.548Z</time>
      </trkpt>
      <trkpt lat="31.836270000000003" lon="35.03524">
        <ele>316</ele>
        <time>2026-03-03T08:14:05.548Z</time>
      </trkpt>
      <trkpt lat="31.834970000000002" lon="35.03486">
        <ele>329</ele>
        <time>2026-03-03T08:14:06.548Z</time>
      </trkpt>
      <trkpt lat="31.834180000000003" lon="35.03459">
        <ele>341</ele>
        <time>2026-03-03T08:14:07.548Z</time>
      </trkpt>
      <trkpt lat="31.833940000000002" lon="35.03448">
        <ele>341</ele>
        <time>2026-03-03T08:14:08.548Z</time>
      </trkpt>
      <trkpt lat="31.833660000000002" lon="35.034400000000005">
        <ele>341</ele>
        <time>2026-03-03T08:14:09.548Z</time>
      </trkpt>
      <trkpt lat="31.833440000000003" lon="35.03441">
        <ele>346</ele>
        <time>2026-03-03T08:14:10.548Z</time>
      </trkpt>
      <trkpt lat="31.832980000000003" lon="35.03464">
        <ele>346</ele>
        <time>2026-03-03T08:14:11.548Z</time>
      </trkpt>
      <trkpt lat="31.832870000000003" lon="35.034650000000006">
        <ele>346</ele>
        <time>2026-03-03T08:14:12.548Z</time>
      </trkpt>
      <trkpt lat="31.832800000000002" lon="35.03463">
        <ele>346</ele>
        <time>2026-03-03T08:14:13.548Z</time>
      </trkpt>
      <trkpt lat="31.83273" lon="35.034580000000005">
        <ele>346</ele>
        <time>2026-03-03T08:14:14.548Z</time>
      </trkpt>
      <trkpt lat="31.832530000000002" lon="35.03423">
        <ele>353</ele>
        <time>2026-03-03T08:14:15.548Z</time>
      </trkpt>
      <trkpt lat="31.832000000000004" lon="35.03298">
        <ele>349</ele>
        <time>2026-03-03T08:14:16.548Z</time>
      </trkpt>
      <trkpt lat="31.831910000000004" lon="35.0328">
        <ele>349</ele>
        <time>2026-03-03T08:14:17.548Z</time>
      </trkpt>
      <trkpt lat="31.831810000000004" lon="35.032680000000006">
        <ele>349</ele>
        <time>2026-03-03T08:14:18.548Z</time>
      </trkpt>
      <trkpt lat="31.831630000000004" lon="35.032520000000005">
        <ele>336</ele>
        <time>2026-03-03T08:14:19.548Z</time>
      </trkpt>
      <trkpt lat="31.831170000000004" lon="35.032250000000005">
        <ele>336</ele>
        <time>2026-03-03T08:14:20.548Z</time>
      </trkpt>
      <trkpt lat="31.831170000000004" lon="35.032250000000005">
        <ele>336</ele>
        <time>2026-03-03T08:14:21.548Z</time>
      </trkpt>
      <trkpt lat="31.830990000000003" lon="35.03215">
        <ele>336</ele>
        <time>2026-03-03T08:14:22.548Z</time>
      </trkpt>
      <trkpt lat="31.829560000000004" lon="35.03112">
        <ele>320</ele>
        <time>2026-03-03T08:14:23.548Z</time>
      </trkpt>
      <trkpt lat="31.829420000000002" lon="35.030950000000004">
        <ele>320</ele>
        <time>2026-03-03T08:14:24.548Z</time>
      </trkpt>
      <trkpt lat="31.829330000000002" lon="35.0309">
        <ele>320</ele>
        <time>2026-03-03T08:14:25.548Z</time>
      </trkpt>
      <trkpt lat="31.82927" lon="35.03089">
        <ele>314</ele>
        <time>2026-03-03T08:14:26.548Z</time>
      </trkpt>
      <trkpt lat="31.828870000000002" lon="35.03083">
        <ele>314</ele>
        <time>2026-03-03T08:14:27.548Z</time>
      </trkpt>
      <trkpt lat="31.82852" lon="35.03085">
        <ele>308.5</ele>
        <time>2026-03-03T08:14:28.548Z</time>
      </trkpt>
      <trkpt lat="31.82852" lon="35.03085">
        <ele>308.5</ele>
        <time>2026-03-03T08:14:29.548Z</time>
      </trkpt>
      <trkpt lat="31.828870000000002" lon="35.03083">
        <ele>314</ele>
        <time>2026-03-03T08:14:30.548Z</time>
      </trkpt>
      <trkpt lat="31.8286" lon="35.03078">
        <ele>320</ele>
        <time>2026-03-03T08:14:31.548Z</time>
      </trkpt>
      <trkpt lat="31.828280000000003" lon="35.030620000000006">
        <ele>312</ele>
        <time>2026-03-03T08:14:32.548Z</time>
      </trkpt>
      <trkpt lat="31.827840000000002" lon="35.03051">
        <ele>312</ele>
        <time>2026-03-03T08:14:33.548Z</time>
      </trkpt>
      <trkpt lat="31.82719" lon="35.030280000000005">
        <ele>306</ele>
        <time>2026-03-03T08:14:34.548Z</time>
      </trkpt>
      <trkpt lat="31.827070000000003" lon="35.030210000000004">
        <ele>306</ele>
        <time>2026-03-03T08:14:35.548Z</time>
      </trkpt>
      <trkpt lat="31.826810000000002" lon="35.03">
        <ele>299</ele>
        <time>2026-03-03T08:14:36.548Z</time>
      </trkpt>
      <trkpt lat="31.826690000000003" lon="35.02986">
        <ele>301</ele>
        <time>2026-03-03T08:14:37.548Z</time>
      </trkpt>
      <trkpt lat="31.826520000000002" lon="35.02957">
        <ele>301</ele>
        <time>2026-03-03T08:14:38.548Z</time>
      </trkpt>
      <trkpt lat="31.82617" lon="35.028870000000005">
        <ele>307</ele>
        <time>2026-03-03T08:14:39.548Z</time>
      </trkpt>
      <trkpt lat="31.826020000000003" lon="35.02864">
        <ele>307</ele>
        <time>2026-03-03T08:14:40.548Z</time>
      </trkpt>
      <trkpt lat="31.825460000000003" lon="35.02794">
        <ele>296</ele>
        <time>2026-03-03T08:14:41.548Z</time>
      </trkpt>
      <trkpt lat="31.82447" lon="35.026860000000006">
        <ele>295</ele>
        <time>2026-03-03T08:14:42.548Z</time>
      </trkpt>
      <trkpt lat="31.824130000000004" lon="35.026360000000004">
        <ele>291</ele>
        <time>2026-03-03T08:14:43.548Z</time>
      </trkpt>
      <trkpt lat="31.82402" lon="35.02606">
        <ele>291</ele>
        <time>2026-03-03T08:14:44.548Z</time>
      </trkpt>
      <trkpt lat="31.823940000000004" lon="35.0259">
        <ele>291</ele>
        <time>2026-03-03T08:14:45.548Z</time>
      </trkpt>
      <trkpt lat="31.823590000000003" lon="35.02552">
        <ele>292</ele>
        <time>2026-03-03T08:14:46.548Z</time>
      </trkpt>
      <trkpt lat="31.823590000000003" lon="35.02552">
        <ele>292</ele>
        <time>2026-03-03T08:14:47.548Z</time>
      </trkpt>
      <trkpt lat="31.823420000000002" lon="35.025240000000004">
        <ele>286</ele>
        <time>2026-03-03T08:14:48.548Z</time>
      </trkpt>
      <trkpt lat="31.823190000000004" lon="35.024800000000006">
        <ele>290</ele>
        <time>2026-03-03T08:14:49.548Z</time>
      </trkpt>
      <trkpt lat="31.823120000000003" lon="35.02463">
        <ele>290</ele>
        <time>2026-03-03T08:14:50.548Z</time>
      </trkpt>
      <trkpt lat="31.82307" lon="35.024460000000005">
        <ele>290</ele>
        <time>2026-03-03T08:14:51.548Z</time>
      </trkpt>
      <trkpt lat="31.823050000000002" lon="35.02375">
        <ele>288</ele>
        <time>2026-03-03T08:14:52.548Z</time>
      </trkpt>
      <trkpt lat="31.82306" lon="35.023270000000004">
        <ele>291</ele>
        <time>2026-03-03T08:14:53.548Z</time>
      </trkpt>
      <trkpt lat="31.823010000000004" lon="35.02235">
        <ele>288</ele>
        <time>2026-03-03T08:14:54.548Z</time>
      </trkpt>
      <trkpt lat="31.822930000000003" lon="35.02197">
        <ele>288</ele>
        <time>2026-03-03T08:14:55.548Z</time>
      </trkpt>
      <trkpt lat="31.822930000000003" lon="35.02197">
        <ele>288</ele>
        <time>2026-03-03T08:14:56.548Z</time>
      </trkpt>
      <trkpt lat="31.82287" lon="35.02167">
        <ele>288</ele>
        <time>2026-03-03T08:14:57.548Z</time>
      </trkpt>
      <trkpt lat="31.82287" lon="35.02156">
        <ele>284</ele>
        <time>2026-03-03T08:14:58.548Z</time>
      </trkpt>
      <trkpt lat="31.822910000000004" lon="35.021440000000005">
        <ele>284</ele>
        <time>2026-03-03T08:14:59.548Z</time>
      </trkpt>
      <trkpt lat="31.822860000000002" lon="35.02123">
        <ele>284</ele>
        <time>2026-03-03T08:15:00.548Z</time>
      </trkpt>
      <trkpt lat="31.822950000000002" lon="35.02114">
        <ele>284</ele>
        <time>2026-03-03T08:15:01.548Z</time>
      </trkpt>
      <trkpt lat="31.823030000000003" lon="35.020970000000005">
        <ele>284</ele>
        <time>2026-03-03T08:15:02.548Z</time>
      </trkpt>
      <trkpt lat="31.823090000000004" lon="35.020430000000005">
        <ele>279</ele>
        <time>2026-03-03T08:15:03.548Z</time>
      </trkpt>
      <trkpt lat="31.82316" lon="35.02028">
        <ele>279</ele>
        <time>2026-03-03T08:15:04.548Z</time>
      </trkpt>
      <trkpt lat="31.82326" lon="35.02013">
        <ele>279</ele>
        <time>2026-03-03T08:15:05.548Z</time>
      </trkpt>
      <trkpt lat="31.823320000000002" lon="35.019940000000005">
        <ele>274</ele>
        <time>2026-03-03T08:15:06.548Z</time>
      </trkpt>
      <trkpt lat="31.82354" lon="35.019960000000005">
        <ele>281</ele>
        <time>2026-03-03T08:15:07.548Z</time>
      </trkpt>
      <trkpt lat="31.824140000000003" lon="35.019670000000005">
        <ele>281</ele>
        <time>2026-03-03T08:15:08.548Z</time>
      </trkpt>
      <trkpt lat="31.82438" lon="35.01955">
        <ele>295</ele>
        <time>2026-03-03T08:15:09.548Z</time>
      </trkpt>
      <trkpt lat="31.824440000000003" lon="35.0195">
        <ele>295</ele>
        <time>2026-03-03T08:15:10.548Z</time>
      </trkpt>
      <trkpt lat="31.824540000000002" lon="35.01946">
        <ele>295</ele>
        <time>2026-03-03T08:15:11.548Z</time>
      </trkpt>
      <trkpt lat="31.825010000000002" lon="35.01912">
        <ele>286</ele>
        <time>2026-03-03T08:15:12.548Z</time>
      </trkpt>
      <trkpt lat="31.825250000000004" lon="35.01906">
        <ele>299</ele>
        <time>2026-03-03T08:15:13.548Z</time>
      </trkpt>
      <trkpt lat="31.825580000000002" lon="35.01901">
        <ele>299</ele>
        <time>2026-03-03T08:15:14.548Z</time>
      </trkpt>
      <trkpt lat="31.825830000000003" lon="35.018930000000005">
        <ele>299</ele>
        <time>2026-03-03T08:15:15.548Z</time>
      </trkpt>
      <trkpt lat="31.825900000000004" lon="35.018820000000005">
        <ele>299</ele>
        <time>2026-03-03T08:15:16.548Z</time>
      </trkpt>
      <trkpt lat="31.825650000000003" lon="35.01959">
        <ele>305</ele>
        <time>2026-03-03T08:15:17.548Z</time>
      </trkpt>
      <trkpt lat="31.825550000000003" lon="35.020070000000004">
        <ele>319</ele>
        <time>2026-03-03T08:15:18.548Z</time>
      </trkpt>
      <trkpt lat="31.825540000000004" lon="35.020270000000004">
        <ele>319</ele>
        <time>2026-03-03T08:15:19.548Z</time>
      </trkpt>
      <trkpt lat="31.825570000000003" lon="35.020630000000004">
        <ele>319</ele>
        <time>2026-03-03T08:15:20.548Z</time>
      </trkpt>
      <trkpt lat="31.825730000000004" lon="35.02158">
        <ele>326</ele>
        <time>2026-03-03T08:15:21.548Z</time>
      </trkpt>
      <trkpt lat="31.8258" lon="35.02253">
        <ele>324.5</ele>
        <time>2026-03-03T08:15:22.548Z</time>
      </trkpt>
      <trkpt lat="31.8258" lon="35.02253">
        <ele>324.5</ele>
        <time>2026-03-03T08:15:23.548Z</time>
      </trkpt>
      <trkpt lat="31.825830000000003" lon="35.02288">
        <ele>324</ele>
        <time>2026-03-03T08:15:24.548Z</time>
      </trkpt>
      <trkpt lat="31.825830000000003" lon="35.023160000000004">
        <ele>324</ele>
        <time>2026-03-03T08:15:25.548Z</time>
      </trkpt>
      <trkpt lat="31.8258" lon="35.023520000000005">
        <ele>327</ele>
        <time>2026-03-03T08:15:26.548Z</time>
      </trkpt>
      <trkpt lat="31.8257" lon="35.0244">
        <ele>323</ele>
        <time>2026-03-03T08:15:27.548Z</time>
      </trkpt>
      <trkpt lat="31.8257" lon="35.02452">
        <ele>323</ele>
        <time>2026-03-03T08:15:28.548Z</time>
      </trkpt>
      <trkpt lat="31.825760000000002" lon="35.02472">
        <ele>323</ele>
        <time>2026-03-03T08:15:29.548Z</time>
      </trkpt>
      <trkpt lat="31.825870000000002" lon="35.02494">
        <ele>323</ele>
        <time>2026-03-03T08:15:30.548Z</time>
      </trkpt>
      <trkpt lat="31.826000000000004" lon="35.0251">
        <ele>329</ele>
        <time>2026-03-03T08:15:31.548Z</time>
      </trkpt>
      <trkpt lat="31.826370000000004" lon="35.025450000000006">
        <ele>329</ele>
        <time>2026-03-03T08:15:32.548Z</time>
      </trkpt>
      <trkpt lat="31.826470000000004" lon="35.02559">
        <ele>329</ele>
        <time>2026-03-03T08:15:33.548Z</time>
      </trkpt>
      <trkpt lat="31.82655" lon="35.02572">
        <ele>329</ele>
        <time>2026-03-03T08:15:34.548Z</time>
      </trkpt>
      <trkpt lat="31.82663" lon="35.02593">
        <ele>320</ele>
        <time>2026-03-03T08:15:35.548Z</time>
      </trkpt>
      <trkpt lat="31.826760000000004" lon="35.026300000000006">
        <ele>325</ele>
        <time>2026-03-03T08:15:36.548Z</time>
      </trkpt>
      <trkpt lat="31.826760000000004" lon="35.026300000000006">
        <ele>325</ele>
        <time>2026-03-03T08:15:37.548Z</time>
      </trkpt>
      <trkpt lat="31.82663" lon="35.02593">
        <ele>320</ele>
        <time>2026-03-03T08:15:38.548Z</time>
      </trkpt>
      <trkpt lat="31.82693" lon="35.026250000000005">
        <ele>340</ele>
        <time>2026-03-03T08:15:39.548Z</time>
      </trkpt>
      <trkpt lat="31.827070000000003" lon="35.02647">
        <ele>340</ele>
        <time>2026-03-03T08:15:40.548Z</time>
      </trkpt>
      <trkpt lat="31.827130000000004" lon="35.026720000000005">
        <ele>330</ele>
        <time>2026-03-03T08:15:41.548Z</time>
      </trkpt>
      <trkpt lat="31.827270000000002" lon="35.02676">
        <ele>330</ele>
        <time>2026-03-03T08:15:42.548Z</time>
      </trkpt>
      <trkpt lat="31.827360000000002" lon="35.02673">
        <ele>330</ele>
        <time>2026-03-03T08:15:43.548Z</time>
      </trkpt>
      <trkpt lat="31.827360000000002" lon="35.02673">
        <ele>330</ele>
        <time>2026-03-03T08:15:44.548Z</time>
      </trkpt>
      <trkpt lat="31.827440000000003" lon="35.026650000000004">
        <ele>330</ele>
        <time>2026-03-03T08:15:45.548Z</time>
      </trkpt>
      <trkpt lat="31.827360000000002" lon="35.026230000000005">
        <ele>340</ele>
        <time>2026-03-03T08:15:46.548Z</time>
      </trkpt>
      <trkpt lat="31.827180000000002" lon="35.025670000000005">
        <ele>339</ele>
        <time>2026-03-03T08:15:47.548Z</time>
      </trkpt>
      <trkpt lat="31.8272" lon="35.025510000000004">
        <ele>339</ele>
        <time>2026-03-03T08:15:48.548Z</time>
      </trkpt>
      <trkpt lat="31.827140000000004" lon="35.02528">
        <ele>339</ele>
        <time>2026-03-03T08:15:49.548Z</time>
      </trkpt>
      <trkpt lat="31.827" lon="35.02507">
        <ele>339</ele>
        <time>2026-03-03T08:15:50.548Z</time>
      </trkpt>
      <trkpt lat="31.826750000000004" lon="35.02492">
        <ele>335</ele>
        <time>2026-03-03T08:15:51.548Z</time>
      </trkpt>
      <trkpt lat="31.826750000000004" lon="35.02492">
        <ele>335</ele>
        <time>2026-03-03T08:15:52.548Z</time>
      </trkpt>
      <trkpt lat="31.826610000000002" lon="35.024860000000004">
        <ele>335</ele>
        <time>2026-03-03T08:15:53.548Z</time>
      </trkpt>
      <trkpt lat="31.82646" lon="35.02467">
        <ele>335</ele>
        <time>2026-03-03T08:15:54.548Z</time>
      </trkpt>
      <trkpt lat="31.826410000000003" lon="35.0244">
        <ele>335</ele>
        <time>2026-03-03T08:15:55.548Z</time>
      </trkpt>
      <trkpt lat="31.826390000000004" lon="35.02403">
        <ele>339</ele>
        <time>2026-03-03T08:15:56.548Z</time>
      </trkpt>
      <trkpt lat="31.82644" lon="35.024">
        <ele>339</ele>
        <time>2026-03-03T08:15:57.548Z</time>
      </trkpt>
      <trkpt lat="31.82636" lon="35.023830000000004">
        <ele>339</ele>
        <time>2026-03-03T08:15:58.548Z</time>
      </trkpt>
      <trkpt lat="31.82625" lon="35.02328">
        <ele>337</ele>
        <time>2026-03-03T08:15:59.548Z</time>
      </trkpt>
      <trkpt lat="31.826300000000003" lon="35.02306">
        <ele>337</ele>
        <time>2026-03-03T08:16:00.548Z</time>
      </trkpt>
      <trkpt lat="31.826480000000004" lon="35.022870000000005">
        <ele>337</ele>
        <time>2026-03-03T08:16:01.548Z</time>
      </trkpt>
      <trkpt lat="31.82674" lon="35.02266">
        <ele>337</ele>
        <time>2026-03-03T08:16:02.548Z</time>
      </trkpt>
      <trkpt lat="31.826800000000002" lon="35.022400000000005">
        <ele>339</ele>
        <time>2026-03-03T08:16:03.548Z</time>
      </trkpt>
      <trkpt lat="31.826760000000004" lon="35.02212">
        <ele>339</ele>
        <time>2026-03-03T08:16:04.548Z</time>
      </trkpt>
      <trkpt lat="31.826660000000004" lon="35.02188">
        <ele>339</ele>
        <time>2026-03-03T08:16:05.548Z</time>
      </trkpt>
      <trkpt lat="31.82655" lon="35.02167">
        <ele>339</ele>
        <time>2026-03-03T08:16:06.548Z</time>
      </trkpt>
      <trkpt lat="31.82644" lon="35.021640000000005">
        <ele>339</ele>
        <time>2026-03-03T08:16:07.548Z</time>
      </trkpt>
      <trkpt lat="31.826390000000004" lon="35.02168">
        <ele>339</ele>
        <time>2026-03-03T08:16:08.548Z</time>
      </trkpt>
      <trkpt lat="31.826390000000004" lon="35.02168">
        <ele>339</ele>
        <time>2026-03-03T08:16:09.548Z</time>
      </trkpt>
      <trkpt lat="31.82644" lon="35.021640000000005">
        <ele>339</ele>
        <time>2026-03-03T08:16:10.548Z</time>
      </trkpt>
      <trkpt lat="31.826330000000002" lon="35.021530000000006">
        <ele>339</ele>
        <time>2026-03-03T08:16:11.548Z</time>
      </trkpt>
      <trkpt lat="31.826290000000004" lon="35.02127">
        <ele>339</ele>
        <time>2026-03-03T08:16:12.548Z</time>
      </trkpt>
      <trkpt lat="31.826240000000002" lon="35.02116">
        <ele>339</ele>
        <time>2026-03-03T08:16:13.548Z</time>
      </trkpt>
      <trkpt lat="31.826240000000002" lon="35.021080000000005">
        <ele>339</ele>
        <time>2026-03-03T08:16:14.548Z</time>
      </trkpt>
      <trkpt lat="31.826490000000003" lon="35.02065">
        <ele>330</ele>
        <time>2026-03-03T08:16:15.548Z</time>
      </trkpt>
      <trkpt lat="31.826560000000004" lon="35.020410000000005">
        <ele>330</ele>
        <time>2026-03-03T08:16:16.548Z</time>
      </trkpt>
      <trkpt lat="31.826610000000002" lon="35.020300000000006">
        <ele>330</ele>
        <time>2026-03-03T08:16:17.548Z</time>
      </trkpt>
      <trkpt lat="31.826750000000004" lon="35.0201">
        <ele>330</ele>
        <time>2026-03-03T08:16:18.548Z</time>
      </trkpt>
      <trkpt lat="31.826840000000004" lon="35.01991">
        <ele>320</ele>
        <time>2026-03-03T08:16:19.548Z</time>
      </trkpt>
      <trkpt lat="31.82702" lon="35.01944">
        <ele>320</ele>
        <time>2026-03-03T08:16:20.548Z</time>
      </trkpt>
      <trkpt lat="31.827040000000004" lon="35.019310000000004">
        <ele>320</ele>
        <time>2026-03-03T08:16:21.548Z</time>
      </trkpt>
      <trkpt lat="31.827080000000002" lon="35.01915">
        <ele>316</ele>
        <time>2026-03-03T08:16:22.548Z</time>
      </trkpt>
      <trkpt lat="31.827080000000002" lon="35.019020000000005">
        <ele>316</ele>
        <time>2026-03-03T08:16:23.548Z</time>
      </trkpt>
      <trkpt lat="31.827040000000004" lon="35.01894">
        <ele>316</ele>
        <time>2026-03-03T08:16:24.548Z</time>
      </trkpt>
      <trkpt lat="31.826840000000004" lon="35.018840000000004">
        <ele>316</ele>
        <time>2026-03-03T08:16:25.548Z</time>
      </trkpt>
      <trkpt lat="31.826840000000004" lon="35.018840000000004">
        <ele>316</ele>
        <time>2026-03-03T08:16:26.548Z</time>
      </trkpt>
      <trkpt lat="31.826840000000004" lon="35.018840000000004">
        <ele>316</ele>
        <time>2026-03-03T08:16:27.548Z</time>
      </trkpt>
      <trkpt lat="31.82682" lon="35.01872">
        <ele>316</ele>
        <time>2026-03-03T08:16:28.548Z</time>
      </trkpt>
      <trkpt lat="31.826810000000002" lon="35.01845">
        <ele>316</ele>
        <time>2026-03-03T08:16:29.548Z</time>
      </trkpt>
      <trkpt lat="31.826850000000004" lon="35.01802">
        <ele>311</ele>
        <time>2026-03-03T08:16:30.548Z</time>
      </trkpt>
      <trkpt lat="31.826840000000004" lon="35.01782">
        <ele>311</ele>
        <time>2026-03-03T08:16:31.548Z</time>
      </trkpt>
      <trkpt lat="31.826970000000003" lon="35.01756">
        <ele>311</ele>
        <time>2026-03-03T08:16:32.548Z</time>
      </trkpt>
      <trkpt lat="31.826990000000002" lon="35.017410000000005">
        <ele>297</ele>
        <time>2026-03-03T08:16:33.548Z</time>
      </trkpt>
      <trkpt lat="31.826960000000003" lon="35.017160000000004">
        <ele>297</ele>
        <time>2026-03-03T08:16:34.548Z</time>
      </trkpt>
      <trkpt lat="31.827090000000002" lon="35.0168">
        <ele>297</ele>
        <time>2026-03-03T08:16:35.548Z</time>
      </trkpt>
      <trkpt lat="31.827270000000002" lon="35.01644">
        <ele>285</ele>
        <time>2026-03-03T08:16:36.548Z</time>
      </trkpt>
      <trkpt lat="31.82749" lon="35.016600000000004">
        <ele>285</ele>
        <time>2026-03-03T08:16:37.548Z</time>
      </trkpt>
      <trkpt lat="31.827440000000003" lon="35.01633">
        <ele>285</ele>
        <time>2026-03-03T08:16:38.548Z</time>
      </trkpt>
      <trkpt lat="31.827440000000003" lon="35.01615">
        <ele>285</ele>
        <time>2026-03-03T08:16:39.548Z</time>
      </trkpt>
      <trkpt lat="31.82739" lon="35.01605">
        <ele>285</ele>
        <time>2026-03-03T08:16:40.548Z</time>
      </trkpt>
      <trkpt lat="31.827270000000002" lon="35.01597">
        <ele>285</ele>
        <time>2026-03-03T08:16:41.548Z</time>
      </trkpt>
      <trkpt lat="31.827230000000004" lon="35.01588">
        <ele>283.5</ele>
        <time>2026-03-03T08:16:42.548Z</time>
      </trkpt>
      <trkpt lat="31.827230000000004" lon="35.01588">
        <ele>283.5</ele>
        <time>2026-03-03T08:16:43.548Z</time>
      </trkpt>
      <trkpt lat="31.82719" lon="35.01581">
        <ele>282</ele>
        <time>2026-03-03T08:16:44.548Z</time>
      </trkpt>
      <trkpt lat="31.827360000000002" lon="35.015710000000006">
        <ele>282</ele>
        <time>2026-03-03T08:16:45.548Z</time>
      </trkpt>
      <trkpt lat="31.82748" lon="35.015600000000006">
        <ele>282</ele>
        <time>2026-03-03T08:16:46.548Z</time>
      </trkpt>
      <trkpt lat="31.82758" lon="35.01547">
        <ele>282</ele>
        <time>2026-03-03T08:16:47.548Z</time>
      </trkpt>
      <trkpt lat="31.82767" lon="35.015280000000004">
        <ele>296</ele>
        <time>2026-03-03T08:16:48.548Z</time>
      </trkpt>
      <trkpt lat="31.82785" lon="35.014770000000006">
        <ele>297</ele>
        <time>2026-03-03T08:16:49.548Z</time>
      </trkpt>
      <trkpt lat="31.82814" lon="35.014680000000006">
        <ele>297</ele>
        <time>2026-03-03T08:16:50.548Z</time>
      </trkpt>
      <trkpt lat="31.82824" lon="35.014610000000005">
        <ele>297</ele>
        <time>2026-03-03T08:16:51.548Z</time>
      </trkpt>
      <trkpt lat="31.828440000000004" lon="35.014390000000006">
        <ele>297</ele>
        <time>2026-03-03T08:16:52.548Z</time>
      </trkpt>
      <trkpt lat="31.828450000000004" lon="35.014320000000005">
        <ele>301</ele>
        <time>2026-03-03T08:16:53.548Z</time>
      </trkpt>
      <trkpt lat="31.828450000000004" lon="35.014320000000005">
        <ele>301</ele>
        <time>2026-03-03T08:16:54.548Z</time>
      </trkpt>
      <trkpt lat="31.828460000000003" lon="35.01413">
        <ele>305</ele>
        <time>2026-03-03T08:16:55.548Z</time>
      </trkpt>
      <trkpt lat="31.828260000000004" lon="35.013560000000005">
        <ele>305</ele>
        <time>2026-03-03T08:16:56.548Z</time>
      </trkpt>
      <trkpt lat="31.82824" lon="35.01328">
        <ele>312</ele>
        <time>2026-03-03T08:16:57.548Z</time>
      </trkpt>
      <trkpt lat="31.82823" lon="35.013130000000004">
        <ele>312</ele>
        <time>2026-03-03T08:16:58.548Z</time>
      </trkpt>
      <trkpt lat="31.828120000000002" lon="35.012690000000006">
        <ele>312</ele>
        <time>2026-03-03T08:16:59.548Z</time>
      </trkpt>
      <trkpt lat="31.82804" lon="35.012530000000005">
        <ele>312</ele>
        <time>2026-03-03T08:17:00.548Z</time>
      </trkpt>
      <trkpt lat="31.827800000000003" lon="35.01232">
        <ele>311</ele>
        <time>2026-03-03T08:17:01.548Z</time>
      </trkpt>
      <trkpt lat="31.827720000000003" lon="35.012170000000005">
        <ele>311</ele>
        <time>2026-03-03T08:17:02.548Z</time>
      </trkpt>
      <trkpt lat="31.827550000000002" lon="35.011770000000006">
        <ele>295</ele>
        <time>2026-03-03T08:17:03.548Z</time>
      </trkpt>
      <trkpt lat="31.82747" lon="35.01142">
        <ele>295</ele>
        <time>2026-03-03T08:17:04.548Z</time>
      </trkpt>
      <trkpt lat="31.827330000000003" lon="35.01109">
        <ele>295</ele>
        <time>2026-03-03T08:17:05.548Z</time>
      </trkpt>
      <trkpt lat="31.827180000000002" lon="35.01086">
        <ele>295</ele>
        <time>2026-03-03T08:17:06.548Z</time>
      </trkpt>
      <trkpt lat="31.827070000000003" lon="35.01073">
        <ele>303</ele>
        <time>2026-03-03T08:17:07.548Z</time>
      </trkpt>
      <trkpt lat="31.826750000000004" lon="35.01052">
        <ele>290</ele>
        <time>2026-03-03T08:17:08.548Z</time>
      </trkpt>
      <trkpt lat="31.826620000000002" lon="35.01039">
        <ele>290</ele>
        <time>2026-03-03T08:17:09.548Z</time>
      </trkpt>
      <trkpt lat="31.826560000000004" lon="35.01026">
        <ele>290</ele>
        <time>2026-03-03T08:17:10.548Z</time>
      </trkpt>
      <trkpt lat="31.826490000000003" lon="35.01001">
        <ele>290</ele>
        <time>2026-03-03T08:17:11.548Z</time>
      </trkpt>
      <trkpt lat="31.82636" lon="35.00932">
        <ele>291</ele>
        <time>2026-03-03T08:17:12.548Z</time>
      </trkpt>
      <trkpt lat="31.82635" lon="35.009150000000005">
        <ele>286</ele>
        <time>2026-03-03T08:17:13.548Z</time>
      </trkpt>
      <trkpt lat="31.826400000000003" lon="35.00885">
        <ele>286</ele>
        <time>2026-03-03T08:17:14.548Z</time>
      </trkpt>
      <trkpt lat="31.82645" lon="35.00871">
        <ele>286</ele>
        <time>2026-03-03T08:17:15.548Z</time>
      </trkpt>
      <trkpt lat="31.826710000000002" lon="35.00827">
        <ele>278</ele>
        <time>2026-03-03T08:17:16.548Z</time>
      </trkpt>
      <trkpt lat="31.826810000000002" lon="35.008120000000005">
        <ele>288</ele>
        <time>2026-03-03T08:17:17.548Z</time>
      </trkpt>
      <trkpt lat="31.827040000000004" lon="35.00786">
        <ele>288</ele>
        <time>2026-03-03T08:17:18.548Z</time>
      </trkpt>
      <trkpt lat="31.82711" lon="35.007740000000005">
        <ele>288</ele>
        <time>2026-03-03T08:17:19.548Z</time>
      </trkpt>
      <trkpt lat="31.82711" lon="35.007740000000005">
        <ele>288</ele>
        <time>2026-03-03T08:17:20.548Z</time>
      </trkpt>
      <trkpt lat="31.827170000000002" lon="35.007270000000005">
        <ele>276</ele>
        <time>2026-03-03T08:17:21.548Z</time>
      </trkpt>
      <trkpt lat="31.827330000000003" lon="35.00688">
        <ele>276</ele>
        <time>2026-03-03T08:17:22.548Z</time>
      </trkpt>
      <trkpt lat="31.827400000000004" lon="35.00681">
        <ele>276</ele>
        <time>2026-03-03T08:17:23.548Z</time>
      </trkpt>
      <trkpt lat="31.827500000000004" lon="35.00679">
        <ele>276</ele>
        <time>2026-03-03T08:17:24.548Z</time>
      </trkpt>
      <trkpt lat="31.82776" lon="35.006820000000005">
        <ele>280</ele>
        <time>2026-03-03T08:17:25.548Z</time>
      </trkpt>
      <trkpt lat="31.827830000000002" lon="35.006820000000005">
        <ele>280</ele>
        <time>2026-03-03T08:17:26.548Z</time>
      </trkpt>
      <trkpt lat="31.827890000000004" lon="35.00677">
        <ele>280</ele>
        <time>2026-03-03T08:17:27.548Z</time>
      </trkpt>
      <trkpt lat="31.827920000000002" lon="35.00668">
        <ele>280</ele>
        <time>2026-03-03T08:17:28.548Z</time>
      </trkpt>
      <trkpt lat="31.827890000000004" lon="35.00656">
        <ele>272</ele>
        <time>2026-03-03T08:17:29.548Z</time>
      </trkpt>
      <trkpt lat="31.827840000000002" lon="35.00647">
        <ele>272</ele>
        <time>2026-03-03T08:17:30.548Z</time>
      </trkpt>
      <trkpt lat="31.827690000000004" lon="35.00625">
        <ele>272</ele>
        <time>2026-03-03T08:17:31.548Z</time>
      </trkpt>
      <trkpt lat="31.827360000000002" lon="35.00594">
        <ele>262</ele>
        <time>2026-03-03T08:17:32.548Z</time>
      </trkpt>
      <trkpt lat="31.827320000000004" lon="35.005860000000006">
        <ele>262</ele>
        <time>2026-03-03T08:17:33.548Z</time>
      </trkpt>
      <trkpt lat="31.827330000000003" lon="35.00573">
        <ele>256</ele>
        <time>2026-03-03T08:17:34.548Z</time>
      </trkpt>
      <trkpt lat="31.827640000000002" lon="35.00515">
        <ele>265</ele>
        <time>2026-03-03T08:17:35.548Z</time>
      </trkpt>
      <trkpt lat="31.827740000000002" lon="35.005030000000005">
        <ele>265</ele>
        <time>2026-03-03T08:17:36.548Z</time>
      </trkpt>
      <trkpt lat="31.827830000000002" lon="35.00495">
        <ele>257</ele>
        <time>2026-03-03T08:17:37.548Z</time>
      </trkpt>
      <trkpt lat="31.828830000000004" lon="35.00435">
        <ele>264</ele>
        <time>2026-03-03T08:17:38.548Z</time>
      </trkpt>
      <trkpt lat="31.829580000000004" lon="35.00383">
        <ele>261</ele>
        <time>2026-03-03T08:17:39.548Z</time>
      </trkpt>
      <trkpt lat="31.8302" lon="35.00339">
        <ele>265</ele>
        <time>2026-03-03T08:17:40.548Z</time>
      </trkpt>
      <trkpt lat="31.830260000000003" lon="35.00334">
        <ele>265</ele>
        <time>2026-03-03T08:17:41.548Z</time>
      </trkpt>
      <trkpt lat="31.830260000000003" lon="35.00334">
        <ele>265</ele>
        <time>2026-03-03T08:17:42.548Z</time>
      </trkpt>
      <trkpt lat="31.8302" lon="35.00339">
        <ele>265</ele>
        <time>2026-03-03T08:17:43.548Z</time>
      </trkpt>
      <trkpt lat="31.830360000000002" lon="35.003400000000006">
        <ele>265</ele>
        <time>2026-03-03T08:17:44.548Z</time>
      </trkpt>
      <trkpt lat="31.830500000000004" lon="35.00345">
        <ele>265</ele>
        <time>2026-03-03T08:17:45.548Z</time>
      </trkpt>
      <trkpt lat="31.830910000000003" lon="35.003620000000005">
        <ele>265</ele>
        <time>2026-03-03T08:17:46.548Z</time>
      </trkpt>
      <trkpt lat="31.83114" lon="35.003840000000004">
        <ele>272</ele>
        <time>2026-03-03T08:17:47.548Z</time>
      </trkpt>
      <trkpt lat="31.831250000000004" lon="35.00408">
        <ele>272</ele>
        <time>2026-03-03T08:17:48.548Z</time>
      </trkpt>
      <trkpt lat="31.831260000000004" lon="35.00414">
        <ele>271</ele>
        <time>2026-03-03T08:17:49.548Z</time>
      </trkpt>
      <trkpt lat="31.831260000000004" lon="35.00414">
        <ele>271</ele>
        <time>2026-03-03T08:17:50.548Z</time>
      </trkpt>
      <trkpt lat="31.831250000000004" lon="35.00408">
        <ele>272</ele>
        <time>2026-03-03T08:17:51.548Z</time>
      </trkpt>
      <trkpt lat="31.831290000000003" lon="35.00403">
        <ele>272</ele>
        <time>2026-03-03T08:17:52.548Z</time>
      </trkpt>
      <trkpt lat="31.83133" lon="35.00401">
        <ele>272</ele>
        <time>2026-03-03T08:17:53.548Z</time>
      </trkpt>
      <trkpt lat="31.83143" lon="35.004070000000006">
        <ele>272</ele>
        <time>2026-03-03T08:17:54.548Z</time>
      </trkpt>
      <trkpt lat="31.8316" lon="35.0043">
        <ele>270</ele>
        <time>2026-03-03T08:17:55.548Z</time>
      </trkpt>
      <trkpt lat="31.831690000000002" lon="35.00448">
        <ele>270</ele>
        <time>2026-03-03T08:17:56.548Z</time>
      </trkpt>
      <trkpt lat="31.831850000000003" lon="35.00495">
        <ele>284</ele>
        <time>2026-03-03T08:17:57.548Z</time>
      </trkpt>
      <trkpt lat="31.831950000000003" lon="35.005120000000005">
        <ele>287</ele>
        <time>2026-03-03T08:17:58.548Z</time>
      </trkpt>
      <trkpt lat="31.83207" lon="35.00506">
        <ele>287</ele>
        <time>2026-03-03T08:17:59.548Z</time>
      </trkpt>
      <trkpt lat="31.832140000000003" lon="35.004900000000006">
        <ele>284</ele>
        <time>2026-03-03T08:18:00.548Z</time>
      </trkpt>
      <trkpt lat="31.832140000000003" lon="35.004690000000004">
        <ele>284</ele>
        <time>2026-03-03T08:18:01.548Z</time>
      </trkpt>
      <trkpt lat="31.83208" lon="35.004400000000004">
        <ele>284</ele>
        <time>2026-03-03T08:18:02.548Z</time>
      </trkpt>
      <trkpt lat="31.83208" lon="35.00428">
        <ele>284</ele>
        <time>2026-03-03T08:18:03.548Z</time>
      </trkpt>
      <trkpt lat="31.832140000000003" lon="35.00412">
        <ele>283</ele>
        <time>2026-03-03T08:18:04.548Z</time>
      </trkpt>
      <trkpt lat="31.832330000000002" lon="35.00376">
        <ele>283</ele>
        <time>2026-03-03T08:18:05.548Z</time>
      </trkpt>
      <trkpt lat="31.83235" lon="35.00366">
        <ele>283</ele>
        <time>2026-03-03T08:18:06.548Z</time>
      </trkpt>
      <trkpt lat="31.83235" lon="35.00366">
        <ele>283</ele>
        <time>2026-03-03T08:18:07.548Z</time>
      </trkpt>
      <trkpt lat="31.832320000000003" lon="35.00343">
        <ele>283</ele>
        <time>2026-03-03T08:18:08.548Z</time>
      </trkpt>
      <trkpt lat="31.83217" lon="35.00305">
        <ele>294</ele>
        <time>2026-03-03T08:18:09.548Z</time>
      </trkpt>
      <trkpt lat="31.832120000000003" lon="35.002990000000004">
        <ele>294</ele>
        <time>2026-03-03T08:18:10.548Z</time>
      </trkpt>
      <trkpt lat="31.832050000000002" lon="35.00296">
        <ele>294</ele>
        <time>2026-03-03T08:18:11.548Z</time>
      </trkpt>
      <trkpt lat="31.831870000000002" lon="35.00294">
        <ele>294</ele>
        <time>2026-03-03T08:18:12.548Z</time>
      </trkpt>
      <trkpt lat="31.831810000000004" lon="35.002900000000004">
        <ele>294</ele>
        <time>2026-03-03T08:18:13.548Z</time>
      </trkpt>
      <trkpt lat="31.831760000000003" lon="35.002790000000005">
        <ele>283</ele>
        <time>2026-03-03T08:18:14.548Z</time>
      </trkpt>
      <trkpt lat="31.831750000000003" lon="35.00267">
        <ele>283</ele>
        <time>2026-03-03T08:18:15.548Z</time>
      </trkpt>
      <trkpt lat="31.831770000000002" lon="35.002590000000005">
        <ele>283</ele>
        <time>2026-03-03T08:18:16.548Z</time>
      </trkpt>
      <trkpt lat="31.831810000000004" lon="35.002520000000004">
        <ele>294</ele>
        <time>2026-03-03T08:18:17.548Z</time>
      </trkpt>
      <trkpt lat="31.83209" lon="35.002340000000004">
        <ele>307</ele>
        <time>2026-03-03T08:18:18.548Z</time>
      </trkpt>
      <trkpt lat="31.832110000000004" lon="35.00231">
        <ele>307</ele>
        <time>2026-03-03T08:18:19.548Z</time>
      </trkpt>
      <trkpt lat="31.832130000000003" lon="35.00222">
        <ele>307</ele>
        <time>2026-03-03T08:18:20.548Z</time>
      </trkpt>
      <trkpt lat="31.832110000000004" lon="35.00215">
        <ele>307</ele>
        <time>2026-03-03T08:18:21.548Z</time>
      </trkpt>
      <trkpt lat="31.83199" lon="35.001990000000006">
        <ele>307</ele>
        <time>2026-03-03T08:18:22.548Z</time>
      </trkpt>
      <trkpt lat="31.831530000000004" lon="35.001650000000005">
        <ele>313</ele>
        <time>2026-03-03T08:18:23.548Z</time>
      </trkpt>
      <trkpt lat="31.831260000000004" lon="35.00155">
        <ele>313</ele>
        <time>2026-03-03T08:18:24.548Z</time>
      </trkpt>
      <trkpt lat="31.831190000000003" lon="35.0015">
        <ele>313</ele>
        <time>2026-03-03T08:18:25.548Z</time>
      </trkpt>
      <trkpt lat="31.830840000000002" lon="35.00121">
        <ele>302</ele>
        <time>2026-03-03T08:18:26.548Z</time>
      </trkpt>
      <trkpt lat="31.830440000000003" lon="35.00092">
        <ele>302</ele>
        <time>2026-03-03T08:18:27.548Z</time>
      </trkpt>
      <trkpt lat="31.8301" lon="35.00063">
        <ele>299</ele>
        <time>2026-03-03T08:18:28.548Z</time>
      </trkpt>
      <trkpt lat="31.830000000000002" lon="35.0005">
        <ele>299</ele>
        <time>2026-03-03T08:18:29.548Z</time>
      </trkpt>
      <trkpt lat="31.829810000000002" lon="35.00019">
        <ele>299</ele>
        <time>2026-03-03T08:18:30.548Z</time>
      </trkpt>
      <trkpt lat="31.829580000000004" lon="34.99992">
        <ele>299</ele>
        <time>2026-03-03T08:18:31.548Z</time>
      </trkpt>
      <trkpt lat="31.829120000000003" lon="34.99927">
        <ele>279</ele>
        <time>2026-03-03T08:18:32.548Z</time>
      </trkpt>
      <trkpt lat="31.82898" lon="34.99915">
        <ele>297</ele>
        <time>2026-03-03T08:18:33.548Z</time>
      </trkpt>
      <trkpt lat="31.828670000000002" lon="34.999">
        <ele>297</ele>
        <time>2026-03-03T08:18:34.548Z</time>
      </trkpt>
      <trkpt lat="31.828620000000004" lon="34.998960000000004">
        <ele>297</ele>
        <time>2026-03-03T08:18:35.548Z</time>
      </trkpt>
      <trkpt lat="31.828370000000003" lon="34.99859">
        <ele>280</ele>
        <time>2026-03-03T08:18:36.548Z</time>
      </trkpt>
      <trkpt lat="31.828280000000003" lon="34.99841">
        <ele>280</ele>
        <time>2026-03-03T08:18:37.548Z</time>
      </trkpt>
      <trkpt lat="31.82822" lon="34.998250000000006">
        <ele>291</ele>
        <time>2026-03-03T08:18:38.548Z</time>
      </trkpt>
      <trkpt lat="31.828200000000002" lon="34.99813">
        <ele>291</ele>
        <time>2026-03-03T08:18:39.548Z</time>
      </trkpt>
      <trkpt lat="31.828200000000002" lon="34.998000000000005">
        <ele>291</ele>
        <time>2026-03-03T08:18:40.548Z</time>
      </trkpt>
      <trkpt lat="31.82822" lon="34.99788">
        <ele>291</ele>
        <time>2026-03-03T08:18:41.548Z</time>
      </trkpt>
      <trkpt lat="31.828280000000003" lon="34.99768">
        <ele>291</ele>
        <time>2026-03-03T08:18:42.548Z</time>
      </trkpt>
      <trkpt lat="31.828340000000004" lon="34.99757">
        <ele>287</ele>
        <time>2026-03-03T08:18:43.548Z</time>
      </trkpt>
      <trkpt lat="31.828340000000004" lon="34.99757">
        <ele>287</ele>
        <time>2026-03-03T08:18:44.548Z</time>
      </trkpt>
      <trkpt lat="31.828400000000002" lon="34.997460000000004">
        <ele>283</ele>
        <time>2026-03-03T08:18:45.548Z</time>
      </trkpt>
      <trkpt lat="31.8287" lon="34.9971">
        <ele>296</ele>
        <time>2026-03-03T08:18:46.548Z</time>
      </trkpt>
      <trkpt lat="31.828860000000002" lon="34.996930000000006">
        <ele>296</ele>
        <time>2026-03-03T08:18:47.548Z</time>
      </trkpt>
      <trkpt lat="31.829000000000004" lon="34.99689">
        <ele>296</ele>
        <time>2026-03-03T08:18:48.548Z</time>
      </trkpt>
      <trkpt lat="31.829210000000003" lon="34.996880000000004">
        <ele>296</ele>
        <time>2026-03-03T08:18:49.548Z</time>
      </trkpt>
      <trkpt lat="31.829280000000004" lon="34.996860000000005">
        <ele>296</ele>
        <time>2026-03-03T08:18:50.548Z</time>
      </trkpt>
      <trkpt lat="31.82945" lon="34.99678">
        <ele>299</ele>
        <time>2026-03-03T08:18:51.548Z</time>
      </trkpt>
      <trkpt lat="31.82974" lon="34.996610000000004">
        <ele>278</ele>
        <time>2026-03-03T08:18:52.548Z</time>
      </trkpt>
      <trkpt lat="31.829940000000004" lon="34.996520000000004">
        <ele>278</ele>
        <time>2026-03-03T08:18:53.548Z</time>
      </trkpt>
      <trkpt lat="31.830260000000003" lon="34.996460000000006">
        <ele>278</ele>
        <time>2026-03-03T08:18:54.548Z</time>
      </trkpt>
      <trkpt lat="31.830410000000004" lon="34.996410000000004">
        <ele>278</ele>
        <time>2026-03-03T08:18:55.548Z</time>
      </trkpt>
      <trkpt lat="31.8304" lon="34.99642">
        <ele>278</ele>
        <time>2026-03-03T08:18:56.548Z</time>
      </trkpt>
      <trkpt lat="31.830310000000004" lon="34.99633">
        <ele>278</ele>
        <time>2026-03-03T08:18:57.548Z</time>
      </trkpt>
      <trkpt lat="31.830130000000004" lon="34.99625">
        <ele>278</ele>
        <time>2026-03-03T08:18:58.548Z</time>
      </trkpt>
      <trkpt lat="31.830030000000004" lon="34.99624">
        <ele>278</ele>
        <time>2026-03-03T08:18:59.548Z</time>
      </trkpt>
      <trkpt lat="31.829980000000003" lon="34.99617">
        <ele>278</ele>
        <time>2026-03-03T08:19:00.548Z</time>
      </trkpt>
      <trkpt lat="31.830050000000004" lon="34.99609">
        <ele>278</ele>
        <time>2026-03-03T08:19:01.548Z</time>
      </trkpt>
      <trkpt lat="31.830360000000002" lon="34.99598">
        <ele>278</ele>
        <time>2026-03-03T08:19:02.548Z</time>
      </trkpt>
      <trkpt lat="31.830440000000003" lon="34.99593">
        <ele>278</ele>
        <time>2026-03-03T08:19:03.548Z</time>
      </trkpt>
      <trkpt lat="31.830350000000003" lon="34.99575">
        <ele>264</ele>
        <time>2026-03-03T08:19:04.548Z</time>
      </trkpt>
      <trkpt lat="31.831090000000003" lon="34.99595">
        <ele>276</ele>
        <time>2026-03-03T08:19:05.548Z</time>
      </trkpt>
      <trkpt lat="31.83132" lon="34.995900000000006">
        <ele>276</ele>
        <time>2026-03-03T08:19:06.548Z</time>
      </trkpt>
      <trkpt lat="31.831660000000003" lon="34.996100000000006">
        <ele>276</ele>
        <time>2026-03-03T08:19:07.548Z</time>
      </trkpt>
      <trkpt lat="31.832190000000004" lon="34.99631">
        <ele>279</ele>
        <time>2026-03-03T08:19:08.548Z</time>
      </trkpt>
      <trkpt lat="31.832380000000004" lon="34.996340000000004">
        <ele>279</ele>
        <time>2026-03-03T08:19:09.548Z</time>
      </trkpt>
      <trkpt lat="31.833040000000004" lon="34.99653">
        <ele>279</ele>
        <time>2026-03-03T08:19:10.548Z</time>
      </trkpt>
      <trkpt lat="31.834130000000002" lon="34.99701">
        <ele>290</ele>
        <time>2026-03-03T08:19:11.548Z</time>
      </trkpt>
      <trkpt lat="31.834440000000004" lon="34.99701">
        <ele>296</ele>
        <time>2026-03-03T08:19:12.548Z</time>
      </trkpt>
      <trkpt lat="31.835150000000002" lon="34.99743">
        <ele>304</ele>
        <time>2026-03-03T08:19:13.548Z</time>
      </trkpt>
      <trkpt lat="31.835310000000003" lon="34.99754">
        <ele>310</ele>
        <time>2026-03-03T08:19:14.548Z</time>
      </trkpt>
      <trkpt lat="31.835510000000003" lon="34.99723">
        <ele>304</ele>
        <time>2026-03-03T08:19:15.548Z</time>
      </trkpt>
      <trkpt lat="31.83575" lon="34.99673">
        <ele>304</ele>
        <time>2026-03-03T08:19:16.548Z</time>
      </trkpt>
      <trkpt lat="31.83602" lon="34.99712">
        <ele>317</ele>
        <time>2026-03-03T08:19:17.548Z</time>
      </trkpt>
      <trkpt lat="31.836100000000002" lon="34.9973">
        <ele>317</ele>
        <time>2026-03-03T08:19:18.548Z</time>
      </trkpt>
      <trkpt lat="31.836070000000003" lon="34.997440000000005">
        <ele>313.5</ele>
        <time>2026-03-03T08:19:19.548Z</time>
      </trkpt>
      <trkpt lat="31.836070000000003" lon="34.997440000000005">
        <ele>313.5</ele>
        <time>2026-03-03T08:19:20.548Z</time>
      </trkpt>
      <trkpt lat="31.836100000000002" lon="34.9973">
        <ele>317</ele>
        <time>2026-03-03T08:19:21.548Z</time>
      </trkpt>
      <trkpt lat="31.83602" lon="34.99712">
        <ele>317</ele>
        <time>2026-03-03T08:19:22.548Z</time>
      </trkpt>
      <trkpt lat="31.835670000000004" lon="34.99663">
        <ele>307</ele>
        <time>2026-03-03T08:19:23.548Z</time>
      </trkpt>
      <trkpt lat="31.835470000000004" lon="34.99645">
        <ele>307</ele>
        <time>2026-03-03T08:19:24.548Z</time>
      </trkpt>
      <trkpt lat="31.83537" lon="34.996410000000004">
        <ele>307</ele>
        <time>2026-03-03T08:19:25.548Z</time>
      </trkpt>
      <trkpt lat="31.83526" lon="34.99631">
        <ele>307</ele>
        <time>2026-03-03T08:19:26.548Z</time>
      </trkpt>
      <trkpt lat="31.835220000000003" lon="34.996140000000004">
        <ele>307</ele>
        <time>2026-03-03T08:19:27.548Z</time>
      </trkpt>
      <trkpt lat="31.835220000000003" lon="34.995560000000005">
        <ele>311</ele>
        <time>2026-03-03T08:19:28.548Z</time>
      </trkpt>
      <trkpt lat="31.835150000000002" lon="34.99532">
        <ele>311</ele>
        <time>2026-03-03T08:19:29.548Z</time>
      </trkpt>
      <trkpt lat="31.835050000000003" lon="34.99495">
        <ele>307</ele>
        <time>2026-03-03T08:19:30.548Z</time>
      </trkpt>
      <trkpt lat="31.834920000000004" lon="34.994400000000006">
        <ele>307</ele>
        <time>2026-03-03T08:19:31.548Z</time>
      </trkpt>
      <trkpt lat="31.835220000000003" lon="34.993770000000005">
        <ele>298</ele>
        <time>2026-03-03T08:19:32.548Z</time>
      </trkpt>
      <trkpt lat="31.835200000000004" lon="34.99365">
        <ele>298</ele>
        <time>2026-03-03T08:19:33.548Z</time>
      </trkpt>
      <trkpt lat="31.83526" lon="34.9934">
        <ele>298</ele>
        <time>2026-03-03T08:19:34.548Z</time>
      </trkpt>
      <trkpt lat="31.835350000000002" lon="34.99322">
        <ele>293</ele>
        <time>2026-03-03T08:19:35.548Z</time>
      </trkpt>
      <trkpt lat="31.835530000000002" lon="34.99271">
        <ele>293</ele>
        <time>2026-03-03T08:19:36.548Z</time>
      </trkpt>
      <trkpt lat="31.83556" lon="34.99264">
        <ele>293</ele>
        <time>2026-03-03T08:19:37.548Z</time>
      </trkpt>
      <trkpt lat="31.83564" lon="34.99255">
        <ele>293</ele>
        <time>2026-03-03T08:19:38.548Z</time>
      </trkpt>
      <trkpt lat="31.83565" lon="34.99242">
        <ele>291</ele>
        <time>2026-03-03T08:19:39.548Z</time>
      </trkpt>
      <trkpt lat="31.835570000000004" lon="34.99232">
        <ele>291</ele>
        <time>2026-03-03T08:19:40.548Z</time>
      </trkpt>
      <trkpt lat="31.835430000000002" lon="34.992230000000006">
        <ele>291</ele>
        <time>2026-03-03T08:19:41.548Z</time>
      </trkpt>
      <trkpt lat="31.835350000000002" lon="34.992140000000006">
        <ele>291</ele>
        <time>2026-03-03T08:19:42.548Z</time>
      </trkpt>
      <trkpt lat="31.835300000000004" lon="34.99203">
        <ele>291</ele>
        <time>2026-03-03T08:19:43.548Z</time>
      </trkpt>
      <trkpt lat="31.83528" lon="34.991910000000004">
        <ele>291</ele>
        <time>2026-03-03T08:19:44.548Z</time>
      </trkpt>
      <trkpt lat="31.835300000000004" lon="34.99161">
        <ele>290</ele>
        <time>2026-03-03T08:19:45.548Z</time>
      </trkpt>
      <trkpt lat="31.835290000000004" lon="34.991020000000006">
        <ele>290</ele>
        <time>2026-03-03T08:19:46.548Z</time>
      </trkpt>
      <trkpt lat="31.835320000000003" lon="34.990860000000005">
        <ele>290</ele>
        <time>2026-03-03T08:19:47.548Z</time>
      </trkpt>
      <trkpt lat="31.835520000000002" lon="34.99031">
        <ele>285</ele>
        <time>2026-03-03T08:19:48.548Z</time>
      </trkpt>
      <trkpt lat="31.835610000000003" lon="34.99018">
        <ele>285</ele>
        <time>2026-03-03T08:19:49.548Z</time>
      </trkpt>
      <trkpt lat="31.83583" lon="34.98998">
        <ele>276</ele>
        <time>2026-03-03T08:19:50.548Z</time>
      </trkpt>
      <trkpt lat="31.83593" lon="34.98991">
        <ele>276</ele>
        <time>2026-03-03T08:19:51.548Z</time>
      </trkpt>
      <trkpt lat="31.836070000000003" lon="34.98989">
        <ele>277</ele>
        <time>2026-03-03T08:19:52.548Z</time>
      </trkpt>
      <trkpt lat="31.83631" lon="34.98997">
        <ele>277</ele>
        <time>2026-03-03T08:19:53.548Z</time>
      </trkpt>
      <trkpt lat="31.836360000000003" lon="34.990030000000004">
        <ele>277</ele>
        <time>2026-03-03T08:19:54.548Z</time>
      </trkpt>
      <trkpt lat="31.836560000000002" lon="34.990390000000005">
        <ele>277</ele>
        <time>2026-03-03T08:19:55.548Z</time>
      </trkpt>
      <trkpt lat="31.837080000000004" lon="34.990970000000004">
        <ele>267</ele>
        <time>2026-03-03T08:19:56.548Z</time>
      </trkpt>
      <trkpt lat="31.83715" lon="34.99107">
        <ele>267</ele>
        <time>2026-03-03T08:19:57.548Z</time>
      </trkpt>
      <trkpt lat="31.83715" lon="34.99116">
        <ele>267</ele>
        <time>2026-03-03T08:19:58.548Z</time>
      </trkpt>
      <trkpt lat="31.837000000000003" lon="34.991530000000004">
        <ele>267</ele>
        <time>2026-03-03T08:19:59.548Z</time>
      </trkpt>
      <trkpt lat="31.836710000000004" lon="34.99268">
        <ele>275.5</ele>
        <time>2026-03-03T08:20:00.548Z</time>
      </trkpt>
      <trkpt lat="31.836710000000004" lon="34.99268">
        <ele>275.5</ele>
        <time>2026-03-03T08:20:01.548Z</time>
      </trkpt>
      <trkpt lat="31.836710000000004" lon="34.99279">
        <ele>276</ele>
        <time>2026-03-03T08:20:02.548Z</time>
      </trkpt>
      <trkpt lat="31.836720000000003" lon="34.99291">
        <ele>276</ele>
        <time>2026-03-03T08:20:03.548Z</time>
      </trkpt>
      <trkpt lat="31.836750000000002" lon="34.993">
        <ele>276</ele>
        <time>2026-03-03T08:20:04.548Z</time>
      </trkpt>
      <trkpt lat="31.836790000000004" lon="34.993050000000004">
        <ele>276</ele>
        <time>2026-03-03T08:20:05.548Z</time>
      </trkpt>
      <trkpt lat="31.836910000000003" lon="34.99307">
        <ele>272</ele>
        <time>2026-03-03T08:20:06.548Z</time>
      </trkpt>
      <trkpt lat="31.837030000000002" lon="34.993050000000004">
        <ele>272</ele>
        <time>2026-03-03T08:20:07.548Z</time>
      </trkpt>
      <trkpt lat="31.837300000000003" lon="34.992900000000006">
        <ele>272</ele>
        <time>2026-03-03T08:20:08.548Z</time>
      </trkpt>
      <trkpt lat="31.837370000000004" lon="34.992900000000006">
        <ele>272</ele>
        <time>2026-03-03T08:20:09.548Z</time>
      </trkpt>
      <trkpt lat="31.837460000000004" lon="34.99298">
        <ele>272</ele>
        <time>2026-03-03T08:20:10.548Z</time>
      </trkpt>
      <trkpt lat="31.837560000000003" lon="34.99311">
        <ele>272</ele>
        <time>2026-03-03T08:20:11.548Z</time>
      </trkpt>
      <trkpt lat="31.837670000000003" lon="34.9932">
        <ele>271</ele>
        <time>2026-03-03T08:20:12.548Z</time>
      </trkpt>
      <trkpt lat="31.837850000000003" lon="34.99325">
        <ele>271</ele>
        <time>2026-03-03T08:20:13.548Z</time>
      </trkpt>
      <trkpt lat="31.837940000000003" lon="34.99325">
        <ele>271</ele>
        <time>2026-03-03T08:20:14.548Z</time>
      </trkpt>
      <trkpt lat="31.83809" lon="34.99322">
        <ele>271</ele>
        <time>2026-03-03T08:20:15.548Z</time>
      </trkpt>
      <trkpt lat="31.838320000000003" lon="34.993120000000005">
        <ele>271</ele>
        <time>2026-03-03T08:20:16.548Z</time>
      </trkpt>
      <trkpt lat="31.838520000000003" lon="34.99306">
        <ele>267</ele>
        <time>2026-03-03T08:20:17.548Z</time>
      </trkpt>
      <trkpt lat="31.83866" lon="34.993050000000004">
        <ele>267</ele>
        <time>2026-03-03T08:20:18.548Z</time>
      </trkpt>
      <trkpt lat="31.83873" lon="34.99306">
        <ele>267</ele>
        <time>2026-03-03T08:20:19.548Z</time>
      </trkpt>
      <trkpt lat="31.83884" lon="34.99313">
        <ele>267</ele>
        <time>2026-03-03T08:20:20.548Z</time>
      </trkpt>
      <trkpt lat="31.839090000000002" lon="34.99335">
        <ele>281</ele>
        <time>2026-03-03T08:20:21.548Z</time>
      </trkpt>
      <trkpt lat="31.839170000000003" lon="34.9934">
        <ele>281</ele>
        <time>2026-03-03T08:20:22.548Z</time>
      </trkpt>
      <trkpt lat="31.8395" lon="34.99351">
        <ele>272</ele>
        <time>2026-03-03T08:20:23.548Z</time>
      </trkpt>
      <trkpt lat="31.839740000000003" lon="34.993640000000006">
        <ele>272</ele>
        <time>2026-03-03T08:20:24.548Z</time>
      </trkpt>
      <trkpt lat="31.83986" lon="34.99374">
        <ele>272</ele>
        <time>2026-03-03T08:20:25.548Z</time>
      </trkpt>
      <trkpt lat="31.840000000000003" lon="34.993880000000004">
        <ele>272</ele>
        <time>2026-03-03T08:20:26.548Z</time>
      </trkpt>
      <trkpt lat="31.840390000000003" lon="34.994350000000004">
        <ele>260</ele>
        <time>2026-03-03T08:20:27.548Z</time>
      </trkpt>
      <trkpt lat="31.840650000000004" lon="34.99474">
        <ele>260</ele>
        <time>2026-03-03T08:20:28.548Z</time>
      </trkpt>
      <trkpt lat="31.84072" lon="34.994820000000004">
        <ele>260</ele>
        <time>2026-03-03T08:20:29.548Z</time>
      </trkpt>
      <trkpt lat="31.840870000000002" lon="34.9949">
        <ele>260</ele>
        <time>2026-03-03T08:20:30.548Z</time>
      </trkpt>
      <trkpt lat="31.841600000000003" lon="34.99349">
        <ele>247</ele>
        <time>2026-03-03T08:20:31.548Z</time>
      </trkpt>
      <trkpt lat="31.841500000000003" lon="34.993430000000004">
        <ele>247</ele>
        <time>2026-03-03T08:20:32.548Z</time>
      </trkpt>
    </trkseg>
  </trk>
</gpx>