<?xml version="1.0" encoding="UTF-8"?>
<gpx creator="Patrick Hooper" version="1.1" xmlns="http://www.topografix.com/GPX/1/1" xmlns:xsi="http://www.w3.org/2001/XMLSchema-instance" xsi:schemaLocation="http://www.topografix.com/GPX/1/1 http://www.topografix.com/GPX/1/1/gpx.xsd http://www.garmin.com/xmlschemas/GpxExtensions/v3 http://www.garmin.com/xmlschemas/GpxExtensionsv3.xsd http://www.garmin.com/xmlschemas/TrackPointExtension/v1 http://www.garmin.com/xmlschemas/TrackPointExtensionv1.xsd">
  <metadata>
    <name>Activity</name>
  </metadata>
  <trk>
    <name>a</name>
    <trkseg>
      <trkpt lat="31.84224723188089" lon="34.99182876213129">
        <ele>0</ele>
        <time>2026-02-23T16:04:13.144Z</time>
      </trkpt>
      <trkpt lat="31.84224723188089" lon="34.99182876213129">
        <ele>238</ele>
        <time>2026-02-23T16:04:14.144Z</time>
      </trkpt>
      <trkpt lat="31.842764544835006" lon="34.99206379955285">
        <ele>229</ele>
        <time>2026-02-23T16:04:15.144Z</time>
      </trkpt>
      <trkpt lat="31.842764544835006" lon="34.99206379955285">
        <ele>229</ele>
        <time>2026-02-23T16:04:16.144Z</time>
      </trkpt>
      <trkpt lat="31.842764544835006" lon="34.99206379955285">
        <ele>0</ele>
        <time>2026-02-23T16:04:17.144Z</time>
      </trkpt>
      <trkpt lat="31.84234706443111" lon="34.99249114032108">
        <ele>237</ele>
        <time>2026-02-23T16:04:18.144Z</time>
      </trkpt>
      <trkpt lat="31.84234706443111" lon="34.99249114032108">
        <ele>237</ele>
        <time>2026-02-23T16:04:19.144Z</time>
      </trkpt>
      <trkpt lat="31.842220004802996" lon="34.99284369645255">
        <ele>237</ele>
        <time>2026-02-23T16:04:20.144Z</time>
      </trkpt>
      <trkpt lat="31.842220004802996" lon="34.99284369645255">
        <ele>0</ele>
        <time>2026-02-23T16:04:21.144Z</time>
      </trkpt>
      <trkpt lat="31.842220004802996" lon="34.99284369645255">
        <ele>237</ele>
        <time>2026-02-23T16:04:22.144Z</time>
      </trkpt>
      <trkpt lat="31.842029415032698" lon="34.993367188892364">
        <ele>234.5</ele>
        <time>2026-02-23T16:04:23.144Z</time>
      </trkpt>
      <trkpt lat="31.842029415032698" lon="34.993367188892364">
        <ele>234.5</ele>
        <time>2026-02-23T16:04:24.144Z</time>
      </trkpt>
      <trkpt lat="31.842029415032698" lon="34.993367188892364">
        <ele>0</ele>
        <time>2026-02-23T16:04:25.144Z</time>
      </trkpt>
      <trkpt lat="31.84175714324857" lon="34.99367701094894">
        <ele>239.5</ele>
        <time>2026-02-23T16:04:26.144Z</time>
      </trkpt>
      <trkpt lat="31.84175714324857" lon="34.99367701094894">
        <ele>239.5</ele>
        <time>2026-02-23T16:04:27.144Z</time>
      </trkpt>
      <trkpt lat="31.841539325243247" lon="34.99352744168067">
        <ele>247</ele>
        <time>2026-02-23T16:04:28.144Z</time>
      </trkpt>
      <trkpt lat="31.841539325243247" lon="34.99352744168067">
        <ele>0</ele>
        <time>2026-02-23T16:04:29.144Z</time>
      </trkpt>
      <trkpt lat="31.841539325243247" lon="34.99352744168067">
        <ele>247</ele>
        <time>2026-02-23T16:04:30.144Z</time>
      </trkpt>
      <trkpt lat="31.840867716488944" lon="34.992800962375924">
        <ele>251.5</ele>
        <time>2026-02-23T16:04:31.144Z</time>
      </trkpt>
      <trkpt lat="31.840867716488944" lon="34.992800962375924">
        <ele>251.5</ele>
        <time>2026-02-23T16:04:32.144Z</time>
      </trkpt>
      <trkpt lat="31.840867716488944" lon="34.992800962375924">
        <ele>0</ele>
        <time>2026-02-23T16:04:33.144Z</time>
      </trkpt>
      <trkpt lat="31.839685933876993" lon="34.990971557050216">
        <ele>244.5</ele>
        <time>2026-02-23T16:04:34.144Z</time>
      </trkpt>
      <trkpt lat="31.839685933876993" lon="34.990971557050216">
        <ele>244.5</ele>
        <time>2026-02-23T16:04:35.144Z</time>
      </trkpt>
      <trkpt lat="31.83919532738699" lon="34.99133017011138">
        <ele>247</ele>
        <time>2026-02-23T16:04:36.144Z</time>
      </trkpt>
      <trkpt lat="31.83919532738699" lon="34.99133017011138">
        <ele>0</ele>
        <time>2026-02-23T16:04:37.144Z</time>
      </trkpt>
      <trkpt lat="31.83919532738699" lon="34.99133017011138">
        <ele>247</ele>
        <time>2026-02-23T16:04:38.144Z</time>
      </trkpt>
      <trkpt lat="31.839204163630768" lon="34.99099280048395">
        <ele>247</ele>
        <time>2026-02-23T16:04:39.144Z</time>
      </trkpt>
      <trkpt lat="31.839204163630768" lon="34.99099280048395">
        <ele>247</ele>
        <time>2026-02-23T16:04:40.144Z</time>
      </trkpt>
      <trkpt lat="31.839204163630768" lon="34.99099280048395">
        <ele>0</ele>
        <time>2026-02-23T16:04:41.144Z</time>
      </trkpt>
      <trkpt lat="31.83916392973397" lon="34.99081125356469">
        <ele>246.5</ele>
        <time>2026-02-23T16:04:42.144Z</time>
      </trkpt>
      <trkpt lat="31.83916392973397" lon="34.99081125356469">
        <ele>246.5</ele>
        <time>2026-02-23T16:04:43.144Z</time>
      </trkpt>
      <trkpt lat="31.838895703306704" lon="34.990392906318164">
        <ele>246</ele>
        <time>2026-02-23T16:04:44.144Z</time>
      </trkpt>
      <trkpt lat="31.838895703306704" lon="34.990392906318164">
        <ele>0</ele>
        <time>2026-02-23T16:04:45.144Z</time>
      </trkpt>
      <trkpt lat="31.838895703306704" lon="34.990392906318164">
        <ele>246</ele>
        <time>2026-02-23T16:04:46.144Z</time>
      </trkpt>
      <trkpt lat="31.838607359028302" lon="34.99045605307245">
        <ele>254</ele>
        <time>2026-02-23T16:04:47.144Z</time>
      </trkpt>
      <trkpt lat="31.838607359028302" lon="34.99045605307245">
        <ele>254</ele>
        <time>2026-02-23T16:04:48.144Z</time>
      </trkpt>
      <trkpt lat="31.838607359028302" lon="34.99045605307245">
        <ele>0</ele>
        <time>2026-02-23T16:04:49.144Z</time>
      </trkpt>
      <trkpt lat="31.8378429070449" lon="34.990527093170414">
        <ele>254</ele>
        <time>2026-02-23T16:04:50.144Z</time>
      </trkpt>
      <trkpt lat="31.8378429070449" lon="34.990527093170414">
        <ele>254</ele>
        <time>2026-02-23T16:04:51.144Z</time>
      </trkpt>
      <trkpt lat="31.837165624119194" lon="34.99117434740316">
        <ele>267</ele>
        <time>2026-02-23T16:04:52.144Z</time>
      </trkpt>
      <trkpt lat="31.837165624119194" lon="34.99117434740316">
        <ele>0</ele>
        <time>2026-02-23T16:04:53.144Z</time>
      </trkpt>
      <trkpt lat="31.837165624119194" lon="34.99117434740316">
        <ele>267</ele>
        <time>2026-02-23T16:04:54.144Z</time>
      </trkpt>
      <trkpt lat="31.836688989160407" lon="34.99277437735154">
        <ele>276</ele>
        <time>2026-02-23T16:04:55.144Z</time>
      </trkpt>
      <trkpt lat="31.836688989160407" lon="34.99277437735154">
        <ele>276</ele>
        <time>2026-02-23T16:04:56.144Z</time>
      </trkpt>
      <trkpt lat="31.836688989160407" lon="34.99277437735154">
        <ele>0</ele>
        <time>2026-02-23T16:04:57.144Z</time>
      </trkpt>
      <trkpt lat="31.836157726355893" lon="34.99346920022569">
        <ele>281.5</ele>
        <time>2026-02-23T16:04:58.144Z</time>
      </trkpt>
      <trkpt lat="31.836157726355893" lon="34.99346920022569">
        <ele>281.5</ele>
        <time>2026-02-23T16:04:59.144Z</time>
      </trkpt>
      <trkpt lat="31.836010152811028" lon="34.994048219286725">
        <ele>287</ele>
        <time>2026-02-23T16:05:00.144Z</time>
      </trkpt>
      <trkpt lat="31.836010152811028" lon="34.994048219286725">
        <ele>0</ele>
        <time>2026-02-23T16:05:01.144Z</time>
      </trkpt>
      <trkpt lat="31.836010152811028" lon="34.994048219286725">
        <ele>287</ele>
        <time>2026-02-23T16:05:02.144Z</time>
      </trkpt>
      <trkpt lat="31.8362069174848" lon="34.99445353263033">
        <ele>299</ele>
        <time>2026-02-23T16:05:03.144Z</time>
      </trkpt>
      <trkpt lat="31.8362069174848" lon="34.99445353263033">
        <ele>299</ele>
        <time>2026-02-23T16:05:04.144Z</time>
      </trkpt>
      <trkpt lat="31.8362069174848" lon="34.99445353263033">
        <ele>0</ele>
        <time>2026-02-23T16:05:05.144Z</time>
      </trkpt>
      <trkpt lat="31.838066322929492" lon="34.995762115709226">
        <ele>306.5</ele>
        <time>2026-02-23T16:05:06.144Z</time>
      </trkpt>
      <trkpt lat="31.838066322929492" lon="34.995762115709226">
        <ele>306.5</ele>
        <time>2026-02-23T16:05:07.144Z</time>
      </trkpt>
      <trkpt lat="31.838538546917007" lon="34.99614426828953">
        <ele>292</ele>
        <time>2026-02-23T16:05:08.144Z</time>
      </trkpt>
      <trkpt lat="31.838538546917007" lon="34.99614426828953">
        <ele>0</ele>
        <time>2026-02-23T16:05:09.144Z</time>
      </trkpt>
      <trkpt lat="31.838538546917007" lon="34.99614426828953">
        <ele>292</ele>
        <time>2026-02-23T16:05:10.144Z</time>
      </trkpt>
      <trkpt lat="31.83833194921982" lon="34.997429690605884">
        <ele>299</ele>
        <time>2026-02-23T16:05:11.144Z</time>
      </trkpt>
      <trkpt lat="31.83833194921982" lon="34.997429690605884">
        <ele>299</ele>
        <time>2026-02-23T16:05:12.144Z</time>
      </trkpt>
      <trkpt lat="31.83833194921982" lon="34.997429690605884">
        <ele>0</ele>
        <time>2026-02-23T16:05:13.144Z</time>
      </trkpt>
      <trkpt lat="31.83817454114009" lon="34.998390862248186">
        <ele>302</ele>
        <time>2026-02-23T16:05:14.144Z</time>
      </trkpt>
      <trkpt lat="31.83817454114009" lon="34.998390862248186">
        <ele>302</ele>
        <time>2026-02-23T16:05:15.144Z</time>
      </trkpt>
      <trkpt lat="31.838194217164755" lon="34.99877301482846">
        <ele>302</ele>
        <time>2026-02-23T16:05:16.144Z</time>
      </trkpt>
      <trkpt lat="31.838194217164755" lon="34.99877301482846">
        <ele>0</ele>
        <time>2026-02-23T16:05:17.144Z</time>
      </trkpt>
      <trkpt lat="31.838194217164755" lon="34.99877301482846">
        <ele>302</ele>
        <time>2026-02-23T16:05:18.144Z</time>
      </trkpt>
      <trkpt lat="31.838715630289258" lon="34.9993636142716">
        <ele>295.5</ele>
        <time>2026-02-23T16:05:19.144Z</time>
      </trkpt>
      <trkpt lat="31.838715630289258" lon="34.9993636142716">
        <ele>295.5</ele>
        <time>2026-02-23T16:05:20.144Z</time>
      </trkpt>
      <trkpt lat="31.838715630289258" lon="34.9993636142716">
        <ele>0</ele>
        <time>2026-02-23T16:05:21.144Z</time>
      </trkpt>
      <trkpt lat="31.838399910729123" lon="35.00026268577744">
        <ele>297.5</ele>
        <time>2026-02-23T16:05:22.144Z</time>
      </trkpt>
      <trkpt lat="31.838399910729123" lon="35.00026268577744">
        <ele>297.5</ele>
        <time>2026-02-23T16:05:23.144Z</time>
      </trkpt>
      <trkpt lat="31.837476090718937" lon="35.00166426347758">
        <ele>317</ele>
        <time>2026-02-23T16:05:24.144Z</time>
      </trkpt>
      <trkpt lat="31.837476090718937" lon="35.00166426347758">
        <ele>0</ele>
        <time>2026-02-23T16:05:25.144Z</time>
      </trkpt>
      <trkpt lat="31.837476090718937" lon="35.00166426347758">
        <ele>317</ele>
        <time>2026-02-23T16:05:26.144Z</time>
      </trkpt>
      <trkpt lat="31.837435031837188" lon="35.00243754772629">
        <ele>314</ele>
        <time>2026-02-23T16:05:27.144Z</time>
      </trkpt>
      <trkpt lat="31.837435031837188" lon="35.00243754772629">
        <ele>314</ele>
        <time>2026-02-23T16:05:28.144Z</time>
      </trkpt>
      <trkpt lat="31.837435031837188" lon="35.00243754772629">
        <ele>0</ele>
        <time>2026-02-23T16:05:29.144Z</time>
      </trkpt>
      <trkpt lat="31.837619796661187" lon="35.003500813568024">
        <ele>314</ele>
        <time>2026-02-23T16:05:30.144Z</time>
      </trkpt>
      <trkpt lat="31.837619796661187" lon="35.003500813568024">
        <ele>314</ele>
        <time>2026-02-23T16:05:31.144Z</time>
      </trkpt>
      <trkpt lat="31.83749662015292" lon="35.00408077675394">
        <ele>312.5</ele>
        <time>2026-02-23T16:05:32.144Z</time>
      </trkpt>
      <trkpt lat="31.83749662015292" lon="35.00408077675394">
        <ele>0</ele>
        <time>2026-02-23T16:05:33.144Z</time>
      </trkpt>
      <trkpt lat="31.83749662015292" lon="35.00408077675394">
        <ele>312.5</ele>
        <time>2026-02-23T16:05:34.144Z</time>
      </trkpt>
      <trkpt lat="31.83718867816296" lon="35.00456407940976">
        <ele>310</ele>
        <time>2026-02-23T16:05:35.144Z</time>
      </trkpt>
      <trkpt lat="31.83718867816296" lon="35.00456407940976">
        <ele>310</ele>
        <time>2026-02-23T16:05:36.144Z</time>
      </trkpt>
      <trkpt lat="31.83718867816296" lon="35.00456407940976">
        <ele>0</ele>
        <time>2026-02-23T16:05:37.144Z</time>
      </trkpt>
      <trkpt lat="31.83722055764828" lon="35.0049022829383">
        <ele>310</ele>
        <time>2026-02-23T16:05:38.144Z</time>
      </trkpt>
      <trkpt lat="31.83722055764828" lon="35.0049022829383">
        <ele>310</ele>
        <time>2026-02-23T16:05:39.144Z</time>
      </trkpt>
      <trkpt lat="31.838000876555128" lon="35.006077959694494">
        <ele>302.5</ele>
        <time>2026-02-23T16:05:40.144Z</time>
      </trkpt>
      <trkpt lat="31.838000876555128" lon="35.006077959694494">
        <ele>0</ele>
        <time>2026-02-23T16:05:41.144Z</time>
      </trkpt>
      <trkpt lat="31.838000876555128" lon="35.006077959694494">
        <ele>302.5</ele>
        <time>2026-02-23T16:05:42.144Z</time>
      </trkpt>
      <trkpt lat="31.838257212264807" lon="35.00671318930668">
        <ele>311</ele>
        <time>2026-02-23T16:05:43.144Z</time>
      </trkpt>
      <trkpt lat="31.838257212264807" lon="35.00671318930668">
        <ele>311</ele>
        <time>2026-02-23T16:05:44.144Z</time>
      </trkpt>
      <trkpt lat="31.838257212264807" lon="35.00671318930668">
        <ele>0</ele>
        <time>2026-02-23T16:05:45.144Z</time>
      </trkpt>
      <trkpt lat="31.838203246911448" lon="35.007618391505446">
        <ele>320</ele>
        <time>2026-02-23T16:05:46.144Z</time>
      </trkpt>
      <trkpt lat="31.838203246911448" lon="35.007618391505446">
        <ele>320</ele>
        <time>2026-02-23T16:05:47.144Z</time>
      </trkpt>
      <trkpt lat="31.837785014351937" lon="35.00890473147143">
        <ele>328</ele>
        <time>2026-02-23T16:05:48.144Z</time>
      </trkpt>
      <trkpt lat="31.837785014351937" lon="35.00890473147143">
        <ele>0</ele>
        <time>2026-02-23T16:05:49.144Z</time>
      </trkpt>
      <trkpt lat="31.837785014351937" lon="35.00890473147143">
        <ele>328</ele>
        <time>2026-02-23T16:05:50.144Z</time>
      </trkpt>
      <trkpt lat="31.8373937628225" lon="35.010349878840515">
        <ele>344</ele>
        <time>2026-02-23T16:05:51.144Z</time>
      </trkpt>
      <trkpt lat="31.8373937628225" lon="35.010349878840515">
        <ele>344</ele>
        <time>2026-02-23T16:05:52.144Z</time>
      </trkpt>
      <trkpt lat="31.8373937628225" lon="35.010349878840515">
        <ele>0</ele>
        <time>2026-02-23T16:05:53.144Z</time>
      </trkpt>
      <trkpt lat="31.83741211633685" lon="35.011084238104075">
        <ele>350.5</ele>
        <time>2026-02-23T16:05:54.144Z</time>
      </trkpt>
      <trkpt lat="31.83741211633685" lon="35.011084238104075">
        <ele>350.5</ele>
        <time>2026-02-23T16:05:55.144Z</time>
      </trkpt>
      <trkpt lat="31.837657498500988" lon="35.013688854040055">
        <ele>365</ele>
        <time>2026-02-23T16:05:56.144Z</time>
      </trkpt>
      <trkpt lat="31.837657498500988" lon="35.013688854040055">
        <ele>0</ele>
        <time>2026-02-23T16:05:57.144Z</time>
      </trkpt>
      <trkpt lat="31.837657498500988" lon="35.013688854040055">
        <ele>365</ele>
        <time>2026-02-23T16:05:58.144Z</time>
      </trkpt>
      <trkpt lat="31.83776372219488" lon="35.01496611372346">
        <ele>365</ele>
        <time>2026-02-23T16:05:59.144Z</time>
      </trkpt>
      <trkpt lat="31.83776372219488" lon="35.01496611372346">
        <ele>365</ele>
        <time>2026-02-23T16:06:00.144Z</time>
      </trkpt>
      <trkpt lat="31.83776372219488" lon="35.01496611372346">
        <ele>0</ele>
        <time>2026-02-23T16:06:01.144Z</time>
      </trkpt>
      <trkpt lat="31.837805719168685" lon="35.01547693860857">
        <ele>373</ele>
        <time>2026-02-23T16:06:02.144Z</time>
      </trkpt>
      <trkpt lat="31.837805719168685" lon="35.01547693860857">
        <ele>373</ele>
        <time>2026-02-23T16:06:03.144Z</time>
      </trkpt>
      <trkpt lat="31.83817435844898" lon="35.01585593771699">
        <ele>375</ele>
        <time>2026-02-23T16:06:04.144Z</time>
      </trkpt>
      <trkpt lat="31.83817435844898" lon="35.01585593771699">
        <ele>0</ele>
        <time>2026-02-23T16:06:05.144Z</time>
      </trkpt>
      <trkpt lat="31.83817435844898" lon="35.01585593771699">
        <ele>375</ele>
        <time>2026-02-23T16:06:06.144Z</time>
      </trkpt>
      <trkpt lat="31.838465723356336" lon="35.016555474684736">
        <ele>375</ele>
        <time>2026-02-23T16:06:07.144Z</time>
      </trkpt>
      <trkpt lat="31.838465723356336" lon="35.016555474684736">
        <ele>375</ele>
        <time>2026-02-23T16:06:08.144Z</time>
      </trkpt>
      <trkpt lat="31.838465723356336" lon="35.016555474684736">
        <ele>0</ele>
        <time>2026-02-23T16:06:09.144Z</time>
      </trkpt>
      <trkpt lat="31.83831779001426" lon="35.01686746402342">
        <ele>374</ele>
        <time>2026-02-23T16:06:10.144Z</time>
      </trkpt>
      <trkpt lat="31.83831779001426" lon="35.01686746402342">
        <ele>374</ele>
        <time>2026-02-23T16:06:11.144Z</time>
      </trkpt>
      <trkpt lat="31.836622703539774" lon="35.018906278071995">
        <ele>373.5</ele>
        <time>2026-02-23T16:06:12.144Z</time>
      </trkpt>
      <trkpt lat="31.836622703539774" lon="35.018906278071995">
        <ele>0</ele>
        <time>2026-02-23T16:06:13.144Z</time>
      </trkpt>
      <trkpt lat="31.836622703539774" lon="35.018906278071995">
        <ele>373.5</ele>
        <time>2026-02-23T16:06:14.144Z</time>
      </trkpt>
      <trkpt lat="31.83649942330885" lon="35.019232778542715">
        <ele>374.5</ele>
        <time>2026-02-23T16:06:15.144Z</time>
      </trkpt>
      <trkpt lat="31.83649942330885" lon="35.019232778542715">
        <ele>374.5</ele>
        <time>2026-02-23T16:06:16.144Z</time>
      </trkpt>
      <trkpt lat="31.83649942330885" lon="35.019232778542715">
        <ele>0</ele>
        <time>2026-02-23T16:06:17.144Z</time>
      </trkpt>
      <trkpt lat="31.836413127049255" lon="35.0208652808939">
        <ele>358</ele>
        <time>2026-02-23T16:06:18.144Z</time>
      </trkpt>
      <trkpt lat="31.836413127049255" lon="35.0208652808939">
        <ele>358</ele>
        <time>2026-02-23T16:06:19.144Z</time>
      </trkpt>
      <trkpt lat="31.836456275188652" lon="35.02108294787513">
        <ele>354</ele>
        <time>2026-02-23T16:06:20.144Z</time>
      </trkpt>
      <trkpt lat="31.836456275188652" lon="35.02108294787513">
        <ele>0</ele>
        <time>2026-02-23T16:06:21.144Z</time>
      </trkpt>
      <trkpt lat="31.836456275188652" lon="35.02108294787513">
        <ele>354</ele>
        <time>2026-02-23T16:06:22.144Z</time>
      </trkpt>
      <trkpt lat="31.836807623577286" lon="35.020952347687114">
        <ele>345</ele>
        <time>2026-02-23T16:06:23.144Z</time>
      </trkpt>
      <trkpt lat="31.836807623577286" lon="35.020952347687114">
        <ele>345</ele>
        <time>2026-02-23T16:06:24.144Z</time>
      </trkpt>
      <trkpt lat="31.836807623577286" lon="35.020952347687114">
        <ele>0</ele>
        <time>2026-02-23T16:06:25.144Z</time>
      </trkpt>
      <trkpt lat="31.83871844226752" lon="35.01983499052153">
        <ele>330</ele>
        <time>2026-02-23T16:06:26.144Z</time>
      </trkpt>
      <trkpt lat="31.83871844226752" lon="35.01983499052153">
        <ele>330</ele>
        <time>2026-02-23T16:06:27.144Z</time>
      </trkpt>
      <trkpt lat="31.839283158381747" lon="35.01882851029953">
        <ele>340</ele>
        <time>2026-02-23T16:06:28.144Z</time>
      </trkpt>
      <trkpt lat="31.839283158381747" lon="35.01882851029953">
        <ele>0</ele>
        <time>2026-02-23T16:06:29.144Z</time>
      </trkpt>
      <trkpt lat="31.839283158381747" lon="35.01882851029953">
        <ele>340</ele>
        <time>2026-02-23T16:06:30.144Z</time>
      </trkpt>
      <trkpt lat="31.839374658128037" lon="35.018182272999496">
        <ele>339.5</ele>
        <time>2026-02-23T16:06:31.144Z</time>
      </trkpt>
      <trkpt lat="31.839374658128037" lon="35.018182272999496">
        <ele>339.5</ele>
        <time>2026-02-23T16:06:32.144Z</time>
      </trkpt>
      <trkpt lat="31.839374658128037" lon="35.018182272999496">
        <ele>0</ele>
        <time>2026-02-23T16:06:33.144Z</time>
      </trkpt>
      <trkpt lat="31.839466157783576" lon="35.01800276263836">
        <ele>339</ele>
        <time>2026-02-23T16:06:34.144Z</time>
      </trkpt>
      <trkpt lat="31.839466157783576" lon="35.01800276263836">
        <ele>339</ele>
        <time>2026-02-23T16:06:35.144Z</time>
      </trkpt>
      <trkpt lat="31.83986265524244" lon="35.01736849269486">
        <ele>343</ele>
        <time>2026-02-23T16:06:36.144Z</time>
      </trkpt>
      <trkpt lat="31.83986265524244" lon="35.01736849269486">
        <ele>0</ele>
        <time>2026-02-23T16:06:37.144Z</time>
      </trkpt>
      <trkpt lat="31.83986265524244" lon="35.01736849269486">
        <ele>343</ele>
        <time>2026-02-23T16:06:38.144Z</time>
      </trkpt>
      <trkpt lat="31.840065986612515" lon="35.016734222752206">
        <ele>350</ele>
        <time>2026-02-23T16:06:39.144Z</time>
      </trkpt>
      <trkpt lat="31.840065986612515" lon="35.016734222752206">
        <ele>350</ele>
        <time>2026-02-23T16:06:40.144Z</time>
      </trkpt>
      <trkpt lat="31.840065986612515" lon="35.016734222752206">
        <ele>0</ele>
        <time>2026-02-23T16:06:41.144Z</time>
      </trkpt>
      <trkpt lat="31.840381149349284" lon="35.01618372431051">
        <ele>338</ele>
        <time>2026-02-23T16:06:42.144Z</time>
      </trkpt>
      <trkpt lat="31.840381149349284" lon="35.01618372431051">
        <ele>338</ele>
        <time>2026-02-23T16:06:43.144Z</time>
      </trkpt>
      <trkpt lat="31.840848808200576" lon="35.01538191136322">
        <ele>342</ele>
        <time>2026-02-23T16:06:44.144Z</time>
      </trkpt>
      <trkpt lat="31.840848808200576" lon="35.01538191136322">
        <ele>0</ele>
        <time>2026-02-23T16:06:45.144Z</time>
      </trkpt>
      <trkpt lat="31.840848808200576" lon="35.01538191136322">
        <ele>342</ele>
        <time>2026-02-23T16:06:46.144Z</time>
      </trkpt>
      <trkpt lat="31.840899640541593" lon="35.01475960877801">
        <ele>342.5</ele>
        <time>2026-02-23T16:06:47.144Z</time>
      </trkpt>
      <trkpt lat="31.840899640541593" lon="35.01475960877801">
        <ele>342.5</ele>
        <time>2026-02-23T16:06:48.144Z</time>
      </trkpt>
      <trkpt lat="31.840899640541593" lon="35.01475960877801">
        <ele>0</ele>
        <time>2026-02-23T16:06:49.144Z</time>
      </trkpt>
      <trkpt lat="31.841296131841005" lon="35.01404156733267">
        <ele>344</ele>
        <time>2026-02-23T16:06:50.144Z</time>
      </trkpt>
      <trkpt lat="31.841296131841005" lon="35.01404156733267">
        <ele>344</ele>
        <time>2026-02-23T16:06:51.144Z</time>
      </trkpt>
      <trkpt lat="31.841651955914628" lon="35.01337139531779">
        <ele>348.5</ele>
        <time>2026-02-23T16:06:52.144Z</time>
      </trkpt>
      <trkpt lat="31.841651955914628" lon="35.01337139531779">
        <ele>0</ele>
        <time>2026-02-23T16:06:53.144Z</time>
      </trkpt>
      <trkpt lat="31.841651955914628" lon="35.01337139531779">
        <ele>348.5</ele>
        <time>2026-02-23T16:06:54.144Z</time>
      </trkpt>
      <trkpt lat="31.84168245505711" lon="35.01291663573534">
        <ele>353</ele>
        <time>2026-02-23T16:06:55.144Z</time>
      </trkpt>
      <trkpt lat="31.84168245505711" lon="35.01291663573534">
        <ele>353</ele>
        <time>2026-02-23T16:06:56.144Z</time>
      </trkpt>
      <trkpt lat="31.84168245505711" lon="35.01291663573534">
        <ele>0</ele>
        <time>2026-02-23T16:06:57.144Z</time>
      </trkpt>
      <trkpt lat="31.84103180449793" lon="35.01170793263623">
        <ele>358</ele>
        <time>2026-02-23T16:06:58.144Z</time>
      </trkpt>
      <trkpt lat="31.84103180449793" lon="35.01170793263623">
        <ele>358</ele>
        <time>2026-02-23T16:06:59.144Z</time>
      </trkpt>
      <trkpt lat="31.84108263673808" lon="35.01156432434729">
        <ele>363</ele>
        <time>2026-02-23T16:07:00.144Z</time>
      </trkpt>
      <trkpt lat="31.84108263673808" lon="35.01156432434729">
        <ele>0</ele>
        <time>2026-02-23T16:07:01.144Z</time>
      </trkpt>
      <trkpt lat="31.84108263673808" lon="35.01156432434729">
        <ele>363</ele>
        <time>2026-02-23T16:07:02.144Z</time>
      </trkpt>
      <trkpt lat="31.841489293651264" lon="35.01157629170467">
        <ele>358</ele>
        <time>2026-02-23T16:07:03.144Z</time>
      </trkpt>
      <trkpt lat="31.841489293651264" lon="35.01157629170467">
        <ele>358</ele>
        <time>2026-02-23T16:07:04.144Z</time>
      </trkpt>
      <trkpt lat="31.841489293651264" lon="35.01157629170467">
        <ele>0</ele>
        <time>2026-02-23T16:07:05.144Z</time>
      </trkpt>
      <trkpt lat="31.842251770533082" lon="35.01171989999361">
        <ele>339</ele>
        <time>2026-02-23T16:07:06.144Z</time>
      </trkpt>
      <trkpt lat="31.842251770533082" lon="35.01171989999361">
        <ele>339</ele>
        <time>2026-02-23T16:07:07.144Z</time>
      </trkpt>
      <trkpt lat="31.843023925325696" lon="35.011164894665995">
        <ele>330</ele>
        <time>2026-02-23T16:07:08.144Z</time>
      </trkpt>
      <trkpt lat="31.843023925325696" lon="35.011164894665995">
        <ele>0</ele>
        <time>2026-02-23T16:07:09.144Z</time>
      </trkpt>
      <trkpt lat="31.843023925325696" lon="35.011164894665995">
        <ele>330</ele>
        <time>2026-02-23T16:07:10.144Z</time>
      </trkpt>
      <trkpt lat="31.843437615489393" lon="35.01060486338892">
        <ele>332</ele>
        <time>2026-02-23T16:07:11.144Z</time>
      </trkpt>
      <trkpt lat="31.843437615489393" lon="35.01060486338892">
        <ele>332</ele>
        <time>2026-02-23T16:07:12.144Z</time>
      </trkpt>
      <trkpt lat="31.843437615489393" lon="35.01060486338892">
        <ele>0</ele>
        <time>2026-02-23T16:07:13.144Z</time>
      </trkpt>
      <trkpt lat="31.844740727377683" lon="35.009679594321426">
        <ele>308.5</ele>
        <time>2026-02-23T16:07:14.144Z</time>
      </trkpt>
      <trkpt lat="31.844740727377683" lon="35.009679594321426">
        <ele>308.5</ele>
        <time>2026-02-23T16:07:15.144Z</time>
      </trkpt>
      <trkpt lat="31.845340566346124" lon="35.00926565815908">
        <ele>301</ele>
        <time>2026-02-23T16:07:16.144Z</time>
      </trkpt>
      <trkpt lat="31.845340566346124" lon="35.00926565815908">
        <ele>0</ele>
        <time>2026-02-23T16:07:17.144Z</time>
      </trkpt>
      <trkpt lat="31.845340566346124" lon="35.00926565815908">
        <ele>301</ele>
        <time>2026-02-23T16:07:18.144Z</time>
      </trkpt>
      <trkpt lat="31.845323170719467" lon="35.00876937627123">
        <ele>310</ele>
        <time>2026-02-23T16:07:19.144Z</time>
      </trkpt>
      <trkpt lat="31.845323170719467" lon="35.00876937627123">
        <ele>310</ele>
        <time>2026-02-23T16:07:20.144Z</time>
      </trkpt>
      <trkpt lat="31.845323170719467" lon="35.00876937627123">
        <ele>0</ele>
        <time>2026-02-23T16:07:21.144Z</time>
      </trkpt>
      <trkpt lat="31.84530037183623" lon="35.008322063427016">
        <ele>312.5</ele>
        <time>2026-02-23T16:07:22.144Z</time>
      </trkpt>
      <trkpt lat="31.84530037183623" lon="35.008322063427016">
        <ele>312.5</ele>
        <time>2026-02-23T16:07:23.144Z</time>
      </trkpt>
      <trkpt lat="31.845421965814907" lon="35.00766898667371">
        <ele>313.5</ele>
        <time>2026-02-23T16:07:24.144Z</time>
      </trkpt>
      <trkpt lat="31.845421965814907" lon="35.00766898667371">
        <ele>0</ele>
        <time>2026-02-23T16:07:25.144Z</time>
      </trkpt>
      <trkpt lat="31.845421965814907" lon="35.00766898667371">
        <ele>313.5</ele>
        <time>2026-02-23T16:07:26.144Z</time>
      </trkpt>
      <trkpt lat="31.8453839677138" lon="35.00733797516824">
        <ele>313.5</ele>
        <time>2026-02-23T16:07:27.144Z</time>
      </trkpt>
      <trkpt lat="31.8453839677138" lon="35.00733797516824">
        <ele>313.5</ele>
        <time>2026-02-23T16:07:28.144Z</time>
      </trkpt>
      <trkpt lat="31.8453839677138" lon="35.00733797516824">
        <ele>0</ele>
        <time>2026-02-23T16:07:29.144Z</time>
      </trkpt>
      <trkpt lat="31.84540676657636" lon="35.00685487729655">
        <ele>312</ele>
        <time>2026-02-23T16:07:30.144Z</time>
      </trkpt>
      <trkpt lat="31.84540676657636" lon="35.00685487729655">
        <ele>312</ele>
        <time>2026-02-23T16:07:31.144Z</time>
      </trkpt>
      <trkpt lat="31.845079982341346" lon="35.00618390802947">
        <ele>317</ele>
        <time>2026-02-23T16:07:32.144Z</time>
      </trkpt>
      <trkpt lat="31.845079982341346" lon="35.00618390802947">
        <ele>0</ele>
        <time>2026-02-23T16:07:33.144Z</time>
      </trkpt>
      <trkpt lat="31.845079982341346" lon="35.00618390802947">
        <ele>317</ele>
        <time>2026-02-23T16:07:34.144Z</time>
      </trkpt>
      <trkpt lat="31.84467720017922" lon="35.005933412836725">
        <ele>322</ele>
        <time>2026-02-23T16:07:35.144Z</time>
      </trkpt>
      <trkpt lat="31.84467720017922" lon="35.005933412836725">
        <ele>322</ele>
        <time>2026-02-23T16:07:36.144Z</time>
      </trkpt>
      <trkpt lat="31.84467720017922" lon="35.005933412836725">
        <ele>0</ele>
        <time>2026-02-23T16:07:37.144Z</time>
      </trkpt>
      <trkpt lat="31.843804696925133" lon="35.00534674391963">
        <ele>317</ele>
        <time>2026-02-23T16:07:38.144Z</time>
      </trkpt>
      <trkpt lat="31.843804696925133" lon="35.00534674391963">
        <ele>317</ele>
        <time>2026-02-23T16:07:39.144Z</time>
      </trkpt>
      <trkpt lat="31.84347839504244" lon="35.00451786514924">
        <ele>312</ele>
        <time>2026-02-23T16:07:40.144Z</time>
      </trkpt>
      <trkpt lat="31.84347839504244" lon="35.00451786514924">
        <ele>0</ele>
        <time>2026-02-23T16:07:41.144Z</time>
      </trkpt>
      <trkpt lat="31.84347839504244" lon="35.00451786514924">
        <ele>312</ele>
        <time>2026-02-23T16:07:42.144Z</time>
      </trkpt>
      <trkpt lat="31.843787523170633" lon="35.003668769821815">
        <ele>307</ele>
        <time>2026-02-23T16:07:43.144Z</time>
      </trkpt>
      <trkpt lat="31.843787523170633" lon="35.003668769821815">
        <ele>307</ele>
        <time>2026-02-23T16:07:44.144Z</time>
      </trkpt>
      <trkpt lat="31.843787523170633" lon="35.003668769821815">
        <ele>0</ele>
        <time>2026-02-23T16:07:45.144Z</time>
      </trkpt>
      <trkpt lat="31.84404512915225" lon="35.00306227316054">
        <ele>304</ele>
        <time>2026-02-23T16:07:46.144Z</time>
      </trkpt>
      <trkpt lat="31.84404512915225" lon="35.00306227316054">
        <ele>304</ele>
        <time>2026-02-23T16:07:47.144Z</time>
      </trkpt>
      <trkpt lat="31.843718828120686" lon="35.00300162349444">
        <ele>304</ele>
        <time>2026-02-23T16:07:48.144Z</time>
      </trkpt>
      <trkpt lat="31.843718828120686" lon="35.00300162349444">
        <ele>0</ele>
        <time>2026-02-23T16:07:49.144Z</time>
      </trkpt>
      <trkpt lat="31.843718828120686" lon="35.00300162349444">
        <ele>304</ele>
        <time>2026-02-23T16:07:50.144Z</time>
      </trkpt>
      <trkpt lat="31.843471285202952" lon="35.00313901047099">
        <ele>304</ele>
        <time>2026-02-23T16:07:51.144Z</time>
      </trkpt>
      <trkpt lat="31.843471285202952" lon="35.00313901047099">
        <ele>304</ele>
        <time>2026-02-23T16:07:52.144Z</time>
      </trkpt>
      <trkpt lat="31.843471285202952" lon="35.00313901047099">
        <ele>0</ele>
        <time>2026-02-23T16:07:53.144Z</time>
      </trkpt>
      <trkpt lat="31.84327413728009" lon="35.00313901047099">
        <ele>298</ele>
        <time>2026-02-23T16:07:54.144Z</time>
      </trkpt>
      <trkpt lat="31.84327413728009" lon="35.00313901047099">
        <ele>298</ele>
        <time>2026-02-23T16:07:55.144Z</time>
      </trkpt>
      <trkpt lat="31.84336038954818" lon="35.00264584682296">
        <ele>298</ele>
        <time>2026-02-23T16:07:56.144Z</time>
      </trkpt>
      <trkpt lat="31.84336038954818" lon="35.00264584682296">
        <ele>0</ele>
        <time>2026-02-23T16:07:57.144Z</time>
      </trkpt>
      <trkpt lat="31.84336038954818" lon="35.00264584682296">
        <ele>298</ele>
        <time>2026-02-23T16:07:58.144Z</time>
      </trkpt>
      <trkpt lat="31.843132436949844" lon="35.0021744403941">
        <ele>292</ele>
        <time>2026-02-23T16:07:59.144Z</time>
      </trkpt>
      <trkpt lat="31.843132436949844" lon="35.0021744403941">
        <ele>292</ele>
        <time>2026-02-23T16:08:00.144Z</time>
      </trkpt>
      <trkpt lat="31.843132436949844" lon="35.0021744403941">
        <ele>0</ele>
        <time>2026-02-23T16:08:01.144Z</time>
      </trkpt>
      <trkpt lat="31.843470572805387" lon="35.00170780517303">
        <ele>293</ele>
        <time>2026-02-23T16:08:02.144Z</time>
      </trkpt>
      <trkpt lat="31.843470572805387" lon="35.00170780517303">
        <ele>293</ele>
        <time>2026-02-23T16:08:03.144Z</time>
      </trkpt>
      <trkpt lat="31.84410187416681" lon="35.00133084319887">
        <ele>282</ele>
        <time>2026-02-23T16:08:04.144Z</time>
      </trkpt>
      <trkpt lat="31.84410187416681" lon="35.00133084319887">
        <ele>0</ele>
        <time>2026-02-23T16:08:05.144Z</time>
      </trkpt>
      <trkpt lat="31.84410187416681" lon="35.00133084319887">
        <ele>282</ele>
        <time>2026-02-23T16:08:06.144Z</time>
      </trkpt>
      <trkpt lat="31.844522739341286" lon="34.99993069872673">
        <ele>279</ele>
        <time>2026-02-23T16:08:07.144Z</time>
      </trkpt>
      <trkpt lat="31.844522739341286" lon="34.99993069872673">
        <ele>279</ele>
        <time>2026-02-23T16:08:08.144Z</time>
      </trkpt>
      <trkpt lat="31.844522739341286" lon="34.99993069872673">
        <ele>0</ele>
        <time>2026-02-23T16:08:09.144Z</time>
      </trkpt>
      <trkpt lat="31.84465997756972" lon="34.99963989948935">
        <ele>279</ele>
        <time>2026-02-23T16:08:10.144Z</time>
      </trkpt>
      <trkpt lat="31.84465997756972" lon="34.99963989948935">
        <ele>279</ele>
        <time>2026-02-23T16:08:11.144Z</time>
      </trkpt>
      <trkpt lat="31.845282121644615" lon="34.99895059759535">
        <ele>273</ele>
        <time>2026-02-23T16:08:12.144Z</time>
      </trkpt>
      <trkpt lat="31.845282121644615" lon="34.99895059759535">
        <ele>0</ele>
        <time>2026-02-23T16:08:13.144Z</time>
      </trkpt>
      <trkpt lat="31.845282121644615" lon="34.99895059759535">
        <ele>273</ele>
        <time>2026-02-23T16:08:14.144Z</time>
      </trkpt>
      <trkpt lat="31.845279349820743" lon="34.99868353003683">
        <ele>273</ele>
        <time>2026-02-23T16:08:15.144Z</time>
      </trkpt>
      <trkpt lat="31.845279349820743" lon="34.99868353003683">
        <ele>273</ele>
        <time>2026-02-23T16:08:16.144Z</time>
      </trkpt>
      <trkpt lat="31.845279349820743" lon="34.99868353003683">
        <ele>0</ele>
        <time>2026-02-23T16:08:17.144Z</time>
      </trkpt>
      <trkpt lat="31.845912263114684" lon="34.99756593140978">
        <ele>265</ele>
        <time>2026-02-23T16:08:18.144Z</time>
      </trkpt>
      <trkpt lat="31.845912263114684" lon="34.99756593140978">
        <ele>265</ele>
        <time>2026-02-23T16:08:19.144Z</time>
      </trkpt>
      <trkpt lat="31.84505596762159" lon="34.997061916343426">
        <ele>253</ele>
        <time>2026-02-23T16:08:20.144Z</time>
      </trkpt>
      <trkpt lat="31.84505596762159" lon="34.997061916343426">
        <ele>0</ele>
        <time>2026-02-23T16:08:21.144Z</time>
      </trkpt>
      <trkpt lat="31.84505596762159" lon="34.997061916343426">
        <ele>253</ele>
        <time>2026-02-23T16:08:22.144Z</time>
      </trkpt>
      <trkpt lat="31.844793621082886" lon="34.9971984434971">
        <ele>249</ele>
        <time>2026-02-23T16:08:23.144Z</time>
      </trkpt>
      <trkpt lat="31.844793621082886" lon="34.9971984434971">
        <ele>249</ele>
        <time>2026-02-23T16:08:24.144Z</time>
      </trkpt>
      <trkpt lat="31.844793621082886" lon="34.9971984434971">
        <ele>0</ele>
        <time>2026-02-23T16:08:25.144Z</time>
      </trkpt>
      <trkpt lat="31.843516213123124" lon="34.9963305119615">
        <ele>231.5</ele>
        <time>2026-02-23T16:08:26.144Z</time>
      </trkpt>
      <trkpt lat="31.843516213123124" lon="34.9963305119615">
        <ele>231.5</ele>
        <time>2026-02-23T16:08:27.144Z</time>
      </trkpt>
      <trkpt lat="31.84573341561675" lon="34.993041479164816">
        <ele>209</ele>
        <time>2026-02-23T16:08:28.144Z</time>
      </trkpt>
      <trkpt lat="31.84573341561675" lon="34.993041479164816">
        <ele>0</ele>
        <time>2026-02-23T16:08:29.144Z</time>
      </trkpt>
      <trkpt lat="31.84573341561675" lon="34.993041479164816">
        <ele>209</ele>
        <time>2026-02-23T16:08:30.144Z</time>
      </trkpt>
      <trkpt lat="31.845868846782054" lon="34.992935192518075">
        <ele>209</ele>
        <time>2026-02-23T16:08:31.144Z</time>
      </trkpt>
      <trkpt lat="31.845868846782054" lon="34.992935192518075">
        <ele>209</ele>
        <time>2026-02-23T16:08:32.144Z</time>
      </trkpt>
      <trkpt lat="31.845868846782054" lon="34.992935192518075">
        <ele>0</ele>
        <time>2026-02-23T16:08:33.144Z</time>
      </trkpt>
      <trkpt lat="31.84615099440535" lon="34.99302819333394">
        <ele>207</ele>
        <time>2026-02-23T16:08:34.144Z</time>
      </trkpt>
      <trkpt lat="31.84615099440535" lon="34.99302819333394">
        <ele>207</ele>
        <time>2026-02-23T16:08:35.144Z</time>
      </trkpt>
      <trkpt lat="31.846591142973068" lon="34.99292190668726">
        <ele>207</ele>
        <time>2026-02-23T16:08:36.144Z</time>
      </trkpt>
      <trkpt lat="31.846591142973068" lon="34.99292190668726">
        <ele>0</ele>
        <time>2026-02-23T16:08:37.144Z</time>
      </trkpt>
      <trkpt lat="31.846591142973068" lon="34.99292190668726">
        <ele>207</ele>
        <time>2026-02-23T16:08:38.144Z</time>
      </trkpt>
      <trkpt lat="31.847008717877884" lon="34.99268276173217">
        <ele>204</ele>
        <time>2026-02-23T16:08:39.144Z</time>
      </trkpt>
      <trkpt lat="31.847008717877884" lon="34.99268276173217">
        <ele>204</ele>
        <time>2026-02-23T16:08:40.144Z</time>
      </trkpt>
      <trkpt lat="31.847008717877884" lon="34.99268276173217">
        <ele>0</ele>
        <time>2026-02-23T16:08:41.144Z</time>
      </trkpt>
      <trkpt lat="31.847494005257985" lon="34.992735905055525">
        <ele>204</ele>
        <time>2026-02-23T16:08:42.144Z</time>
      </trkpt>
      <trkpt lat="31.847494005257985" lon="34.992735905055525">
        <ele>204</ele>
        <time>2026-02-23T16:08:43.144Z</time>
      </trkpt>
      <trkpt lat="31.848024432728693" lon="34.99268276173217">
        <ele>198</ele>
        <time>2026-02-23T16:08:44.144Z</time>
      </trkpt>
      <trkpt lat="31.848024432728693" lon="34.99268276173217">
        <ele>0</ele>
        <time>2026-02-23T16:08:45.144Z</time>
      </trkpt>
      <trkpt lat="31.848024432728693" lon="34.99268276173217">
        <ele>198</ele>
        <time>2026-02-23T16:08:46.144Z</time>
      </trkpt>
      <trkpt lat="31.847618148130906" lon="34.9928687633639">
        <ele>201.5</ele>
        <time>2026-02-23T16:08:47.144Z</time>
      </trkpt>
      <trkpt lat="31.847618148130906" lon="34.9928687633639">
        <ele>201.5</ele>
        <time>2026-02-23T16:08:48.144Z</time>
      </trkpt>
      <trkpt lat="31.847618148130906" lon="34.9928687633639">
        <ele>0</ele>
        <time>2026-02-23T16:08:49.144Z</time>
      </trkpt>
      <trkpt lat="31.847279576265734" lon="34.99284219170224">
        <ele>204</ele>
        <time>2026-02-23T16:08:50.144Z</time>
      </trkpt>
      <trkpt lat="31.847279576265734" lon="34.99284219170224">
        <ele>204</ele>
        <time>2026-02-23T16:08:51.144Z</time>
      </trkpt>
      <trkpt lat="31.847099004095213" lon="34.99278904837891">
        <ele>204</ele>
        <time>2026-02-23T16:08:52.144Z</time>
      </trkpt>
      <trkpt lat="31.847099004095213" lon="34.99278904837891">
        <ele>0</ele>
        <time>2026-02-23T16:08:53.144Z</time>
      </trkpt>
      <trkpt lat="31.847099004095213" lon="34.99278904837891">
        <ele>204</ele>
        <time>2026-02-23T16:08:54.144Z</time>
      </trkpt>
      <trkpt lat="31.84696357473608" lon="34.99288204919475">
        <ele>204</ele>
        <time>2026-02-23T16:08:55.144Z</time>
      </trkpt>
      <trkpt lat="31.84696357473608" lon="34.99288204919475">
        <ele>204</ele>
        <time>2026-02-23T16:08:56.144Z</time>
      </trkpt>
      <trkpt lat="31.84696357473608" lon="34.99288204919475">
        <ele>0</ele>
        <time>2026-02-23T16:08:57.144Z</time>
      </trkpt>
      <trkpt lat="31.84670400124189" lon="34.993054764995605">
        <ele>207</ele>
        <time>2026-02-23T16:08:58.144Z</time>
      </trkpt>
      <trkpt lat="31.84670400124189" lon="34.993054764995605">
        <ele>207</ele>
        <time>2026-02-23T16:08:59.144Z</time>
      </trkpt>
      <trkpt lat="31.8463315684308" lon="34.9931477658115">
        <ele>207</ele>
        <time>2026-02-23T16:09:00.144Z</time>
      </trkpt>
      <trkpt lat="31.8463315684308" lon="34.9931477658115">
        <ele>0</ele>
        <time>2026-02-23T16:09:01.144Z</time>
      </trkpt>
      <trkpt lat="31.8463315684308" lon="34.9931477658115">
        <ele>207</ele>
        <time>2026-02-23T16:09:02.144Z</time>
      </trkpt>
      <trkpt lat="31.846105850842847" lon="34.993214194965674">
        <ele>207</ele>
        <time>2026-02-23T16:09:03.144Z</time>
      </trkpt>
      <trkpt lat="31.846105850842847" lon="34.993214194965674">
        <ele>207</ele>
        <time>2026-02-23T16:09:04.144Z</time>
      </trkpt>
      <trkpt lat="31.846105850842847" lon="34.993214194965674">
        <ele>0</ele>
        <time>2026-02-23T16:09:05.144Z</time>
      </trkpt>
      <trkpt lat="31.84590270454231" lon="34.993161051642346">
        <ele>209</ele>
        <time>2026-02-23T16:09:06.144Z</time>
      </trkpt>
      <trkpt lat="31.84590270454231" lon="34.993161051642346">
        <ele>209</ele>
        <time>2026-02-23T16:09:07.144Z</time>
      </trkpt>
      <trkpt lat="31.84376964137381" lon="34.99623007856789">
        <ele>231.5</ele>
        <time>2026-02-23T16:09:08.144Z</time>
      </trkpt>
      <trkpt lat="31.84376964137381" lon="34.99623007856789">
        <ele>0</ele>
        <time>2026-02-23T16:09:09.144Z</time>
      </trkpt>
      <trkpt lat="31.84376964137381" lon="34.99623007856789">
        <ele>231.5</ele>
        <time>2026-02-23T16:09:10.144Z</time>
      </trkpt>
      <trkpt lat="31.843306906874858" lon="34.99624336439868">
        <ele>229</ele>
        <time>2026-02-23T16:09:11.144Z</time>
      </trkpt>
      <trkpt lat="31.843306906874858" lon="34.99624336439868">
        <ele>229</ele>
        <time>2026-02-23T16:09:12.144Z</time>
      </trkpt>
      <trkpt lat="31.843306906874858" lon="34.99624336439868">
        <ele>0</ele>
        <time>2026-02-23T16:09:13.144Z</time>
      </trkpt>
      <trkpt lat="31.842878028924375" lon="34.99572521699605">
        <ele>222</ele>
        <time>2026-02-23T16:09:14.144Z</time>
      </trkpt>
      <trkpt lat="31.842878028924375" lon="34.99572521699605">
        <ele>222</ele>
        <time>2026-02-23T16:09:15.144Z</time>
      </trkpt>
      <trkpt lat="31.842629730252796" lon="34.99450292055795">
        <ele>223.5</ele>
        <time>2026-02-23T16:09:16.144Z</time>
      </trkpt>
      <trkpt lat="31.842629730252796" lon="34.99450292055795">
        <ele>0</ele>
        <time>2026-02-23T16:09:17.144Z</time>
      </trkpt>
      <trkpt lat="31.842629730252796" lon="34.99450292055795">
        <ele>223.5</ele>
        <time>2026-02-23T16:09:18.144Z</time>
      </trkpt>
      <trkpt lat="31.842663589201933" lon="34.99394491566278">
        <ele>225</ele>
        <time>2026-02-23T16:09:19.144Z</time>
      </trkpt>
      <trkpt lat="31.842663589201933" lon="34.99394491566278">
        <ele>225</ele>
        <time>2026-02-23T16:09:20.144Z</time>
      </trkpt>
      <trkpt lat="31.842663589201933" lon="34.99394491566278">
        <ele>0</ele>
        <time>2026-02-23T16:09:21.144Z</time>
      </trkpt>
      <trkpt lat="31.842957032907947" lon="34.99341348242825">
        <ele>219.5</ele>
        <time>2026-02-23T16:09:22.144Z</time>
      </trkpt>
      <trkpt lat="31.842957032907947" lon="34.99341348242825">
        <ele>219.5</ele>
        <time>2026-02-23T16:09:23.144Z</time>
      </trkpt>
      <trkpt lat="31.842979605461963" lon="34.99290862085641">
        <ele>221</ele>
        <time>2026-02-23T16:09:24.144Z</time>
      </trkpt>
      <trkpt lat="31.842979605461963" lon="34.99290862085641">
        <ele>0</ele>
        <time>2026-02-23T16:09:25.144Z</time>
      </trkpt>
      <trkpt lat="31.842979605461963" lon="34.99290862085641">
        <ele>221</ele>
        <time>2026-02-23T16:09:26.144Z</time>
      </trkpt>
      <trkpt lat="31.84282159746678" lon="34.99268276173217">
        <ele>221</ele>
        <time>2026-02-23T16:09:27.144Z</time>
      </trkpt>
      <trkpt lat="31.84282159746678" lon="34.99268276173217">
        <ele>221</ele>
        <time>2026-02-23T16:09:28.144Z</time>
      </trkpt>
      <trkpt lat="31.84282159746678" lon="34.99268276173217">
        <ele>0</ele>
        <time>2026-02-23T16:09:29.144Z</time>
      </trkpt>
      <trkpt lat="31.842539439661067" lon="34.99264290423966">
        <ele>237</ele>
        <time>2026-02-23T16:09:30.144Z</time>
      </trkpt>
      <trkpt lat="31.842539439661067" lon="34.99264290423966">
        <ele>237</ele>
        <time>2026-02-23T16:09:31.144Z</time>
      </trkpt>
      <trkpt lat="31.842189562783517" lon="34.993174337473164">
        <ele>234.5</ele>
        <time>2026-02-23T16:09:32.144Z</time>
      </trkpt>
      <trkpt lat="31.842189562783517" lon="34.993174337473164">
        <ele>0</ele>
        <time>2026-02-23T16:09:33.144Z</time>
      </trkpt>
      <trkpt lat="31.842189562783517" lon="34.993174337473164">
        <ele>234.5</ele>
        <time>2026-02-23T16:09:34.144Z</time>
      </trkpt>
      <trkpt lat="31.842022246244284" lon="34.993648616254205">
        <ele>232</ele>
        <time>2026-02-23T16:09:35.144Z</time>
      </trkpt>
      <trkpt lat="31.842022246244284" lon="34.993648616254205">
        <ele>232</ele>
        <time>2026-02-23T16:09:36.144Z</time>
      </trkpt>
      <trkpt lat="31.842022246244284" lon="34.993648616254205">
        <ele>0</ele>
        <time>2026-02-23T16:09:37.144Z</time>
      </trkpt>
      <trkpt lat="31.84187454512545" lon="34.993752936414296">
        <ele>232</ele>
        <time>2026-02-23T16:09:38.144Z</time>
      </trkpt>
      <trkpt lat="31.84187454512545" lon="34.993752936414296">
        <ele>232</ele>
        <time>2026-02-23T16:09:39.144Z</time>
      </trkpt>
      <trkpt lat="31.841072518024077" lon="34.99447433431641">
        <ele>253</ele>
        <time>2026-02-23T16:09:40.144Z</time>
      </trkpt>
      <trkpt lat="31.841072518024077" lon="34.99447433431641">
        <ele>0</ele>
        <time>2026-02-23T16:09:41.144Z</time>
      </trkpt>
      <trkpt lat="31.841072518024077" lon="34.99447433431641">
        <ele>253</ele>
        <time>2026-02-23T16:09:42.144Z</time>
      </trkpt>
      <trkpt lat="31.83987668635484" lon="34.99684532113207">
        <ele>269</ele>
        <time>2026-02-23T16:09:43.144Z</time>
      </trkpt>
      <trkpt lat="31.83987668635484" lon="34.99684532113207">
        <ele>269</ele>
        <time>2026-02-23T16:09:44.144Z</time>
      </trkpt>
      <trkpt lat="31.83987668635484" lon="34.99684532113207">
        <ele>0</ele>
        <time>2026-02-23T16:09:45.144Z</time>
      </trkpt>
      <trkpt lat="31.83933522065246" lon="34.99777082053541">
        <ele>277</ele>
        <time>2026-02-23T16:09:46.144Z</time>
      </trkpt>
      <trkpt lat="31.83933522065246" lon="34.99777082053541">
        <ele>277</ele>
        <time>2026-02-23T16:09:47.144Z</time>
      </trkpt>
      <trkpt lat="31.839401976869638" lon="34.99789305630543">
        <ele>287</ele>
        <time>2026-02-23T16:09:48.144Z</time>
      </trkpt>
    </trkseg>
  </trk>
</gpx>