<?xml version="1.0" encoding="UTF-8"?>
<gpx creator="Patrick Hooper" version="1.1" xmlns="http://www.topografix.com/GPX/1/1" xmlns:xsi="http://www.w3.org/2001/XMLSchema-instance" xsi:schemaLocation="http://www.topografix.com/GPX/1/1 http://www.topografix.com/GPX/1/1/gpx.xsd http://www.garmin.com/xmlschemas/GpxExtensions/v3 http://www.garmin.com/xmlschemas/GpxExtensionsv3.xsd http://www.garmin.com/xmlschemas/TrackPointExtension/v1 http://www.garmin.com/xmlschemas/TrackPointExtensionv1.xsd">
  <metadata>
    <name>Activity</name>
  </metadata>
  <trk>
    <name>a</name>
    <trkseg>
      <trkpt lat="31.841520000000003" lon="34.99344">
        <ele>0</ele>
        <time>2026-02-24T07:08:36.398Z</time>
      </trkpt>
      <trkpt lat="31.841520000000003" lon="34.99344">
        <ele>0</ele>
        <time>2026-02-24T07:08:37.398Z</time>
      </trkpt>
      <trkpt lat="31.841520000000003" lon="34.99344">
        <ele>0</ele>
        <time>2026-02-24T07:08:38.398Z</time>
      </trkpt>
      <trkpt lat="31.841520000000003" lon="34.99344">
        <ele>0</ele>
        <time>2026-02-24T07:08:39.398Z</time>
      </trkpt>
      <trkpt lat="31.841520000000003" lon="34.99344">
        <ele>247</ele>
        <time>2026-02-24T07:08:40.398Z</time>
      </trkpt>
      <trkpt lat="31.841530000000002" lon="34.99345">
        <ele>247</ele>
        <time>2026-02-24T07:08:41.398Z</time>
      </trkpt>
      <trkpt lat="31.841490000000004" lon="34.99369">
        <ele>247</ele>
        <time>2026-02-24T07:08:42.398Z</time>
      </trkpt>
      <trkpt lat="31.840790000000002" lon="34.995050000000006">
        <ele>260</ele>
        <time>2026-02-24T07:08:43.398Z</time>
      </trkpt>
      <trkpt lat="31.840790000000002" lon="34.995050000000006">
        <ele>0</ele>
        <time>2026-02-24T07:08:44.398Z</time>
      </trkpt>
      <trkpt lat="31.840790000000002" lon="34.995050000000006">
        <ele>0</ele>
        <time>2026-02-24T07:08:45.398Z</time>
      </trkpt>
      <trkpt lat="31.840790000000002" lon="34.995050000000006">
        <ele>0</ele>
        <time>2026-02-24T07:08:46.398Z</time>
      </trkpt>
      <trkpt lat="31.840790000000002" lon="34.995050000000006">
        <ele>0</ele>
        <time>2026-02-24T07:08:47.398Z</time>
      </trkpt>
      <trkpt lat="31.840790000000002" lon="34.995050000000006">
        <ele>260</ele>
        <time>2026-02-24T07:08:48.398Z</time>
      </trkpt>
      <trkpt lat="31.840870000000002" lon="34.9949">
        <ele>260</ele>
        <time>2026-02-24T07:08:49.398Z</time>
      </trkpt>
      <trkpt lat="31.84072" lon="34.994820000000004">
        <ele>260</ele>
        <time>2026-02-24T07:08:50.398Z</time>
      </trkpt>
      <trkpt lat="31.840650000000004" lon="34.99474">
        <ele>260</ele>
        <time>2026-02-24T07:08:51.398Z</time>
      </trkpt>
      <trkpt lat="31.840390000000003" lon="34.994350000000004">
        <ele>260</ele>
        <time>2026-02-24T07:08:52.398Z</time>
      </trkpt>
      <trkpt lat="31.840000000000003" lon="34.993880000000004">
        <ele>272</ele>
        <time>2026-02-24T07:08:53.398Z</time>
      </trkpt>
      <trkpt lat="31.839790000000004" lon="34.993680000000005">
        <ele>272</ele>
        <time>2026-02-24T07:08:54.398Z</time>
      </trkpt>
      <trkpt lat="31.839790000000004" lon="34.993680000000005">
        <ele>0</ele>
        <time>2026-02-24T07:08:55.398Z</time>
      </trkpt>
      <trkpt lat="31.839790000000004" lon="34.993680000000005">
        <ele>0</ele>
        <time>2026-02-24T07:08:56.398Z</time>
      </trkpt>
      <trkpt lat="31.839790000000004" lon="34.993680000000005">
        <ele>0</ele>
        <time>2026-02-24T07:08:57.398Z</time>
      </trkpt>
      <trkpt lat="31.839790000000004" lon="34.993680000000005">
        <ele>0</ele>
        <time>2026-02-24T07:08:58.398Z</time>
      </trkpt>
      <trkpt lat="31.839790000000004" lon="34.993680000000005">
        <ele>272</ele>
        <time>2026-02-24T07:08:59.398Z</time>
      </trkpt>
      <trkpt lat="31.8395" lon="34.99351">
        <ele>272</ele>
        <time>2026-02-24T07:09:00.398Z</time>
      </trkpt>
      <trkpt lat="31.839170000000003" lon="34.9934">
        <ele>281</ele>
        <time>2026-02-24T07:09:01.398Z</time>
      </trkpt>
      <trkpt lat="31.839070000000003" lon="34.99333">
        <ele>274</ele>
        <time>2026-02-24T07:09:02.398Z</time>
      </trkpt>
      <trkpt lat="31.839070000000003" lon="34.99333">
        <ele>0</ele>
        <time>2026-02-24T07:09:03.398Z</time>
      </trkpt>
      <trkpt lat="31.839070000000003" lon="34.99333">
        <ele>0</ele>
        <time>2026-02-24T07:09:04.398Z</time>
      </trkpt>
      <trkpt lat="31.839070000000003" lon="34.99333">
        <ele>0</ele>
        <time>2026-02-24T07:09:05.398Z</time>
      </trkpt>
      <trkpt lat="31.839070000000003" lon="34.99333">
        <ele>0</ele>
        <time>2026-02-24T07:09:06.398Z</time>
      </trkpt>
      <trkpt lat="31.839070000000003" lon="34.99333">
        <ele>274</ele>
        <time>2026-02-24T07:09:07.398Z</time>
      </trkpt>
      <trkpt lat="31.83884" lon="34.99313">
        <ele>267</ele>
        <time>2026-02-24T07:09:08.398Z</time>
      </trkpt>
      <trkpt lat="31.83873" lon="34.99306">
        <ele>267</ele>
        <time>2026-02-24T07:09:09.398Z</time>
      </trkpt>
      <trkpt lat="31.83864" lon="34.993050000000004">
        <ele>267</ele>
        <time>2026-02-24T07:09:10.398Z</time>
      </trkpt>
      <trkpt lat="31.83864" lon="34.993050000000004">
        <ele>0</ele>
        <time>2026-02-24T07:09:11.398Z</time>
      </trkpt>
      <trkpt lat="31.83864" lon="34.993050000000004">
        <ele>0</ele>
        <time>2026-02-24T07:09:12.398Z</time>
      </trkpt>
      <trkpt lat="31.83864" lon="34.993050000000004">
        <ele>0</ele>
        <time>2026-02-24T07:09:13.398Z</time>
      </trkpt>
      <trkpt lat="31.83864" lon="34.993050000000004">
        <ele>267</ele>
        <time>2026-02-24T07:09:14.398Z</time>
      </trkpt>
      <trkpt lat="31.838520000000003" lon="34.99306">
        <ele>267</ele>
        <time>2026-02-24T07:09:15.398Z</time>
      </trkpt>
      <trkpt lat="31.838520000000003" lon="34.99306">
        <ele>0</ele>
        <time>2026-02-24T07:09:16.398Z</time>
      </trkpt>
      <trkpt lat="31.838320000000003" lon="34.993120000000005">
        <ele>271</ele>
        <time>2026-02-24T07:09:17.398Z</time>
      </trkpt>
      <trkpt lat="31.83809" lon="34.99322">
        <ele>271</ele>
        <time>2026-02-24T07:09:18.398Z</time>
      </trkpt>
      <trkpt lat="31.837940000000003" lon="34.99325">
        <ele>271</ele>
        <time>2026-02-24T07:09:19.398Z</time>
      </trkpt>
      <trkpt lat="31.837820000000004" lon="34.99324">
        <ele>271</ele>
        <time>2026-02-24T07:09:20.398Z</time>
      </trkpt>
      <trkpt lat="31.837820000000004" lon="34.99324">
        <ele>0</ele>
        <time>2026-02-24T07:09:21.398Z</time>
      </trkpt>
      <trkpt lat="31.837820000000004" lon="34.99324">
        <ele>0</ele>
        <time>2026-02-24T07:09:22.398Z</time>
      </trkpt>
      <trkpt lat="31.837820000000004" lon="34.99324">
        <ele>0</ele>
        <time>2026-02-24T07:09:23.398Z</time>
      </trkpt>
      <trkpt lat="31.837820000000004" lon="34.99324">
        <ele>271</ele>
        <time>2026-02-24T07:09:24.398Z</time>
      </trkpt>
      <trkpt lat="31.837670000000003" lon="34.9932">
        <ele>271</ele>
        <time>2026-02-24T07:09:25.398Z</time>
      </trkpt>
      <trkpt lat="31.837670000000003" lon="34.9932">
        <ele>0</ele>
        <time>2026-02-24T07:09:26.398Z</time>
      </trkpt>
      <trkpt lat="31.837560000000003" lon="34.99311">
        <ele>272</ele>
        <time>2026-02-24T07:09:27.398Z</time>
      </trkpt>
      <trkpt lat="31.837460000000004" lon="34.99298">
        <ele>272</ele>
        <time>2026-02-24T07:09:28.398Z</time>
      </trkpt>
      <trkpt lat="31.837370000000004" lon="34.992900000000006">
        <ele>272</ele>
        <time>2026-02-24T07:09:29.398Z</time>
      </trkpt>
      <trkpt lat="31.837320000000002" lon="34.992900000000006">
        <ele>272</ele>
        <time>2026-02-24T07:09:30.398Z</time>
      </trkpt>
      <trkpt lat="31.837320000000002" lon="34.992900000000006">
        <ele>0</ele>
        <time>2026-02-24T07:09:31.398Z</time>
      </trkpt>
      <trkpt lat="31.837320000000002" lon="34.992900000000006">
        <ele>0</ele>
        <time>2026-02-24T07:09:32.398Z</time>
      </trkpt>
      <trkpt lat="31.837320000000002" lon="34.992900000000006">
        <ele>0</ele>
        <time>2026-02-24T07:09:33.398Z</time>
      </trkpt>
      <trkpt lat="31.837320000000002" lon="34.992900000000006">
        <ele>272</ele>
        <time>2026-02-24T07:09:34.398Z</time>
      </trkpt>
      <trkpt lat="31.837030000000002" lon="34.993050000000004">
        <ele>272</ele>
        <time>2026-02-24T07:09:35.398Z</time>
      </trkpt>
      <trkpt lat="31.837030000000002" lon="34.993050000000004">
        <ele>0</ele>
        <time>2026-02-24T07:09:36.398Z</time>
      </trkpt>
      <trkpt lat="31.836910000000003" lon="34.99307">
        <ele>272</ele>
        <time>2026-02-24T07:09:37.398Z</time>
      </trkpt>
      <trkpt lat="31.83686" lon="34.99306">
        <ele>274</ele>
        <time>2026-02-24T07:09:38.398Z</time>
      </trkpt>
      <trkpt lat="31.83686" lon="34.99306">
        <ele>0</ele>
        <time>2026-02-24T07:09:39.398Z</time>
      </trkpt>
      <trkpt lat="31.83686" lon="34.99306">
        <ele>0</ele>
        <time>2026-02-24T07:09:40.398Z</time>
      </trkpt>
      <trkpt lat="31.83686" lon="34.99306">
        <ele>0</ele>
        <time>2026-02-24T07:09:41.398Z</time>
      </trkpt>
      <trkpt lat="31.83686" lon="34.99306">
        <ele>274</ele>
        <time>2026-02-24T07:09:42.398Z</time>
      </trkpt>
      <trkpt lat="31.836790000000004" lon="34.993050000000004">
        <ele>276</ele>
        <time>2026-02-24T07:09:43.398Z</time>
      </trkpt>
      <trkpt lat="31.836750000000002" lon="34.993">
        <ele>276</ele>
        <time>2026-02-24T07:09:44.398Z</time>
      </trkpt>
      <trkpt lat="31.836720000000003" lon="34.99291">
        <ele>276</ele>
        <time>2026-02-24T07:09:45.398Z</time>
      </trkpt>
      <trkpt lat="31.836720000000003" lon="34.99291">
        <ele>0</ele>
        <time>2026-02-24T07:09:46.398Z</time>
      </trkpt>
      <trkpt lat="31.836710000000004" lon="34.99279">
        <ele>276</ele>
        <time>2026-02-24T07:09:47.398Z</time>
      </trkpt>
      <trkpt lat="31.836700000000004" lon="34.992700000000006">
        <ele>276</ele>
        <time>2026-02-24T07:09:48.398Z</time>
      </trkpt>
      <trkpt lat="31.83676" lon="34.99248">
        <ele>275.5</ele>
        <time>2026-02-24T07:09:49.398Z</time>
      </trkpt>
      <trkpt lat="31.83676" lon="34.99248">
        <ele>0</ele>
        <time>2026-02-24T07:09:50.398Z</time>
      </trkpt>
      <trkpt lat="31.83676" lon="34.99248">
        <ele>0</ele>
        <time>2026-02-24T07:09:51.398Z</time>
      </trkpt>
      <trkpt lat="31.83676" lon="34.99248">
        <ele>0</ele>
        <time>2026-02-24T07:09:52.398Z</time>
      </trkpt>
      <trkpt lat="31.83676" lon="34.99248">
        <ele>275.5</ele>
        <time>2026-02-24T07:09:53.398Z</time>
      </trkpt>
      <trkpt lat="31.837000000000003" lon="34.991530000000004">
        <ele>267</ele>
        <time>2026-02-24T07:09:54.398Z</time>
      </trkpt>
      <trkpt lat="31.83714" lon="34.99119">
        <ele>267</ele>
        <time>2026-02-24T07:09:55.398Z</time>
      </trkpt>
      <trkpt lat="31.83714" lon="34.99119">
        <ele>0</ele>
        <time>2026-02-24T07:09:56.398Z</time>
      </trkpt>
      <trkpt lat="31.83714" lon="34.99119">
        <ele>0</ele>
        <time>2026-02-24T07:09:57.398Z</time>
      </trkpt>
      <trkpt lat="31.83714" lon="34.99119">
        <ele>0</ele>
        <time>2026-02-24T07:09:58.398Z</time>
      </trkpt>
      <trkpt lat="31.83714" lon="34.99119">
        <ele>0</ele>
        <time>2026-02-24T07:09:59.398Z</time>
      </trkpt>
      <trkpt lat="31.83714" lon="34.99119">
        <ele>267</ele>
        <time>2026-02-24T07:10:00.398Z</time>
      </trkpt>
      <trkpt lat="31.83715" lon="34.99116">
        <ele>267</ele>
        <time>2026-02-24T07:10:01.398Z</time>
      </trkpt>
      <trkpt lat="31.83715" lon="34.99107">
        <ele>267</ele>
        <time>2026-02-24T07:10:02.398Z</time>
      </trkpt>
      <trkpt lat="31.837080000000004" lon="34.990970000000004">
        <ele>267</ele>
        <time>2026-02-24T07:10:03.398Z</time>
      </trkpt>
      <trkpt lat="31.83676" lon="34.990610000000004">
        <ele>272</ele>
        <time>2026-02-24T07:10:04.398Z</time>
      </trkpt>
      <trkpt lat="31.83676" lon="34.990610000000004">
        <ele>0</ele>
        <time>2026-02-24T07:10:05.398Z</time>
      </trkpt>
      <trkpt lat="31.83676" lon="34.990610000000004">
        <ele>0</ele>
        <time>2026-02-24T07:10:06.398Z</time>
      </trkpt>
      <trkpt lat="31.83676" lon="34.990610000000004">
        <ele>0</ele>
        <time>2026-02-24T07:10:07.398Z</time>
      </trkpt>
      <trkpt lat="31.83676" lon="34.990610000000004">
        <ele>0</ele>
        <time>2026-02-24T07:10:08.398Z</time>
      </trkpt>
      <trkpt lat="31.83676" lon="34.990610000000004">
        <ele>272</ele>
        <time>2026-02-24T07:10:09.398Z</time>
      </trkpt>
      <trkpt lat="31.836560000000002" lon="34.990390000000005">
        <ele>277</ele>
        <time>2026-02-24T07:10:10.398Z</time>
      </trkpt>
      <trkpt lat="31.836340000000003" lon="34.990010000000005">
        <ele>277</ele>
        <time>2026-02-24T07:10:11.398Z</time>
      </trkpt>
      <trkpt lat="31.836340000000003" lon="34.990010000000005">
        <ele>0</ele>
        <time>2026-02-24T07:10:12.398Z</time>
      </trkpt>
      <trkpt lat="31.836340000000003" lon="34.990010000000005">
        <ele>0</ele>
        <time>2026-02-24T07:10:13.398Z</time>
      </trkpt>
      <trkpt lat="31.836340000000003" lon="34.990010000000005">
        <ele>0</ele>
        <time>2026-02-24T07:10:14.398Z</time>
      </trkpt>
      <trkpt lat="31.836340000000003" lon="34.990010000000005">
        <ele>277</ele>
        <time>2026-02-24T07:10:15.398Z</time>
      </trkpt>
      <trkpt lat="31.836340000000003" lon="34.990010000000005">
        <ele>0</ele>
        <time>2026-02-24T07:10:16.398Z</time>
      </trkpt>
      <trkpt lat="31.83631" lon="34.98997">
        <ele>277</ele>
        <time>2026-02-24T07:10:17.398Z</time>
      </trkpt>
      <trkpt lat="31.836090000000002" lon="34.989900000000006">
        <ele>277</ele>
        <time>2026-02-24T07:10:18.398Z</time>
      </trkpt>
      <trkpt lat="31.836090000000002" lon="34.989900000000006">
        <ele>0</ele>
        <time>2026-02-24T07:10:19.398Z</time>
      </trkpt>
      <trkpt lat="31.836090000000002" lon="34.989900000000006">
        <ele>0</ele>
        <time>2026-02-24T07:10:20.398Z</time>
      </trkpt>
      <trkpt lat="31.836090000000002" lon="34.989900000000006">
        <ele>0</ele>
        <time>2026-02-24T07:10:21.398Z</time>
      </trkpt>
      <trkpt lat="31.836090000000002" lon="34.989900000000006">
        <ele>277</ele>
        <time>2026-02-24T07:10:22.398Z</time>
      </trkpt>
      <trkpt lat="31.83593" lon="34.98991">
        <ele>276</ele>
        <time>2026-02-24T07:10:23.398Z</time>
      </trkpt>
      <trkpt lat="31.835810000000002" lon="34.99">
        <ele>280.5</ele>
        <time>2026-02-24T07:10:24.398Z</time>
      </trkpt>
      <trkpt lat="31.835810000000002" lon="34.99">
        <ele>0</ele>
        <time>2026-02-24T07:10:25.398Z</time>
      </trkpt>
      <trkpt lat="31.835810000000002" lon="34.99">
        <ele>0</ele>
        <time>2026-02-24T07:10:26.398Z</time>
      </trkpt>
      <trkpt lat="31.835810000000002" lon="34.99">
        <ele>0</ele>
        <time>2026-02-24T07:10:27.398Z</time>
      </trkpt>
      <trkpt lat="31.835810000000002" lon="34.99">
        <ele>0</ele>
        <time>2026-02-24T07:10:28.398Z</time>
      </trkpt>
      <trkpt lat="31.835810000000002" lon="34.99">
        <ele>280.5</ele>
        <time>2026-02-24T07:10:29.398Z</time>
      </trkpt>
      <trkpt lat="31.835610000000003" lon="34.99018">
        <ele>285</ele>
        <time>2026-02-24T07:10:30.398Z</time>
      </trkpt>
      <trkpt lat="31.835500000000003" lon="34.99035">
        <ele>287.5</ele>
        <time>2026-02-24T07:10:31.398Z</time>
      </trkpt>
      <trkpt lat="31.835500000000003" lon="34.99035">
        <ele>0</ele>
        <time>2026-02-24T07:10:32.398Z</time>
      </trkpt>
      <trkpt lat="31.835500000000003" lon="34.99035">
        <ele>0</ele>
        <time>2026-02-24T07:10:33.398Z</time>
      </trkpt>
      <trkpt lat="31.835500000000003" lon="34.99035">
        <ele>0</ele>
        <time>2026-02-24T07:10:34.398Z</time>
      </trkpt>
      <trkpt lat="31.835500000000003" lon="34.99035">
        <ele>287.5</ele>
        <time>2026-02-24T07:10:35.398Z</time>
      </trkpt>
      <trkpt lat="31.835500000000003" lon="34.99035">
        <ele>0</ele>
        <time>2026-02-24T07:10:36.398Z</time>
      </trkpt>
      <trkpt lat="31.835320000000003" lon="34.990860000000005">
        <ele>290</ele>
        <time>2026-02-24T07:10:37.398Z</time>
      </trkpt>
      <trkpt lat="31.835300000000004" lon="34.990970000000004">
        <ele>290</ele>
        <time>2026-02-24T07:10:38.398Z</time>
      </trkpt>
      <trkpt lat="31.835300000000004" lon="34.990970000000004">
        <ele>0</ele>
        <time>2026-02-24T07:10:39.398Z</time>
      </trkpt>
      <trkpt lat="31.835300000000004" lon="34.990970000000004">
        <ele>0</ele>
        <time>2026-02-24T07:10:40.398Z</time>
      </trkpt>
      <trkpt lat="31.835300000000004" lon="34.990970000000004">
        <ele>0</ele>
        <time>2026-02-24T07:10:41.398Z</time>
      </trkpt>
      <trkpt lat="31.835300000000004" lon="34.990970000000004">
        <ele>290</ele>
        <time>2026-02-24T07:10:42.398Z</time>
      </trkpt>
      <trkpt lat="31.835290000000004" lon="34.991020000000006">
        <ele>290</ele>
        <time>2026-02-24T07:10:43.398Z</time>
      </trkpt>
      <trkpt lat="31.83498" lon="34.99161">
        <ele>288</ele>
        <time>2026-02-24T07:10:44.398Z</time>
      </trkpt>
      <trkpt lat="31.8348" lon="34.99172">
        <ele>302</ele>
        <time>2026-02-24T07:10:45.398Z</time>
      </trkpt>
      <trkpt lat="31.8348" lon="34.99172">
        <ele>0</ele>
        <time>2026-02-24T07:10:46.398Z</time>
      </trkpt>
      <trkpt lat="31.834290000000003" lon="34.99194">
        <ele>301</ele>
        <time>2026-02-24T07:10:47.398Z</time>
      </trkpt>
      <trkpt lat="31.834170000000004" lon="34.992020000000004">
        <ele>301</ele>
        <time>2026-02-24T07:10:48.398Z</time>
      </trkpt>
      <trkpt lat="31.834170000000004" lon="34.992020000000004">
        <ele>0</ele>
        <time>2026-02-24T07:10:49.398Z</time>
      </trkpt>
      <trkpt lat="31.834170000000004" lon="34.992020000000004">
        <ele>0</ele>
        <time>2026-02-24T07:10:50.398Z</time>
      </trkpt>
      <trkpt lat="31.834170000000004" lon="34.992020000000004">
        <ele>0</ele>
        <time>2026-02-24T07:10:51.398Z</time>
      </trkpt>
      <trkpt lat="31.834170000000004" lon="34.992020000000004">
        <ele>301</ele>
        <time>2026-02-24T07:10:52.398Z</time>
      </trkpt>
      <trkpt lat="31.833940000000002" lon="34.99217">
        <ele>301</ele>
        <time>2026-02-24T07:10:53.398Z</time>
      </trkpt>
      <trkpt lat="31.833810000000003" lon="34.99219">
        <ele>301</ele>
        <time>2026-02-24T07:10:54.398Z</time>
      </trkpt>
      <trkpt lat="31.833360000000003" lon="34.992110000000004">
        <ele>303</ele>
        <time>2026-02-24T07:10:55.398Z</time>
      </trkpt>
      <trkpt lat="31.833360000000003" lon="34.992110000000004">
        <ele>0</ele>
        <time>2026-02-24T07:10:56.398Z</time>
      </trkpt>
      <trkpt lat="31.833360000000003" lon="34.992110000000004">
        <ele>0</ele>
        <time>2026-02-24T07:10:57.398Z</time>
      </trkpt>
      <trkpt lat="31.833360000000003" lon="34.992110000000004">
        <ele>0</ele>
        <time>2026-02-24T07:10:58.398Z</time>
      </trkpt>
      <trkpt lat="31.833360000000003" lon="34.992110000000004">
        <ele>0</ele>
        <time>2026-02-24T07:10:59.398Z</time>
      </trkpt>
      <trkpt lat="31.833360000000003" lon="34.992110000000004">
        <ele>303</ele>
        <time>2026-02-24T07:11:00.398Z</time>
      </trkpt>
      <trkpt lat="31.833150000000003" lon="34.99208">
        <ele>305</ele>
        <time>2026-02-24T07:11:01.398Z</time>
      </trkpt>
      <trkpt lat="31.83263" lon="34.99208">
        <ele>306</ele>
        <time>2026-02-24T07:11:02.398Z</time>
      </trkpt>
      <trkpt lat="31.83263" lon="34.99208">
        <ele>0</ele>
        <time>2026-02-24T07:11:03.398Z</time>
      </trkpt>
      <trkpt lat="31.83263" lon="34.99208">
        <ele>0</ele>
        <time>2026-02-24T07:11:04.398Z</time>
      </trkpt>
      <trkpt lat="31.83263" lon="34.99208">
        <ele>0</ele>
        <time>2026-02-24T07:11:05.398Z</time>
      </trkpt>
      <trkpt lat="31.83263" lon="34.99208">
        <ele>0</ele>
        <time>2026-02-24T07:11:06.398Z</time>
      </trkpt>
      <trkpt lat="31.83263" lon="34.99208">
        <ele>306</ele>
        <time>2026-02-24T07:11:07.398Z</time>
      </trkpt>
      <trkpt lat="31.83235" lon="34.99213">
        <ele>307</ele>
        <time>2026-02-24T07:11:08.398Z</time>
      </trkpt>
      <trkpt lat="31.832190000000004" lon="34.99221">
        <ele>307</ele>
        <time>2026-02-24T07:11:09.398Z</time>
      </trkpt>
      <trkpt lat="31.832020000000004" lon="34.99233">
        <ele>307</ele>
        <time>2026-02-24T07:11:10.398Z</time>
      </trkpt>
      <trkpt lat="31.832020000000004" lon="34.99233">
        <ele>0</ele>
        <time>2026-02-24T07:11:11.398Z</time>
      </trkpt>
      <trkpt lat="31.832020000000004" lon="34.99233">
        <ele>0</ele>
        <time>2026-02-24T07:11:12.398Z</time>
      </trkpt>
      <trkpt lat="31.832020000000004" lon="34.99233">
        <ele>0</ele>
        <time>2026-02-24T07:11:13.398Z</time>
      </trkpt>
      <trkpt lat="31.832020000000004" lon="34.99233">
        <ele>307</ele>
        <time>2026-02-24T07:11:14.398Z</time>
      </trkpt>
      <trkpt lat="31.831930000000003" lon="34.9924">
        <ele>307</ele>
        <time>2026-02-24T07:11:15.398Z</time>
      </trkpt>
      <trkpt lat="31.831930000000003" lon="34.9924">
        <ele>0</ele>
        <time>2026-02-24T07:11:16.398Z</time>
      </trkpt>
      <trkpt lat="31.831840000000003" lon="34.99253">
        <ele>316</ele>
        <time>2026-02-24T07:11:17.398Z</time>
      </trkpt>
      <trkpt lat="31.831810000000004" lon="34.992720000000006">
        <ele>316</ele>
        <time>2026-02-24T07:11:18.398Z</time>
      </trkpt>
      <trkpt lat="31.831830000000004" lon="34.992990000000006">
        <ele>316</ele>
        <time>2026-02-24T07:11:19.398Z</time>
      </trkpt>
      <trkpt lat="31.83188" lon="34.993170000000006">
        <ele>316</ele>
        <time>2026-02-24T07:11:20.398Z</time>
      </trkpt>
      <trkpt lat="31.83199" lon="34.993370000000006">
        <ele>307.5</ele>
        <time>2026-02-24T07:11:21.398Z</time>
      </trkpt>
      <trkpt lat="31.83199" lon="34.993370000000006">
        <ele>0</ele>
        <time>2026-02-24T07:11:22.398Z</time>
      </trkpt>
      <trkpt lat="31.83199" lon="34.993370000000006">
        <ele>0</ele>
        <time>2026-02-24T07:11:23.398Z</time>
      </trkpt>
      <trkpt lat="31.83199" lon="34.993370000000006">
        <ele>0</ele>
        <time>2026-02-24T07:11:24.398Z</time>
      </trkpt>
      <trkpt lat="31.83199" lon="34.993370000000006">
        <ele>307.5</ele>
        <time>2026-02-24T07:11:25.398Z</time>
      </trkpt>
      <trkpt lat="31.83199" lon="34.993370000000006">
        <ele>0</ele>
        <time>2026-02-24T07:11:26.398Z</time>
      </trkpt>
      <trkpt lat="31.832490000000004" lon="34.994220000000006">
        <ele>307.5</ele>
        <time>2026-02-24T07:11:27.398Z</time>
      </trkpt>
      <trkpt lat="31.832490000000004" lon="34.994220000000006">
        <ele>0</ele>
        <time>2026-02-24T07:11:28.398Z</time>
      </trkpt>
      <trkpt lat="31.832490000000004" lon="34.994220000000006">
        <ele>0</ele>
        <time>2026-02-24T07:11:29.398Z</time>
      </trkpt>
      <trkpt lat="31.832490000000004" lon="34.994220000000006">
        <ele>0</ele>
        <time>2026-02-24T07:11:30.398Z</time>
      </trkpt>
      <trkpt lat="31.832490000000004" lon="34.994220000000006">
        <ele>307.5</ele>
        <time>2026-02-24T07:11:31.398Z</time>
      </trkpt>
      <trkpt lat="31.832610000000003" lon="34.994350000000004">
        <ele>299</ele>
        <time>2026-02-24T07:11:32.398Z</time>
      </trkpt>
      <trkpt lat="31.833160000000003" lon="34.994620000000005">
        <ele>301</ele>
        <time>2026-02-24T07:11:33.398Z</time>
      </trkpt>
      <trkpt lat="31.833160000000003" lon="34.994620000000005">
        <ele>0</ele>
        <time>2026-02-24T07:11:34.398Z</time>
      </trkpt>
      <trkpt lat="31.833160000000003" lon="34.994620000000005">
        <ele>0</ele>
        <time>2026-02-24T07:11:35.398Z</time>
      </trkpt>
      <trkpt lat="31.833160000000003" lon="34.994620000000005">
        <ele>0</ele>
        <time>2026-02-24T07:11:36.398Z</time>
      </trkpt>
      <trkpt lat="31.833160000000003" lon="34.994620000000005">
        <ele>0</ele>
        <time>2026-02-24T07:11:37.398Z</time>
      </trkpt>
      <trkpt lat="31.833160000000003" lon="34.994620000000005">
        <ele>301</ele>
        <time>2026-02-24T07:11:38.398Z</time>
      </trkpt>
      <trkpt lat="31.833360000000003" lon="34.994730000000004">
        <ele>303</ele>
        <time>2026-02-24T07:11:39.398Z</time>
      </trkpt>
      <trkpt lat="31.833520000000004" lon="34.99483">
        <ele>308</ele>
        <time>2026-02-24T07:11:40.398Z</time>
      </trkpt>
      <trkpt lat="31.833790000000004" lon="34.995050000000006">
        <ele>303.5</ele>
        <time>2026-02-24T07:11:41.398Z</time>
      </trkpt>
      <trkpt lat="31.833790000000004" lon="34.995050000000006">
        <ele>0</ele>
        <time>2026-02-24T07:11:42.398Z</time>
      </trkpt>
      <trkpt lat="31.833790000000004" lon="34.995050000000006">
        <ele>0</ele>
        <time>2026-02-24T07:11:43.398Z</time>
      </trkpt>
      <trkpt lat="31.833790000000004" lon="34.995050000000006">
        <ele>0</ele>
        <time>2026-02-24T07:11:44.398Z</time>
      </trkpt>
      <trkpt lat="31.833790000000004" lon="34.995050000000006">
        <ele>303.5</ele>
        <time>2026-02-24T07:11:45.398Z</time>
      </trkpt>
      <trkpt lat="31.833790000000004" lon="34.995050000000006">
        <ele>0</ele>
        <time>2026-02-24T07:11:46.398Z</time>
      </trkpt>
      <trkpt lat="31.833970000000004" lon="34.99519">
        <ele>299</ele>
        <time>2026-02-24T07:11:47.398Z</time>
      </trkpt>
      <trkpt lat="31.834180000000003" lon="34.9953">
        <ele>299</ele>
        <time>2026-02-24T07:11:48.398Z</time>
      </trkpt>
      <trkpt lat="31.834370000000003" lon="34.99535">
        <ele>302</ele>
        <time>2026-02-24T07:11:49.398Z</time>
      </trkpt>
      <trkpt lat="31.834560000000003" lon="34.99532">
        <ele>302</ele>
        <time>2026-02-24T07:11:50.398Z</time>
      </trkpt>
      <trkpt lat="31.834560000000003" lon="34.99532">
        <ele>0</ele>
        <time>2026-02-24T07:11:51.398Z</time>
      </trkpt>
      <trkpt lat="31.834560000000003" lon="34.99532">
        <ele>0</ele>
        <time>2026-02-24T07:11:52.398Z</time>
      </trkpt>
      <trkpt lat="31.834560000000003" lon="34.99532">
        <ele>0</ele>
        <time>2026-02-24T07:11:53.398Z</time>
      </trkpt>
      <trkpt lat="31.834560000000003" lon="34.99532">
        <ele>302</ele>
        <time>2026-02-24T07:11:54.398Z</time>
      </trkpt>
      <trkpt lat="31.835010000000004" lon="34.995250000000006">
        <ele>302</ele>
        <time>2026-02-24T07:11:55.398Z</time>
      </trkpt>
      <trkpt lat="31.835010000000004" lon="34.995250000000006">
        <ele>0</ele>
        <time>2026-02-24T07:11:56.398Z</time>
      </trkpt>
      <trkpt lat="31.835010000000004" lon="34.995250000000006">
        <ele>0</ele>
        <time>2026-02-24T07:11:57.398Z</time>
      </trkpt>
      <trkpt lat="31.835010000000004" lon="34.995250000000006">
        <ele>0</ele>
        <time>2026-02-24T07:11:58.398Z</time>
      </trkpt>
      <trkpt lat="31.835010000000004" lon="34.995250000000006">
        <ele>0</ele>
        <time>2026-02-24T07:11:59.398Z</time>
      </trkpt>
      <trkpt lat="31.835010000000004" lon="34.995250000000006">
        <ele>302</ele>
        <time>2026-02-24T07:12:00.398Z</time>
      </trkpt>
      <trkpt lat="31.835040000000003" lon="34.99524">
        <ele>302</ele>
        <time>2026-02-24T07:12:01.398Z</time>
      </trkpt>
      <trkpt lat="31.835130000000003" lon="34.995290000000004">
        <ele>302</ele>
        <time>2026-02-24T07:12:02.398Z</time>
      </trkpt>
      <trkpt lat="31.835150000000002" lon="34.99532">
        <ele>311</ele>
        <time>2026-02-24T07:12:03.398Z</time>
      </trkpt>
      <trkpt lat="31.835220000000003" lon="34.995560000000005">
        <ele>311</ele>
        <time>2026-02-24T07:12:04.398Z</time>
      </trkpt>
      <trkpt lat="31.835220000000003" lon="34.995830000000005">
        <ele>309</ele>
        <time>2026-02-24T07:12:05.398Z</time>
      </trkpt>
      <trkpt lat="31.835220000000003" lon="34.995830000000005">
        <ele>0</ele>
        <time>2026-02-24T07:12:06.398Z</time>
      </trkpt>
      <trkpt lat="31.835220000000003" lon="34.995830000000005">
        <ele>0</ele>
        <time>2026-02-24T07:12:07.398Z</time>
      </trkpt>
      <trkpt lat="31.835220000000003" lon="34.995830000000005">
        <ele>0</ele>
        <time>2026-02-24T07:12:08.398Z</time>
      </trkpt>
      <trkpt lat="31.835220000000003" lon="34.995830000000005">
        <ele>0</ele>
        <time>2026-02-24T07:12:09.398Z</time>
      </trkpt>
      <trkpt lat="31.835220000000003" lon="34.995830000000005">
        <ele>309</ele>
        <time>2026-02-24T07:12:10.398Z</time>
      </trkpt>
      <trkpt lat="31.835220000000003" lon="34.996140000000004">
        <ele>307</ele>
        <time>2026-02-24T07:12:11.398Z</time>
      </trkpt>
      <trkpt lat="31.83526" lon="34.99631">
        <ele>307</ele>
        <time>2026-02-24T07:12:12.398Z</time>
      </trkpt>
      <trkpt lat="31.835310000000003" lon="34.99635">
        <ele>307</ele>
        <time>2026-02-24T07:12:13.398Z</time>
      </trkpt>
      <trkpt lat="31.835310000000003" lon="34.99635">
        <ele>0</ele>
        <time>2026-02-24T07:12:14.398Z</time>
      </trkpt>
      <trkpt lat="31.835310000000003" lon="34.99635">
        <ele>0</ele>
        <time>2026-02-24T07:12:15.398Z</time>
      </trkpt>
      <trkpt lat="31.835310000000003" lon="34.99635">
        <ele>307</ele>
        <time>2026-02-24T07:12:16.398Z</time>
      </trkpt>
      <trkpt lat="31.835658950656153" lon="34.996731673204465">
        <ele>305.5</ele>
        <time>2026-02-24T07:12:17.398Z</time>
      </trkpt>
      <trkpt lat="31.835658950656153" lon="34.996731673204465">
        <ele>305.5</ele>
        <time>2026-02-24T07:12:18.398Z</time>
      </trkpt>
      <trkpt lat="31.836043598253767" lon="34.9973340928303">
        <ele>317</ele>
        <time>2026-02-24T07:12:19.398Z</time>
      </trkpt>
      <trkpt lat="31.836043598253767" lon="34.9973340928303">
        <ele>317</ele>
        <time>2026-02-24T07:12:20.398Z</time>
      </trkpt>
      <trkpt lat="31.83583623355416" lon="34.99801752873074">
        <ele>313.5</ele>
        <time>2026-02-24T07:12:21.398Z</time>
      </trkpt>
      <trkpt lat="31.83583623355416" lon="34.99801752873074">
        <ele>313.5</ele>
        <time>2026-02-24T07:12:22.398Z</time>
      </trkpt>
      <trkpt lat="31.83555629047045" lon="34.998347042468794">
        <ele>310</ele>
        <time>2026-02-24T07:12:23.398Z</time>
      </trkpt>
      <trkpt lat="31.83555629047045" lon="34.998347042468794">
        <ele>310</ele>
        <time>2026-02-24T07:12:24.398Z</time>
      </trkpt>
      <trkpt lat="31.834726824496116" lon="34.99777344448111">
        <ele>306</ele>
        <time>2026-02-24T07:12:25.398Z</time>
      </trkpt>
      <trkpt lat="31.834726824496116" lon="34.99777344448111">
        <ele>306</ele>
        <time>2026-02-24T07:12:26.398Z</time>
      </trkpt>
      <trkpt lat="31.833638139091065" lon="34.99777344448111">
        <ele>304</ele>
        <time>2026-02-24T07:12:27.398Z</time>
      </trkpt>
      <trkpt lat="31.833638139091065" lon="34.99777344448111">
        <ele>304</ele>
        <time>2026-02-24T07:12:28.398Z</time>
      </trkpt>
      <trkpt lat="31.83318192424551" lon="34.99752936023151">
        <ele>296.5</ele>
        <time>2026-02-24T07:12:29.398Z</time>
      </trkpt>
      <trkpt lat="31.83318192424551" lon="34.99752936023151">
        <ele>296.5</ele>
        <time>2026-02-24T07:12:30.398Z</time>
      </trkpt>
      <trkpt lat="31.832362805567897" lon="34.99689474117952">
        <ele>294</ele>
        <time>2026-02-24T07:12:31.398Z</time>
      </trkpt>
      <trkpt lat="31.832362805567897" lon="34.99689474117952">
        <ele>294</ele>
        <time>2026-02-24T07:12:32.398Z</time>
      </trkpt>
      <trkpt lat="31.831394692422876" lon="34.99676516047916">
        <ele>286.5</ele>
        <time>2026-02-24T07:12:33.398Z</time>
      </trkpt>
      <trkpt lat="31.831394692422876" lon="34.99676516047916">
        <ele>286.5</ele>
        <time>2026-02-24T07:12:34.398Z</time>
      </trkpt>
      <trkpt lat="31.83041425379939" lon="34.996349724461965">
        <ele>278</ele>
        <time>2026-02-24T07:12:35.398Z</time>
      </trkpt>
      <trkpt lat="31.83041425379939" lon="34.996349724461965">
        <ele>278</ele>
        <time>2026-02-24T07:12:36.398Z</time>
      </trkpt>
      <trkpt lat="31.829120058869506" lon="34.996934412190114">
        <ele>296</ele>
        <time>2026-02-24T07:12:37.398Z</time>
      </trkpt>
      <trkpt lat="31.829120058869506" lon="34.996934412190114">
        <ele>296</ele>
        <time>2026-02-24T07:12:38.398Z</time>
      </trkpt>
      <trkpt lat="31.82820496059324" lon="34.99787298986078">
        <ele>291</ele>
        <time>2026-02-24T07:12:39.398Z</time>
      </trkpt>
      <trkpt lat="31.82820496059324" lon="34.99787298986078">
        <ele>291</ele>
        <time>2026-02-24T07:12:40.398Z</time>
      </trkpt>
      <trkpt lat="31.828727875004617" lon="34.99911929791418">
        <ele>297</ele>
        <time>2026-02-24T07:12:41.398Z</time>
      </trkpt>
      <trkpt lat="31.828727875004617" lon="34.99911929791418">
        <ele>297</ele>
        <time>2026-02-24T07:12:42.398Z</time>
      </trkpt>
      <trkpt lat="31.82955145919574" lon="34.99996555646908">
        <ele>299</ele>
        <time>2026-02-24T07:12:43.398Z</time>
      </trkpt>
      <trkpt lat="31.82955145919574" lon="34.99996555646908">
        <ele>299</ele>
        <time>2026-02-24T07:12:44.398Z</time>
      </trkpt>
      <trkpt lat="31.830178946979927" lon="35.00073488242782">
        <ele>300.5</ele>
        <time>2026-02-24T07:12:45.398Z</time>
      </trkpt>
      <trkpt lat="31.830178946979927" lon="35.00073488242782">
        <ele>300.5</ele>
        <time>2026-02-24T07:12:46.398Z</time>
      </trkpt>
      <trkpt lat="31.831656140962778" lon="35.00190425788605">
        <ele>310</ele>
        <time>2026-02-24T07:12:47.398Z</time>
      </trkpt>
      <trkpt lat="31.831656140962778" lon="35.00190425788605">
        <ele>310</ele>
        <time>2026-02-24T07:12:48.398Z</time>
      </trkpt>
      <trkpt lat="31.832087529436436" lon="35.002335080422824">
        <ele>300.5</ele>
        <time>2026-02-24T07:12:49.398Z</time>
      </trkpt>
      <trkpt lat="31.832087529436436" lon="35.002335080422824">
        <ele>300.5</ele>
        <time>2026-02-24T07:12:50.398Z</time>
      </trkpt>
      <trkpt lat="31.83160385131407" lon="35.00287360859403">
        <ele>283</ele>
        <time>2026-02-24T07:12:51.398Z</time>
      </trkpt>
      <trkpt lat="31.83160385131407" lon="35.00287360859403">
        <ele>283</ele>
        <time>2026-02-24T07:12:52.398Z</time>
      </trkpt>
      <trkpt lat="31.832179035822307" lon="35.00304286030499">
        <ele>294</ele>
        <time>2026-02-24T07:12:53.398Z</time>
      </trkpt>
      <trkpt lat="31.832179035822307" lon="35.00304286030499">
        <ele>294</ele>
        <time>2026-02-24T07:12:54.398Z</time>
      </trkpt>
      <trkpt lat="31.832270542118295" lon="35.00399682449432">
        <ele>283</ele>
        <time>2026-02-24T07:12:55.398Z</time>
      </trkpt>
      <trkpt lat="31.832270542118295" lon="35.00399682449432">
        <ele>283</ele>
        <time>2026-02-24T07:12:56.398Z</time>
      </trkpt>
      <trkpt lat="31.832087529436436" lon="35.005043107798514">
        <ele>285.5</ele>
        <time>2026-02-24T07:12:57.398Z</time>
      </trkpt>
      <trkpt lat="31.832087529436436" lon="35.005043107798514">
        <ele>285.5</ele>
        <time>2026-02-24T07:12:58.398Z</time>
      </trkpt>
      <trkpt lat="31.831264475804787" lon="35.004033818338115">
        <ele>272</ele>
        <time>2026-02-24T07:12:59.398Z</time>
      </trkpt>
      <trkpt lat="31.831264475804787" lon="35.004033818338115">
        <ele>272</ele>
        <time>2026-02-24T07:13:00.398Z</time>
      </trkpt>
      <trkpt lat="31.831359202596687" lon="35.00548325530269">
        <ele>278</ele>
        <time>2026-02-24T07:13:01.398Z</time>
      </trkpt>
      <trkpt lat="31.831359202596687" lon="35.00548325530269">
        <ele>278</ele>
        <time>2026-02-24T07:13:02.398Z</time>
      </trkpt>
      <trkpt lat="31.830864517167953" lon="35.00529743005035">
        <ele>287</ele>
        <time>2026-02-24T07:13:03.398Z</time>
      </trkpt>
      <trkpt lat="31.830864517167953" lon="35.00529743005035">
        <ele>287</ele>
        <time>2026-02-24T07:13:04.398Z</time>
      </trkpt>
      <trkpt lat="31.830727688815244" lon="35.0056690805535">
        <ele>287</ele>
        <time>2026-02-24T07:13:05.398Z</time>
      </trkpt>
      <trkpt lat="31.830727688815244" lon="35.0056690805535">
        <ele>287</ele>
        <time>2026-02-24T07:13:06.398Z</time>
      </trkpt>
      <trkpt lat="31.830043544008504" lon="35.00613983785894">
        <ele>296</ele>
        <time>2026-02-24T07:13:07.398Z</time>
      </trkpt>
      <trkpt lat="31.830043544008504" lon="35.00613983785894">
        <ele>296</ele>
        <time>2026-02-24T07:13:08.398Z</time>
      </trkpt>
      <trkpt lat="31.829296241578874" lon="35.00760166317241">
        <ele>306</ele>
        <time>2026-02-24T07:13:09.398Z</time>
      </trkpt>
      <trkpt lat="31.829296241578874" lon="35.00760166317241">
        <ele>306</ele>
        <time>2026-02-24T07:13:10.398Z</time>
      </trkpt>
      <trkpt lat="31.82926466528707" lon="35.00931125548908">
        <ele>324.5</ele>
        <time>2026-02-24T07:13:11.398Z</time>
      </trkpt>
      <trkpt lat="31.82926466528707" lon="35.00931125548908">
        <ele>324.5</ele>
        <time>2026-02-24T07:13:12.398Z</time>
      </trkpt>
      <trkpt lat="31.829401495808625" lon="35.01041381864826">
        <ele>343.5</ele>
        <time>2026-02-24T07:13:13.398Z</time>
      </trkpt>
      <trkpt lat="31.829401495808625" lon="35.01041381864826">
        <ele>343.5</ele>
        <time>2026-02-24T07:13:14.398Z</time>
      </trkpt>
      <trkpt lat="31.829475173697872" lon="35.01107040120456">
        <ele>344</ele>
        <time>2026-02-24T07:13:15.398Z</time>
      </trkpt>
      <trkpt lat="31.829475173697872" lon="35.01107040120456">
        <ele>344</ele>
        <time>2026-02-24T07:13:16.398Z</time>
      </trkpt>
      <trkpt lat="31.828854172464588" lon="35.01229684786685">
        <ele>326.5</ele>
        <time>2026-02-24T07:13:17.398Z</time>
      </trkpt>
      <trkpt lat="31.828854172464588" lon="35.01229684786685">
        <ele>326.5</ele>
        <time>2026-02-24T07:13:18.398Z</time>
      </trkpt>
      <trkpt lat="31.82832789703734" lon="35.01294104207267">
        <ele>319.5</ele>
        <time>2026-02-24T07:13:19.398Z</time>
      </trkpt>
      <trkpt lat="31.82832789703734" lon="35.01294104207267">
        <ele>319.5</ele>
        <time>2026-02-24T07:13:20.398Z</time>
      </trkpt>
      <trkpt lat="31.82826474377974" lon="35.0134861294778">
        <ele>308.5</ele>
        <time>2026-02-24T07:13:21.398Z</time>
      </trkpt>
      <trkpt lat="31.82826474377974" lon="35.0134861294778">
        <ele>308.5</ele>
        <time>2026-02-24T07:13:22.398Z</time>
      </trkpt>
      <trkpt lat="31.828391050251696" lon="35.01444003243756">
        <ele>297</ele>
        <time>2026-02-24T07:13:23.398Z</time>
      </trkpt>
      <trkpt lat="31.828391050251696" lon="35.01444003243756">
        <ele>297</ele>
        <time>2026-02-24T07:13:24.398Z</time>
      </trkpt>
      <trkpt lat="31.828412101313546" lon="35.01538154704534">
        <ele>296.5</ele>
        <time>2026-02-24T07:13:25.398Z</time>
      </trkpt>
      <trkpt lat="31.828412101313546" lon="35.01538154704534">
        <ele>296.5</ele>
        <time>2026-02-24T07:13:26.398Z</time>
      </trkpt>
      <trkpt lat="31.82881511210593" lon="35.014738690534614">
        <ele>315</ele>
        <time>2026-02-24T07:13:27.398Z</time>
      </trkpt>
      <trkpt lat="31.82881511210593" lon="35.014738690534614">
        <ele>315</ele>
        <time>2026-02-24T07:13:28.398Z</time>
      </trkpt>
      <trkpt lat="31.82986344041504" lon="35.016113133626675">
        <ele>340</ele>
        <time>2026-02-24T07:13:29.398Z</time>
      </trkpt>
      <trkpt lat="31.82986344041504" lon="35.016113133626675">
        <ele>340</ele>
        <time>2026-02-24T07:13:30.398Z</time>
      </trkpt>
      <trkpt lat="31.830367695360522" lon="35.01706587259142">
        <ele>356</ele>
        <time>2026-02-24T07:13:31.398Z</time>
      </trkpt>
      <trkpt lat="31.830367695360522" lon="35.01706587259142">
        <ele>356</ele>
        <time>2026-02-24T07:13:32.398Z</time>
      </trkpt>
      <trkpt lat="31.8305136633832" lon="35.01845593435729">
        <ele>345</ele>
        <time>2026-02-24T07:13:33.398Z</time>
      </trkpt>
      <trkpt lat="31.8305136633832" lon="35.01845593435729">
        <ele>345</ele>
        <time>2026-02-24T07:13:34.398Z</time>
      </trkpt>
      <trkpt lat="31.831309848534246" lon="35.018596502401266">
        <ele>358</ele>
        <time>2026-02-24T07:13:35.398Z</time>
      </trkpt>
      <trkpt lat="31.831309848534246" lon="35.018596502401266">
        <ele>358</ele>
        <time>2026-02-24T07:13:36.398Z</time>
      </trkpt>
      <trkpt lat="31.831628320671413" lon="35.01934619863508">
        <ele>355.5</ele>
        <time>2026-02-24T07:13:37.398Z</time>
      </trkpt>
      <trkpt lat="31.831628320671413" lon="35.01934619863508">
        <ele>355.5</ele>
        <time>2026-02-24T07:13:38.398Z</time>
      </trkpt>
      <trkpt lat="31.832145835550435" lon="35.02017398822687">
        <ele>371</ele>
        <time>2026-02-24T07:13:39.398Z</time>
      </trkpt>
      <trkpt lat="31.832145835550435" lon="35.02017398822687">
        <ele>371</ele>
        <time>2026-02-24T07:13:40.398Z</time>
      </trkpt>
      <trkpt lat="31.833048162245134" lon="35.02093930313265">
        <ele>386</ele>
        <time>2026-02-24T07:13:41.398Z</time>
      </trkpt>
      <trkpt lat="31.833048162245134" lon="35.02093930313265">
        <ele>386</ele>
        <time>2026-02-24T07:13:42.398Z</time>
      </trkpt>
      <trkpt lat="31.833061431689885" lon="35.02156404999448">
        <ele>384</ele>
        <time>2026-02-24T07:13:43.398Z</time>
      </trkpt>
      <trkpt lat="31.833061431689885" lon="35.02156404999448">
        <ele>384</ele>
        <time>2026-02-24T07:13:44.398Z</time>
      </trkpt>
      <trkpt lat="31.832849120350403" lon="35.0222825088853">
        <ele>384.5</ele>
        <time>2026-02-24T07:13:45.398Z</time>
      </trkpt>
      <trkpt lat="31.832849120350403" lon="35.0222825088853">
        <ele>384.5</ele>
        <time>2026-02-24T07:13:46.398Z</time>
      </trkpt>
      <trkpt lat="31.832915467696623" lon="35.023360197221024">
        <ele>387</ele>
        <time>2026-02-24T07:13:47.398Z</time>
      </trkpt>
      <trkpt lat="31.832915467696623" lon="35.023360197221024">
        <ele>387</ele>
        <time>2026-02-24T07:13:48.398Z</time>
      </trkpt>
      <trkpt lat="31.833260473127396" lon="35.02331334120197">
        <ele>390</ele>
        <time>2026-02-24T07:13:49.398Z</time>
      </trkpt>
      <trkpt lat="31.833260473127396" lon="35.02331334120197">
        <ele>390</ele>
        <time>2026-02-24T07:13:50.398Z</time>
      </trkpt>
      <trkpt lat="31.833618746632453" lon="35.02323524784495">
        <ele>394</ele>
        <time>2026-02-24T07:13:51.398Z</time>
      </trkpt>
      <trkpt lat="31.833618746632453" lon="35.02323524784495">
        <ele>394</ele>
        <time>2026-02-24T07:13:52.398Z</time>
      </trkpt>
      <trkpt lat="31.833685093425373" lon="35.02270421301213">
        <ele>393.5</ele>
        <time>2026-02-24T07:13:53.398Z</time>
      </trkpt>
      <trkpt lat="31.833685093425373" lon="35.02270421301213">
        <ele>393.5</ele>
        <time>2026-02-24T07:13:54.398Z</time>
      </trkpt>
      <trkpt lat="31.833910672163555" lon="35.02190766076336">
        <ele>393.5</ele>
        <time>2026-02-24T07:13:55.398Z</time>
      </trkpt>
      <trkpt lat="31.833910672163555" lon="35.02190766076336">
        <ele>393.5</ele>
        <time>2026-02-24T07:13:56.398Z</time>
      </trkpt>
      <trkpt lat="31.833977018695947" lon="35.02092368445656">
        <ele>396</ele>
        <time>2026-02-24T07:13:57.398Z</time>
      </trkpt>
      <trkpt lat="31.833977018695947" lon="35.02092368445656">
        <ele>396</ele>
        <time>2026-02-24T07:13:58.398Z</time>
      </trkpt>
      <trkpt lat="31.834613943514782" lon="35.02018960689378">
        <ele>387</ele>
        <time>2026-02-24T07:13:59.398Z</time>
      </trkpt>
      <trkpt lat="31.834613943514782" lon="35.02018960689378">
        <ele>387</ele>
        <time>2026-02-24T07:14:00.398Z</time>
      </trkpt>
      <trkpt lat="31.835224325626058" lon="35.01970542807592">
        <ele>382.5</ele>
        <time>2026-02-24T07:14:01.398Z</time>
      </trkpt>
      <trkpt lat="31.835224325626058" lon="35.01970542807592">
        <ele>382.5</ele>
        <time>2026-02-24T07:14:02.398Z</time>
      </trkpt>
      <trkpt lat="31.83578162750625" lon="35.01884640114116">
        <ele>378</ele>
        <time>2026-02-24T07:14:03.398Z</time>
      </trkpt>
      <trkpt lat="31.83578162750625" lon="35.01884640114116">
        <ele>378</ele>
        <time>2026-02-24T07:14:04.398Z</time>
      </trkpt>
      <trkpt lat="31.836086815204425" lon="35.01800299287834">
        <ele>381</ele>
        <time>2026-02-24T07:14:05.398Z</time>
      </trkpt>
      <trkpt lat="31.836086815204425" lon="35.01800299287834">
        <ele>381</ele>
        <time>2026-02-24T07:14:06.398Z</time>
      </trkpt>
      <trkpt lat="31.83669718757443" lon="35.017206440629565">
        <ele>380.5</ele>
        <time>2026-02-24T07:14:07.398Z</time>
      </trkpt>
      <trkpt lat="31.83669718757443" lon="35.017206440629565">
        <ele>380.5</ele>
        <time>2026-02-24T07:14:08.398Z</time>
      </trkpt>
      <trkpt lat="31.83728101823671" lon="35.01658169376776">
        <ele>376</ele>
        <time>2026-02-24T07:14:09.398Z</time>
      </trkpt>
      <trkpt lat="31.83728101823671" lon="35.01658169376776">
        <ele>376</ele>
        <time>2026-02-24T07:14:10.398Z</time>
      </trkpt>
      <trkpt lat="31.83750658818488" lon="35.0159413282349">
        <ele>376</ele>
        <time>2026-02-24T07:14:11.398Z</time>
      </trkpt>
      <trkpt lat="31.83750658818488" lon="35.0159413282349">
        <ele>376</ele>
        <time>2026-02-24T07:14:12.398Z</time>
      </trkpt>
      <trkpt lat="31.83765254491648" lon="35.0149104959132">
        <ele>365</ele>
        <time>2026-02-24T07:14:13.398Z</time>
      </trkpt>
      <trkpt lat="31.83765254491648" lon="35.0149104959132">
        <ele>365</ele>
        <time>2026-02-24T07:14:14.398Z</time>
      </trkpt>
      <trkpt lat="31.83746678176317" lon="35.0123958897949">
        <ele>350.5</ele>
        <time>2026-02-24T07:14:15.398Z</time>
      </trkpt>
      <trkpt lat="31.83746678176317" lon="35.0123958897949">
        <ele>350.5</ele>
        <time>2026-02-24T07:14:16.398Z</time>
      </trkpt>
      <trkpt lat="31.837320824737745" lon="35.01120887075723">
        <ele>350.5</ele>
        <time>2026-02-24T07:14:17.398Z</time>
      </trkpt>
      <trkpt lat="31.837320824737745" lon="35.01120887075723">
        <ele>350.5</ele>
        <time>2026-02-24T07:14:18.398Z</time>
      </trkpt>
      <trkpt lat="31.837361038606545" lon="35.01105687538268">
        <ele>350.5</ele>
        <time>2026-02-24T07:14:19.398Z</time>
      </trkpt>
      <trkpt lat="31.837361038606545" lon="35.01105687538268">
        <ele>350.5</ele>
        <time>2026-02-24T07:14:20.398Z</time>
      </trkpt>
      <trkpt lat="31.837670853884433" lon="35.011421558097425">
        <ele>350</ele>
        <time>2026-02-24T07:14:21.398Z</time>
      </trkpt>
      <trkpt lat="31.837670853884433" lon="35.011421558097425">
        <ele>350</ele>
        <time>2026-02-24T07:14:22.398Z</time>
      </trkpt>
      <trkpt lat="31.837799053005725" lon="35.01128323017073">
        <ele>349</ele>
        <time>2026-02-24T07:14:23.398Z</time>
      </trkpt>
      <trkpt lat="31.837799053005725" lon="35.01128323017073">
        <ele>349</ele>
        <time>2026-02-24T07:14:24.398Z</time>
      </trkpt>
      <trkpt lat="31.837980668122086" lon="35.00973647245351">
        <ele>342.5</ele>
        <time>2026-02-24T07:14:25.398Z</time>
      </trkpt>
      <trkpt lat="31.837980668122086" lon="35.00973647245351">
        <ele>342.5</ele>
        <time>2026-02-24T07:14:26.398Z</time>
      </trkpt>
      <trkpt lat="31.838301164514277" lon="35.00830289213036">
        <ele>328</ele>
        <time>2026-02-24T07:14:27.398Z</time>
      </trkpt>
      <trkpt lat="31.838301164514277" lon="35.00830289213036">
        <ele>328</ele>
        <time>2026-02-24T07:14:28.398Z</time>
      </trkpt>
      <trkpt lat="31.8384507291167" lon="35.00767412883005">
        <ele>327</ele>
        <time>2026-02-24T07:14:29.398Z</time>
      </trkpt>
      <trkpt lat="31.8384507291167" lon="35.00767412883005">
        <ele>327</ele>
        <time>2026-02-24T07:14:30.398Z</time>
      </trkpt>
      <trkpt lat="31.838811255358323" lon="35.006634102193345">
        <ele>315.5</ele>
        <time>2026-02-24T07:14:31.398Z</time>
      </trkpt>
      <trkpt lat="31.838811255358323" lon="35.006634102193345">
        <ele>315.5</ele>
        <time>2026-02-24T07:14:32.398Z</time>
      </trkpt>
      <trkpt lat="31.838932474605073" lon="35.00576211422887">
        <ele>302</ele>
        <time>2026-02-24T07:14:33.398Z</time>
      </trkpt>
      <trkpt lat="31.838932474605073" lon="35.00576211422887">
        <ele>302</ele>
        <time>2026-02-24T07:14:34.398Z</time>
      </trkpt>
      <trkpt lat="31.839403881272702" lon="35.005777968555975">
        <ele>314</ele>
        <time>2026-02-24T07:14:35.398Z</time>
      </trkpt>
      <trkpt lat="31.839403881272702" lon="35.005777968555975">
        <ele>314</ele>
        <time>2026-02-24T07:14:36.398Z</time>
      </trkpt>
      <trkpt lat="31.840063846561364" lon="35.005223067123154">
        <ele>303</ele>
        <time>2026-02-24T07:14:37.398Z</time>
      </trkpt>
      <trkpt lat="31.840063846561364" lon="35.005223067123154">
        <ele>303</ele>
        <time>2026-02-24T07:14:38.398Z</time>
      </trkpt>
      <trkpt lat="31.840265875807845" lon="35.00490598059156">
        <ele>303</ele>
        <time>2026-02-24T07:14:39.398Z</time>
      </trkpt>
      <trkpt lat="31.840265875807845" lon="35.00490598059156">
        <ele>303</ele>
        <time>2026-02-24T07:14:40.398Z</time>
      </trkpt>
      <trkpt lat="31.840158126930817" lon="35.00447791377238">
        <ele>299</ele>
        <time>2026-02-24T07:14:41.398Z</time>
      </trkpt>
      <trkpt lat="31.840158126930817" lon="35.00447791377238">
        <ele>299</ele>
        <time>2026-02-24T07:14:42.398Z</time>
      </trkpt>
      <trkpt lat="31.84002344065867" lon="35.00378032340083">
        <ele>289</ele>
        <time>2026-02-24T07:14:43.398Z</time>
      </trkpt>
      <trkpt lat="31.84002344065867" lon="35.00378032340083">
        <ele>289</ele>
        <time>2026-02-24T07:14:44.398Z</time>
      </trkpt>
      <trkpt lat="31.84030628160353" lon="35.00374861474768">
        <ele>285</ele>
        <time>2026-02-24T07:14:45.398Z</time>
      </trkpt>
      <trkpt lat="31.84030628160353" lon="35.00374861474768">
        <ele>285</ele>
        <time>2026-02-24T07:14:46.398Z</time>
      </trkpt>
      <trkpt lat="31.840831555344934" lon="35.003827886380094">
        <ele>288</ele>
        <time>2026-02-24T07:14:47.398Z</time>
      </trkpt>
      <trkpt lat="31.840831555344934" lon="35.003827886380094">
        <ele>288</ele>
        <time>2026-02-24T07:14:48.398Z</time>
      </trkpt>
      <trkpt lat="31.840993177432296" lon="35.00347909119432">
        <ele>287.5</ele>
        <time>2026-02-24T07:14:49.398Z</time>
      </trkpt>
      <trkpt lat="31.840993177432296" lon="35.00347909119432">
        <ele>287.5</ele>
        <time>2026-02-24T07:14:50.398Z</time>
      </trkpt>
      <trkpt lat="31.84095277193741" lon="35.00284491813008">
        <ele>284</ele>
        <time>2026-02-24T07:14:51.398Z</time>
      </trkpt>
      <trkpt lat="31.84095277193741" lon="35.00284491813008">
        <ele>284</ele>
        <time>2026-02-24T07:14:52.398Z</time>
      </trkpt>
      <trkpt lat="31.841397231413737" lon="35.00274979216965">
        <ele>284</ele>
        <time>2026-02-24T07:14:53.398Z</time>
      </trkpt>
      <trkpt lat="31.841397231413737" lon="35.00274979216965">
        <ele>284</ele>
        <time>2026-02-24T07:14:54.398Z</time>
      </trkpt>
      <trkpt lat="31.84197637236673" lon="35.002194890737826">
        <ele>283</ele>
        <time>2026-02-24T07:14:55.398Z</time>
      </trkpt>
      <trkpt lat="31.84197637236673" lon="35.002194890737826">
        <ele>283</ele>
        <time>2026-02-24T07:14:56.398Z</time>
      </trkpt>
      <trkpt lat="31.842299612248183" lon="35.00227416237121">
        <ele>288</ele>
        <time>2026-02-24T07:14:57.398Z</time>
      </trkpt>
      <trkpt lat="31.842299612248183" lon="35.00227416237121">
        <ele>288</ele>
        <time>2026-02-24T07:14:58.398Z</time>
      </trkpt>
      <trkpt lat="31.842245739013407" lon="35.001624134978954">
        <ele>278</ele>
        <time>2026-02-24T07:14:59.398Z</time>
      </trkpt>
      <trkpt lat="31.842245739013407" lon="35.001624134978954">
        <ele>278</ele>
        <time>2026-02-24T07:15:00.398Z</time>
      </trkpt>
      <trkpt lat="31.842609382738985" lon="35.0015924263258">
        <ele>278.5</ele>
        <time>2026-02-24T07:15:01.398Z</time>
      </trkpt>
      <trkpt lat="31.842609382738985" lon="35.0015924263258">
        <ele>278.5</ele>
        <time>2026-02-24T07:15:02.398Z</time>
      </trkpt>
      <trkpt lat="31.842838342867438" lon="35.002020493144954">
        <ele>292</ele>
        <time>2026-02-24T07:15:03.398Z</time>
      </trkpt>
      <trkpt lat="31.842838342867438" lon="35.002020493144954">
        <ele>292</ele>
        <time>2026-02-24T07:15:04.398Z</time>
      </trkpt>
      <trkpt lat="31.843040366038423" lon="35.002068056125154">
        <ele>292</ele>
        <time>2026-02-24T07:15:05.398Z</time>
      </trkpt>
      <trkpt lat="31.843040366038423" lon="35.002068056125154">
        <ele>292</ele>
        <time>2026-02-24T07:15:06.398Z</time>
      </trkpt>
      <trkpt lat="31.843390538486858" lon="35.0018460955545">
        <ele>293</ele>
        <time>2026-02-24T07:15:07.398Z</time>
      </trkpt>
      <trkpt lat="31.843390538486858" lon="35.0018460955545">
        <ele>293</ele>
        <time>2026-02-24T07:15:08.398Z</time>
      </trkpt>
      <trkpt lat="31.843902326597913" lon="35.00141802873631">
        <ele>288</ele>
        <time>2026-02-24T07:15:09.398Z</time>
      </trkpt>
      <trkpt lat="31.843902326597913" lon="35.00141802873631">
        <ele>288</ele>
        <time>2026-02-24T07:15:10.398Z</time>
      </trkpt>
      <trkpt lat="31.844279431809838" lon="35.000641166731384">
        <ele>275</ele>
        <time>2026-02-24T07:15:11.398Z</time>
      </trkpt>
      <trkpt lat="31.844279431809838" lon="35.000641166731384">
        <ele>275</ele>
        <time>2026-02-24T07:15:12.398Z</time>
      </trkpt>
      <trkpt lat="31.844494919810657" lon="34.999737470113814">
        <ele>279</ele>
        <time>2026-02-24T07:15:13.398Z</time>
      </trkpt>
      <trkpt lat="31.844494919810657" lon="34.999737470113814">
        <ele>279</ele>
        <time>2026-02-24T07:15:14.398Z</time>
      </trkpt>
      <trkpt lat="31.844925894301284" lon="34.99929354896756">
        <ele>276</ele>
        <time>2026-02-24T07:15:15.398Z</time>
      </trkpt>
      <trkpt lat="31.844925894301284" lon="34.99929354896756">
        <ele>276</ele>
        <time>2026-02-24T07:15:16.398Z</time>
      </trkpt>
      <trkpt lat="31.845154848681275" lon="34.999166714354914">
        <ele>276</ele>
        <time>2026-02-24T07:15:17.398Z</time>
      </trkpt>
      <trkpt lat="31.845154848681275" lon="34.999166714354914">
        <ele>276</ele>
        <time>2026-02-24T07:15:18.398Z</time>
      </trkpt>
      <trkpt lat="31.845276059592507" lon="34.99846912398337">
        <ele>269</ele>
        <time>2026-02-24T07:15:19.398Z</time>
      </trkpt>
      <trkpt lat="31.845276059592507" lon="34.99846912398337">
        <ele>269</ele>
        <time>2026-02-24T07:15:20.398Z</time>
      </trkpt>
      <trkpt lat="31.845693562625826" lon="34.9981203287976">
        <ele>269</ele>
        <time>2026-02-24T07:15:21.398Z</time>
      </trkpt>
      <trkpt lat="31.845693562625826" lon="34.9981203287976">
        <ele>269</ele>
        <time>2026-02-24T07:15:22.398Z</time>
      </trkpt>
      <trkpt lat="31.84574743384799" lon="34.997771533611854">
        <ele>265</ele>
        <time>2026-02-24T07:15:23.398Z</time>
      </trkpt>
      <trkpt lat="31.84574743384799" lon="34.997771533611854">
        <ele>265</ele>
        <time>2026-02-24T07:15:24.398Z</time>
      </trkpt>
      <trkpt lat="31.84530299532986" lon="34.99726419515929">
        <ele>257</ele>
        <time>2026-02-24T07:15:25.398Z</time>
      </trkpt>
      <trkpt lat="31.84530299532986" lon="34.99726419515929">
        <ele>257</ele>
        <time>2026-02-24T07:15:26.398Z</time>
      </trkpt>
      <trkpt lat="31.844548791731995" lon="34.997311758139574">
        <ele>249</ele>
        <time>2026-02-24T07:15:27.398Z</time>
      </trkpt>
      <trkpt lat="31.844548791731995" lon="34.997311758139574">
        <ele>249</ele>
        <time>2026-02-24T07:15:28.398Z</time>
      </trkpt>
      <trkpt lat="31.84379458196787" lon="34.996630022095076">
        <ele>231.5</ele>
        <time>2026-02-24T07:15:29.398Z</time>
      </trkpt>
      <trkpt lat="31.84379458196787" lon="34.996630022095076">
        <ele>231.5</ele>
        <time>2026-02-24T07:15:30.398Z</time>
      </trkpt>
      <trkpt lat="31.84266325576023" lon="34.99552021923009">
        <ele>225</ele>
        <time>2026-02-24T07:15:31.398Z</time>
      </trkpt>
      <trkpt lat="31.84266325576023" lon="34.99552021923009">
        <ele>225</ele>
        <time>2026-02-24T07:15:32.398Z</time>
      </trkpt>
      <trkpt lat="31.84254204141513" lon="34.994410416366435">
        <ele>223.5</ele>
        <time>2026-02-24T07:15:33.398Z</time>
      </trkpt>
      <trkpt lat="31.84254204141513" lon="34.994410416366435">
        <ele>223.5</ele>
        <time>2026-02-24T07:15:34.398Z</time>
      </trkpt>
      <trkpt lat="31.842676724011312" lon="34.993776243301255">
        <ele>218</ele>
        <time>2026-02-24T07:15:35.398Z</time>
      </trkpt>
      <trkpt lat="31.842676724011312" lon="34.993776243301255">
        <ele>218</ele>
        <time>2026-02-24T07:15:36.398Z</time>
      </trkpt>
      <trkpt lat="31.842892215755896" lon="34.9931737788892">
        <ele>221</ele>
        <time>2026-02-24T07:15:37.398Z</time>
      </trkpt>
      <trkpt lat="31.842892215755896" lon="34.9931737788892">
        <ele>221</ele>
        <time>2026-02-24T07:15:38.398Z</time>
      </trkpt>
      <trkpt lat="31.84277100171157" lon="34.99276156639709">
        <ele>221</ele>
        <time>2026-02-24T07:15:39.398Z</time>
      </trkpt>
      <trkpt lat="31.84277100171157" lon="34.99276156639709">
        <ele>221</ele>
        <time>2026-02-24T07:15:40.398Z</time>
      </trkpt>
      <trkpt lat="31.842286143941692" lon="34.99282498370346">
        <ele>237</ele>
        <time>2026-02-24T07:15:41.398Z</time>
      </trkpt>
      <trkpt lat="31.842286143941692" lon="34.99282498370346">
        <ele>237</ele>
        <time>2026-02-24T07:15:42.398Z</time>
      </trkpt>
      <trkpt lat="31.84194943565778" lon="34.99344330244256">
        <ele>234.5</ele>
        <time>2026-02-24T07:15:43.398Z</time>
      </trkpt>
      <trkpt lat="31.84194943565778" lon="34.99344330244256">
        <ele>234.5</ele>
        <time>2026-02-24T07:15:44.398Z</time>
      </trkpt>
      <trkpt lat="31.841747410097867" lon="34.99358599138128">
        <ele>239.5</ele>
        <time>2026-02-24T07:15:45.398Z</time>
      </trkpt>
    </trkseg>
  </trk>
</gpx>